{
"type": "FeatureCollection",
"name": "desire_lines_ZAF.9.3.1_1_44531",
"crs": { "type": "name", "properties": { "name": "urn:ogc:def:crs:OGC:1.3:CRS84" } },
"features": [
{"type":"Feature","properties":{},"geometry":{"type":"LineString","coordinates":[[18.5840975,-34.0128604],[18.5841443,-34.0133379],[18.5841803,-34.0136686],[18.5842418,-34.0139698],[18.5843399,-34.0144162],[18.5844557,-34.0148985],[18.5845285,-34.015205]]}},
{"type":"Feature","properties":{},"geometry":{"type":"LineString","coordinates":[[18.5846166,-34.0152692],[18.5846069,-34.01515220000001],[18.5846675,-34.0151492]]}},
{"type":"Feature","properties":{},"geometry":{"type":"LineString","coordinates":[[18.5869253,-34.0191494],[18.5870624,-34.0192849],[18.5870773,-34.0192982],[18.5871506,-34.0193636],[18.5872626,-34.0194475],[18.5873746,-34.0195284],[18.587484,-34.0196123]]}},
{"type":"Feature","properties":{},"geometry":{"type":"LineString","coordinates":[[18.5869253,-34.0191494],[18.5867748,-34.018962599999988],[18.5867433,-34.018924],[18.586658,-34.0188242]]}},
{"type":"Feature","properties":{},"geometry":{"type":"LineString","coordinates":[[18.585383,-34.0135269],[18.5853707,-34.0134173],[18.5853529,-34.013258],[18.5853379,-34.0131152]]}},
{"type":"Feature","properties":{},"geometry":{"type":"LineString","coordinates":[[18.5852498,-34.0135358],[18.585383,-34.0135269]]}},
{"type":"Feature","properties":{},"geometry":{"type":"LineString","coordinates":[[18.5851864,-34.0134285],[18.5853707,-34.0134173]]}},
{"type":"Feature","properties":{},"geometry":{"type":"LineString","coordinates":[[18.5851696,-34.0132701],[18.5853529,-34.013258]]}},
{"type":"Feature","properties":{},"geometry":{"type":"LineString","coordinates":[[18.5851877,-34.0131268],[18.5853379,-34.0131152]]}},
{"type":"Feature","properties":{},"geometry":{"type":"LineString","coordinates":[[18.585083,-34.0151676],[18.58484,-34.0151854],[18.5845285,-34.015205]]}},
{"type":"Feature","properties":{},"geometry":{"type":"LineString","coordinates":[[18.5877497,-34.0203048],[18.587733,-34.0203376],[18.5877202,-34.0204226],[18.5877118,-34.020462],[18.5877086,-34.020477],[18.5876988,-34.0205227],[18.5876927,-34.020617599999987],[18.587656,-34.0206261],[18.5876651,-34.0207406],[18.5876435,-34.0207385],[18.5876427,-34.0207557],[18.5875836,-34.0207516],[18.5875836,-34.0207626],[18.5875212,-34.0207626],[18.5875097,-34.020801]]}},
{"type":"Feature","properties":{},"geometry":{"type":"LineString","coordinates":[[18.5846675,-34.0151492],[18.5850787,-34.0151229],[18.585083,-34.0151676]]}},
{"type":"Feature","properties":{},"geometry":{"type":"LineString","coordinates":[[18.5845052,-34.015207],[18.5845285,-34.015205]]}},
{"type":"Feature","properties":{},"geometry":{"type":"LineString","coordinates":[[18.5844221,-34.0152173],[18.5845052,-34.015207]]}},
{"type":"Feature","properties":{},"geometry":{"type":"LineString","coordinates":[[18.5844291,-34.015171699999989],[18.5843959,-34.0151828],[18.5844023,-34.015218099999984],[18.5844221,-34.0152173]]}},
{"type":"Feature","properties":{},"geometry":{"type":"LineString","coordinates":[[18.584467,-34.0151633],[18.5844291,-34.015171699999989]]}},
{"type":"Feature","properties":{},"geometry":{"type":"LineString","coordinates":[[18.5846069,-34.01515220000001],[18.584467,-34.0151633]]}},
{"type":"Feature","properties":{},"geometry":{"type":"LineString","coordinates":[[18.5857089,-34.0148979],[18.5858645,-34.0148915],[18.5858859,-34.0149563],[18.5859476,-34.0149416],[18.5859644,-34.0149644],[18.5859878,-34.015021599999976],[18.5860204,-34.0150113],[18.5860432,-34.0150102],[18.5860616,-34.0150725],[18.5860495,-34.0151108],[18.5860475,-34.0151547],[18.5860616,-34.0151964],[18.5860428,-34.015217]]}},
{"type":"Feature","properties":{},"geometry":{"type":"LineString","coordinates":[[18.5860147,-34.0167382],[18.5861065,-34.0167215],[18.5862923,-34.0166854],[18.5863278,-34.0166726],[18.5863761,-34.016656],[18.5863828,-34.0166393],[18.5864512,-34.0166237],[18.5865605,-34.0166121],[18.586643,-34.0165982],[18.5867918,-34.0165904]]}},
{"type":"Feature","properties":{},"geometry":{"type":"LineString","coordinates":[[18.5860147,-34.0172346],[18.5860106,-34.0172957],[18.5859834,-34.0173815]]}},
{"type":"Feature","properties":{},"geometry":{"type":"LineString","coordinates":[[18.5852498,-34.0135358],[18.58511,-34.013554],[18.5851128,-34.0135948],[18.5853082,-34.0135821],[18.5876891,-34.0136341],[18.5877691,-34.0136358],[18.5881293,-34.0136338],[18.5886391,-34.0136397],[18.5891668,-34.0136456],[18.58925,-34.0136473],[18.5893597,-34.0136494],[18.5895575,-34.0136533],[18.589616,-34.0136545],[18.5900937,-34.0136633],[18.5904645,-34.0136693],[18.5905594,-34.0136698],[18.5906574,-34.013671],[18.5907522,-34.0136719],[18.5908232,-34.0136734],[18.5909095,-34.0136681],[18.5909358,-34.013679899999985],[18.5909537,-34.0137121],[18.590974,-34.0137487]]}},
{"type":"Feature","properties":{},"geometry":{"type":"LineString","coordinates":[[18.5855517,-34.0132441],[18.5853529,-34.013258]]}},
{"type":"Feature","properties":{},"geometry":{"type":"LineString","coordinates":[[18.5855655,-34.0134034],[18.5853707,-34.0134173]]}},
{"type":"Feature","properties":{},"geometry":{"type":"LineString","coordinates":[[18.5942628,-34.0199676],[18.5944974,-34.0199656],[18.5946446,-34.019862199999984]]}},
{"type":"Feature","properties":{},"geometry":{"type":"LineString","coordinates":[[18.5934686,-34.0197408],[18.5935349,-34.0197567],[18.593584,-34.0197642],[18.5936622,-34.0197663],[18.593737,-34.0197767],[18.5937761,-34.0198035],[18.5938111,-34.0198704],[18.593831,-34.0199732],[18.5938412,-34.0200529]]}},
{"type":"Feature","properties":{},"geometry":{"type":"LineString","coordinates":[[18.5924339,-34.0192042],[18.5923628,-34.0192099],[18.5922678,-34.0191593],[18.592168,-34.0190904],[18.5919763,-34.0189612],[18.591902,-34.0189123],[18.5918935,-34.01891280000001],[18.5918977,-34.0189686]]}},
{"type":"Feature","properties":{},"geometry":{"type":"LineString","coordinates":[[18.5918268,-34.01901],[18.5918977,-34.0189686],[18.5919763,-34.0189612],[18.5923386,-34.0189272],[18.5924006,-34.0189289]]}},
{"type":"Feature","properties":{},"geometry":{"type":"LineString","coordinates":[[18.5923064,-34.0133366],[18.5923608,-34.0133111],[18.592515,-34.013244899999989],[18.5926612,-34.0131816],[18.5927095,-34.0131627],[18.5927477,-34.0131477],[18.5928717,-34.01310320000001],[18.5929998,-34.0130637],[18.593085,-34.0130382],[18.5931907,-34.0130137],[18.59327,-34.0129954],[18.593378,-34.0129765],[18.59349,-34.0129581],[18.5935121,-34.0129723],[18.593559,-34.0130093],[18.5936308,-34.0130615],[18.5936691,-34.0131716],[18.5937273,-34.0133127],[18.5937783,-34.0134317],[18.5938628,-34.0135595],[18.593891,-34.0135918],[18.5939009,-34.0136204],[18.5939178,-34.0137596],[18.5939272,-34.013893],[18.5939513,-34.0141431],[18.5939835,-34.0143166],[18.5939728,-34.0145444]]}},
{"type":"Feature","properties":{},"geometry":{"type":"LineString","coordinates":[[18.5918307,-34.0135451],[18.5919133,-34.0135044],[18.5920355,-34.0134539],[18.5921609,-34.013395],[18.5922501,-34.0133578],[18.5923064,-34.0133366]]}},
{"type":"Feature","properties":{},"geometry":{"type":"LineString","coordinates":[[18.5923064,-34.0133366],[18.5923181,-34.0133464],[18.5923366,-34.0133701],[18.5925257,-34.0133027],[18.5925941,-34.0132794],[18.5926484,-34.0132649],[18.5926766,-34.0132811],[18.5926867,-34.013326599999985],[18.5926954,-34.0133861],[18.5926565,-34.0133998],[18.5926148,-34.01341630000001],[18.5926204,-34.0134458],[18.5926069,-34.0134717],[18.5925438,-34.0135101],[18.5924466,-34.0135423]]}},
{"type":"Feature","properties":{},"geometry":{"type":"LineString","coordinates":[[18.5898241,-34.0145378],[18.589865,-34.014495],[18.5899018,-34.0144622],[18.5899743,-34.0144277],[18.5900098,-34.014420200000011],[18.5899863,-34.0143682],[18.5900749,-34.0143332],[18.5901607,-34.0142977],[18.59027,-34.0142554],[18.5904242,-34.0141943],[18.5905402,-34.0141459],[18.5906884,-34.0140837],[18.5909603,-34.0139656],[18.5909659,-34.0139435],[18.5910938,-34.0138938],[18.5911233,-34.0138927],[18.5911576,-34.013885],[18.5912664,-34.0138374],[18.5912937,-34.0138193],[18.5913241,-34.0137991],[18.5913791,-34.0137785],[18.5913793,-34.0137608],[18.5913871,-34.0137457],[18.5914569,-34.013714],[18.5918307,-34.0135451],[18.5918357,-34.0135586],[18.5918632,-34.0135617],[18.5919188,-34.0135505],[18.5919363,-34.013547],[18.5919958,-34.0135289]]}},
{"type":"Feature","properties":{},"geometry":{"type":"LineString","coordinates":[[18.5851393,-34.0176821],[18.5852522,-34.0176948],[18.5853369,-34.0177022],[18.5854293,-34.0177103],[18.5854668,-34.0177298],[18.5855788,-34.017732],[18.5856861,-34.017735300000012],[18.5857699,-34.0177359],[18.5858437,-34.0177442],[18.5858571,-34.0176953],[18.5859578,-34.017724]]}},
{"type":"Feature","properties":{},"geometry":{"type":"LineString","coordinates":[[18.5842201,-34.018083],[18.5842531,-34.0180516],[18.5843571,-34.0180421],[18.5843557,-34.0179904]]}},
{"type":"Feature","properties":{},"geometry":{"type":"LineString","coordinates":[[18.5825534,-34.017646],[18.5825251,-34.0175964],[18.5824842,-34.0173452],[18.5824759,-34.0172776]]}},
{"type":"Feature","properties":{},"geometry":{"type":"LineString","coordinates":[[18.5856311,-34.0167971],[18.5855915,-34.0169605]]}},
{"type":"Feature","properties":{},"geometry":{"type":"LineString","coordinates":[[18.5880197,-34.0161431],[18.5881242,-34.0161307],[18.5881601,-34.0161298],[18.58821,-34.0161285],[18.5882074,-34.0160918],[18.5882463,-34.0160729],[18.5884179,-34.0160696],[18.588379,-34.0159551],[18.5883625,-34.0159211],[18.5883455,-34.0158862],[18.5882851,-34.0158506],[18.5883026,-34.015795]]}},
{"type":"Feature","properties":{},"geometry":{"type":"LineString","coordinates":[[18.5885195,-34.0149313],[18.5885681,-34.0149602],[18.588586,-34.0149755],[18.588611,-34.0149969],[18.5886137,-34.015038],[18.5886271,-34.0150925],[18.5887036,-34.015088],[18.5887116,-34.0151069],[18.588776,-34.0151025],[18.5888239,-34.0151016],[18.5888739,-34.015100599999982],[18.588894,-34.0151003],[18.5889855,-34.0150973],[18.5889973,-34.01509690000001],[18.58913,-34.0150969],[18.5892038,-34.015103599999989],[18.5892186,-34.0151158],[18.5892883,-34.015128],[18.5893486,-34.0151125],[18.5894009,-34.015082499999984],[18.5894117,-34.0150391],[18.5894204,-34.014992699999986],[18.5894216,-34.01498620000001],[18.5894345,-34.0149179],[18.5893701,-34.0149024],[18.5893513,-34.014860099999986],[18.5893439,-34.0147579]]}},
{"type":"Feature","properties":{},"geometry":{"type":"LineString","coordinates":[[18.5881725,-34.0143054],[18.58821,-34.0143443],[18.5882597,-34.01441220000001],[18.5882717,-34.0144455],[18.5883401,-34.0144133],[18.5883991,-34.0143888],[18.5884581,-34.0143521],[18.5884729,-34.0143321],[18.588497,-34.0143154],[18.5885373,-34.0142899],[18.5885695,-34.0142754],[18.5886164,-34.0142465],[18.5886781,-34.0142221],[18.5887974,-34.0141743],[18.5888538,-34.0141643],[18.5889168,-34.0141843],[18.5889664,-34.0141598],[18.5890486,-34.0141189]]}},
{"type":"Feature","properties":{},"geometry":{"type":"LineString","coordinates":[[18.5867731,-34.015202],[18.5867782,-34.0151727],[18.586767,-34.0150836],[18.5867831,-34.0150224],[18.5867724,-34.0149546],[18.5867657,-34.0149246],[18.5867858,-34.0148576]]}},
{"type":"Feature","properties":{},"geometry":{"type":"LineString","coordinates":[[18.5838897,-34.0154198],[18.5838823,-34.0153793],[18.5838756,-34.0153426],[18.5836986,-34.0153159],[18.5836704,-34.015120299999985]]}},
{"type":"Feature","properties":{},"geometry":{"type":"LineString","coordinates":[[18.5872693,-34.0154559],[18.5873191,-34.0154437],[18.587406,-34.0154127]]}},
{"type":"Feature","properties":{},"geometry":{"type":"LineString","coordinates":[[18.5925257,-34.0133027],[18.5926148,-34.01341630000001]]}},
{"type":"Feature","properties":{},"geometry":{"type":"LineString","coordinates":[[18.5881318,-34.0148818],[18.5881794,-34.0150133]]}},
{"type":"Feature","properties":{},"geometry":{"type":"LineString","coordinates":[[18.5876891,-34.0136341],[18.5878131,-34.0137374],[18.5878295,-34.0137777],[18.5878412,-34.0138041],[18.587915,-34.0139297],[18.5880223,-34.0140542],[18.5881449,-34.0141477],[18.5881809,-34.0142336],[18.5881725,-34.0143054],[18.5881376,-34.0143699],[18.5881215,-34.0144077],[18.5880598,-34.0144577],[18.5880263,-34.0145055],[18.5880277,-34.0145389],[18.5880469,-34.014566],[18.5880603,-34.0145908],[18.5880728,-34.0146356],[18.5880628,-34.0146749],[18.5880706,-34.0147198],[18.5880852,-34.0148045],[18.588101,-34.014848],[18.5881318,-34.0148818],[18.5881027,-34.0149052],[18.5880278,-34.0149307],[18.5879663,-34.014948],[18.5878739,-34.0149721],[18.5878373,-34.0149866],[18.5877463,-34.0150194],[18.5877358,-34.0150231],[18.587567,-34.0151121],[18.5875478,-34.0151348],[18.5874396,-34.0151703],[18.5874572,-34.0151328],[18.587473,-34.0151059],[18.5874938,-34.0150679],[18.5875112,-34.0150217],[18.5875445,-34.01497],[18.5875795,-34.0149555],[18.5876535,-34.0149293],[18.5877046,-34.0148799],[18.5876994,-34.014826]]}},
{"type":"Feature","properties":{},"geometry":{"type":"LineString","coordinates":[[18.5899109,-34.0133717],[18.5899503,-34.0133641],[18.5900085,-34.0133468],[18.5900435,-34.0133324],[18.5900693,-34.0133089],[18.5900892,-34.013299299999986],[18.590125,-34.013289599999986],[18.5901574,-34.0132717],[18.5901899,-34.0132455],[18.5902057,-34.0132069],[18.590229,-34.0131827],[18.5902539,-34.0131717],[18.5902689,-34.0131503],[18.5902684,-34.013124]]}},
{"type":"Feature","properties":{},"geometry":{"type":"LineString","coordinates":[[18.5895575,-34.0136533],[18.5895804,-34.0136305],[18.5896067,-34.0136051],[18.5896698,-34.0135505],[18.5897098,-34.0135295],[18.58977,-34.0134946],[18.5898082,-34.013463],[18.5898609,-34.0134192],[18.589892,-34.0133915],[18.5899109,-34.0133717],[18.5899251,-34.0133501],[18.5899308,-34.0133315],[18.5899447,-34.0133007],[18.5899757,-34.013275],[18.5899932,-34.0132564],[18.5900071,-34.0132334],[18.5900121,-34.0132],[18.590015,-34.0131252]]}},
{"type":"Feature","properties":{},"geometry":{"type":"LineString","coordinates":[[18.5876891,-34.0136341],[18.5877026,-34.0135827],[18.5877167,-34.0135172],[18.5877525,-34.0134282],[18.5877949,-34.013369599999983],[18.5878531,-34.0133537],[18.5879006,-34.0133448],[18.5879463,-34.0133372],[18.5879946,-34.01331720000001],[18.5881168,-34.0133048],[18.588294,-34.0132834],[18.5885494,-34.0132544],[18.5888689,-34.01322],[18.5891733,-34.0131869],[18.589437,-34.013158599999983],[18.5897756,-34.01313170000001],[18.589944,-34.0131255],[18.590015,-34.0131252],[18.5902684,-34.013124]]}},
{"type":"Feature","properties":{},"geometry":{"type":"LineString","coordinates":[[18.5892374,-34.0138764],[18.5892291,-34.0138571],[18.5892216,-34.0138344],[18.5892191,-34.0138144],[18.5892183,-34.0137964],[18.5892216,-34.0137606],[18.5892357,-34.0137026],[18.58925,-34.0136473]]}},
{"type":"Feature","properties":{},"geometry":{"type":"LineString","coordinates":[[18.5890486,-34.0141189],[18.5890843,-34.0140936],[18.5891218,-34.0140612],[18.5891484,-34.014023300000012],[18.5891775,-34.0139695],[18.5892033,-34.0139302],[18.5892174,-34.0139185],[18.5892307,-34.0138923],[18.5892374,-34.0138764],[18.5892424,-34.0138606],[18.5892532,-34.0138385],[18.5892698,-34.0138185],[18.5892873,-34.0138013],[18.5893039,-34.0137792],[18.5893164,-34.0137495],[18.5893297,-34.0137295],[18.5893439,-34.0137054],[18.5893522,-34.0136868],[18.5893547,-34.0136702],[18.5893597,-34.0136494]]}},
{"type":"Feature","properties":{},"geometry":{"type":"LineString","coordinates":[[18.5909603,-34.0139656],[18.5909918,-34.01397570000001],[18.5910367,-34.0139578],[18.5910567,-34.0139709],[18.5910817,-34.0139874],[18.5911191,-34.013973]]}},
{"type":"Feature","properties":{},"geometry":{"type":"LineString","coordinates":[[18.5921609,-34.013395],[18.592152,-34.0133785],[18.592139,-34.0133551],[18.5921074,-34.0133096],[18.5920907,-34.013273099999985],[18.5920699,-34.013242],[18.5920508,-34.0132124],[18.5920383,-34.0131903],[18.59203,-34.013181299999985],[18.59202,-34.013162],[18.5919951,-34.0131427],[18.5919618,-34.0131179],[18.5919377,-34.0130979],[18.5919185,-34.0130572],[18.5919036,-34.0130414],[18.5918661,-34.0129938]]}},
{"type":"Feature","properties":{},"geometry":{"type":"LineString","coordinates":[[18.585216,-34.017075],[18.5854911,-34.0170957],[18.5856479,-34.0171061],[18.5858084,-34.017143]]}},
{"type":"Feature","properties":{},"geometry":{"type":"LineString","coordinates":[[18.5858084,-34.017143],[18.5857521,-34.0173327]]}},
{"type":"Feature","properties":{},"geometry":{"type":"LineString","coordinates":[[18.5860106,-34.0158367],[18.5860571,-34.015845],[18.586102,-34.0158519],[18.5861628,-34.0158561],[18.5862509,-34.015865],[18.5862992,-34.0158616],[18.5863558,-34.015867799999988],[18.5864023,-34.0158671],[18.586434,-34.0158692],[18.5864439,-34.0158857],[18.5864672,-34.015900899999984],[18.5866411,-34.0159092],[18.5867583,-34.0159106]]}},
{"type":"Feature","properties":{},"geometry":{"type":"LineString","coordinates":[[18.5865211,-34.0152016],[18.586478,-34.0152072],[18.5864365,-34.0152086],[18.5863857,-34.0152079],[18.58634,-34.0152017],[18.5862875,-34.015199],[18.5862418,-34.0152031],[18.5862343,-34.0152134],[18.5861991,-34.015247]]}},
{"type":"Feature","properties":{},"geometry":{"type":"LineString","coordinates":[[18.5876994,-34.014826],[18.5876868,-34.0148204],[18.587671,-34.0148094],[18.5876468,-34.0147852],[18.5876219,-34.014748],[18.5875944,-34.0147149],[18.5875795,-34.0147101],[18.587557,-34.0146977],[18.5875304,-34.0146832],[18.5874896,-34.014677],[18.5874181,-34.0146818],[18.5873124,-34.014690099999989],[18.5872525,-34.014697],[18.5872317,-34.0146983],[18.5872159,-34.0147094],[18.5871976,-34.0147225],[18.5871718,-34.014733499999984],[18.5871286,-34.0147521],[18.5871028,-34.0147714],[18.5870828,-34.0147714],[18.5870604,-34.0147825],[18.5870362,-34.0147949],[18.5870129,-34.0147997],[18.5869763,-34.0148038],[18.5869372,-34.0148135],[18.5869023,-34.0148218],[18.5868715,-34.0148287],[18.5868549,-34.014834199999989],[18.5868366,-34.0148438],[18.5868199,-34.014851399999984],[18.5867858,-34.0148576],[18.5867592,-34.0148638],[18.5867393,-34.0148604],[18.5867185,-34.0148528],[18.5866993,-34.0148556],[18.5866636,-34.0148583],[18.5866403,-34.0148638],[18.5866095,-34.0148749],[18.586592,-34.0148845],[18.5865704,-34.0148935],[18.5865529,-34.0148997],[18.5865255,-34.0149142],[18.5865246,-34.0149418],[18.5865321,-34.0149824],[18.5865496,-34.0150383],[18.5865479,-34.0150762],[18.5865446,-34.0151114],[18.586528,-34.0151541],[18.586518,-34.0151686],[18.5865171,-34.0151879],[18.5865211,-34.0152016],[18.5865271,-34.0152224],[18.5865438,-34.0152631],[18.5865927,-34.0152959]]}},
{"type":"Feature","properties":{},"geometry":{"type":"LineString","coordinates":[[18.5862437,-34.0207777],[18.5862487,-34.020616],[18.586421,-34.0205587],[18.5864706,-34.0206143],[18.5864881,-34.0205865],[18.5864827,-34.0205404],[18.586535,-34.0205321],[18.5866188,-34.0205243],[18.5866966,-34.0205159]]}},
{"type":"Feature","properties":{},"geometry":{"type":"LineString","coordinates":[[18.5870773,-34.0192982],[18.5871526,-34.0192571],[18.5871854,-34.0192526],[18.5873242,-34.0191787],[18.5873839,-34.0192032],[18.5874456,-34.0192421],[18.5875033,-34.0192888],[18.5875261,-34.0193332],[18.5875462,-34.0193821],[18.5875663,-34.0194555],[18.5876188,-34.019506]]}},
{"type":"Feature","properties":{},"geometry":{"type":"LineString","coordinates":[[18.5880644,-34.01882],[18.5880176,-34.0188314],[18.5879458,-34.0188441],[18.5878754,-34.0188553],[18.5878339,-34.018868],[18.587793,-34.018876399999989],[18.5877655,-34.0188647]]}},
{"type":"Feature","properties":{},"geometry":{"type":"LineString","coordinates":[[18.5879236,-34.0208593],[18.5879668,-34.0209997],[18.5879854,-34.0210556],[18.5880511,-34.0210478],[18.5880821,-34.0210458],[18.5881021,-34.0210445],[18.5881866,-34.0210189],[18.5882127,-34.0210095],[18.5882275,-34.0210106],[18.5883381,-34.0209715],[18.5884119,-34.0209461],[18.588426,-34.0208994],[18.5884885,-34.0208874]]}},
{"type":"Feature","properties":{},"geometry":{"type":"LineString","coordinates":[[18.5885329,-34.0205144],[18.5884555,-34.020522],[18.5884065,-34.0205259],[18.5883301,-34.0205209],[18.5883234,-34.0205343],[18.5883046,-34.0205521],[18.5882836,-34.0205597],[18.588265,-34.0205665],[18.5882067,-34.0205798],[18.5881598,-34.0205937],[18.5881269,-34.020608799999984],[18.588094,-34.0206288],[18.5880096,-34.0206649],[18.5879646,-34.020672699999984],[18.5879505,-34.0206482],[18.5879234,-34.0206525],[18.5878513,-34.0206638]]}},
{"type":"Feature","properties":{},"geometry":{"type":"LineString","coordinates":[[18.5885115,-34.0203155],[18.5884628,-34.0203231],[18.5884233,-34.0203303],[18.588375,-34.0203414],[18.5883301,-34.0203459],[18.5882898,-34.0203575],[18.5882369,-34.020367],[18.5881497,-34.020372],[18.5881318,-34.0203732]]}},
{"type":"Feature","properties":{},"geometry":{"type":"LineString","coordinates":[[18.5876313,-34.0197987],[18.5878339,-34.0197123],[18.5878506,-34.019705],[18.5878245,-34.0196717],[18.5878298,-34.0196495],[18.5878607,-34.0196345],[18.5878392,-34.0195967],[18.5878533,-34.0195922]]}},
{"type":"Feature","properties":{},"geometry":{"type":"LineString","coordinates":[[18.5880283,-34.019505],[18.5880283,-34.0195722]]}},
{"type":"Feature","properties":{},"geometry":{"type":"LineString","coordinates":[[18.5879785,-34.0193419],[18.5880069,-34.0194438],[18.5880283,-34.019505],[18.5880867,-34.019491099999989],[18.5881269,-34.0194833]]}},
{"type":"Feature","properties":{},"geometry":{"type":"LineString","coordinates":[[18.5886853,-34.019617],[18.5886171,-34.0196322],[18.5885755,-34.0196406],[18.588542,-34.0196461],[18.588495,-34.0196428],[18.5884796,-34.0196428],[18.5884367,-34.0196428],[18.5884079,-34.019646100000017],[18.5884052,-34.0196667],[18.5883623,-34.0196745],[18.5883133,-34.0196834],[18.588255,-34.0197073]]}},
{"type":"Feature","properties":{},"geometry":{"type":"LineString","coordinates":[[18.5880944,-34.0191557],[18.5881678,-34.0191454],[18.5881906,-34.019147599999989],[18.5882188,-34.019147],[18.5882322,-34.019137600000015],[18.5882573,-34.0191306],[18.5882778,-34.0191248],[18.58831,-34.0191209],[18.5884138,-34.019109]]}},
{"type":"Feature","properties":{},"geometry":{"type":"LineString","coordinates":[[18.5885557,-34.0188451],[18.58844,-34.0188436],[18.5884042,-34.0188511],[18.588381,-34.0188519],[18.5883305,-34.0188416]]}},
{"type":"Feature","properties":{},"geometry":{"type":"LineString","coordinates":[[18.5885753,-34.0186932],[18.5885788,-34.018753],[18.588552,-34.0188197],[18.5885557,-34.0188451],[18.5886097,-34.0192141]]}},
{"type":"Feature","properties":{},"geometry":{"type":"LineString","coordinates":[[18.5881209,-34.0179787],[18.5881826,-34.0179732],[18.5882295,-34.0179632],[18.588263,-34.017948199999985],[18.5882986,-34.0179421],[18.5883455,-34.0179349],[18.5884226,-34.017934299999986],[18.5884789,-34.0179337],[18.5884984,-34.0184729],[18.5884373,-34.0186288]]}},
{"type":"Feature","properties":{},"geometry":{"type":"LineString","coordinates":[[18.5880853,-34.0168538],[18.5881363,-34.0168466],[18.5881826,-34.0168388],[18.5882241,-34.0168299],[18.5882979,-34.0168205]]}},
{"type":"Feature","properties":{},"geometry":{"type":"LineString","coordinates":[[18.5882812,-34.0149906],[18.58832,-34.0150802],[18.5883073,-34.0151058],[18.588318,-34.015154699999989],[18.588371,-34.015216399999986]]}},
{"type":"Feature","properties":{},"geometry":{"type":"LineString","coordinates":[[18.5926954,-34.0133861],[18.5927778,-34.0133672],[18.5927524,-34.0133161],[18.5927707,-34.0132815],[18.5927819,-34.0132605],[18.5927202,-34.0131793],[18.5927095,-34.0131627]]}},
{"type":"Feature","properties":{},"geometry":{"type":"LineString","coordinates":[[18.5885493,-34.0146323],[18.5885154,-34.0146264],[18.5884744,-34.0146321],[18.588483,-34.0146675],[18.5885072,-34.0147144],[18.5885241,-34.0147433],[18.5885829,-34.0147356],[18.5886513,-34.014731200000014],[18.5886915,-34.0147145],[18.5887156,-34.0146934],[18.5886888,-34.0146623],[18.5887143,-34.0146356],[18.5887438,-34.0146356],[18.5887639,-34.01463],[18.5888202,-34.0146122]]}},
{"type":"Feature","properties":{},"geometry":{"type":"LineString","coordinates":[[18.5885626,-34.0149197],[18.5885668,-34.0148735],[18.5885641,-34.014823499999984],[18.5885802,-34.0147657],[18.5885829,-34.0147356],[18.5885721,-34.0147101],[18.5885493,-34.0146323]]}},
{"type":"Feature","properties":{},"geometry":{"type":"LineString","coordinates":[[18.5885625,-34.0201566],[18.5885695,-34.020138],[18.5885688,-34.0200891],[18.5885648,-34.0200291],[18.5886211,-34.0200218],[18.588633,-34.0200104],[18.5886412,-34.0200024],[18.588776,-34.0199752],[18.5888095,-34.0200341],[18.5890131,-34.0199763]]}},
{"type":"Feature","properties":{},"geometry":{"type":"LineString","coordinates":[[18.5882047,-34.0145244],[18.5881792,-34.0145144],[18.5881618,-34.0145078]]}},
{"type":"Feature","properties":{},"geometry":{"type":"LineString","coordinates":[[18.5880603,-34.0145908],[18.5880867,-34.014588899999985],[18.5881544,-34.0145832],[18.5881658,-34.0145822],[18.5881969,-34.0145553],[18.588206,-34.01454],[18.5882047,-34.0145244],[18.5882248,-34.0145033],[18.5882516,-34.014487699999989],[18.5882717,-34.0144455]]}},
{"type":"Feature","properties":{},"geometry":{"type":"LineString","coordinates":[[18.5878412,-34.0138041],[18.5879177,-34.0138052],[18.5879928,-34.013823],[18.5881028,-34.0138608],[18.5881886,-34.0139008],[18.5883173,-34.0139364],[18.5888538,-34.0141643]]}},
{"type":"Feature","properties":{},"geometry":{"type":"LineString","coordinates":[[18.588094,-34.0170067],[18.5880337,-34.017018299999982],[18.587919,-34.0170339],[18.5878661,-34.0170506],[18.5878345,-34.017065],[18.5878178,-34.0170856],[18.5877259,-34.0170934]]}},
{"type":"Feature","properties":{},"geometry":{"type":"LineString","coordinates":[[18.5884179,-34.0160696],[18.5884649,-34.0161596],[18.58843,-34.0161702],[18.5884622,-34.0162436],[18.5884219,-34.0162391],[18.5883757,-34.0162397],[18.5881792,-34.0162567]]}},
{"type":"Feature","properties":{},"geometry":{"type":"LineString","coordinates":[[18.5874074,-34.0165231],[18.5874892,-34.0165148],[18.5875502,-34.0165192],[18.5876407,-34.0165081]]}},
{"type":"Feature","properties":{},"geometry":{"type":"LineString","coordinates":[[18.5869447,-34.0165431],[18.5870641,-34.0165598],[18.5870594,-34.0165748],[18.5871117,-34.0165759],[18.587111,-34.0165587],[18.5873088,-34.0165454]]}},
{"type":"Feature","properties":{},"geometry":{"type":"LineString","coordinates":[[18.5874121,-34.0165509],[18.5873122,-34.0165587],[18.5873088,-34.0165454]]}},
{"type":"Feature","properties":{},"geometry":{"type":"LineString","coordinates":[[18.5854058,-34.0157267],[18.5854447,-34.0157528],[18.5854822,-34.0157728],[18.5855104,-34.015805],[18.5855426,-34.015904],[18.585505,-34.0159607]]}},
{"type":"Feature","properties":{},"geometry":{"type":"LineString","coordinates":[[18.5853334,-34.0157006],[18.5854058,-34.0157267],[18.5855567,-34.0157072],[18.5855815,-34.0157128],[18.5857069,-34.0157161]]}},
{"type":"Feature","properties":{},"geometry":{"type":"LineString","coordinates":[[18.586763,-34.0170295],[18.5866658,-34.0170039],[18.5866705,-34.01697],[18.5865699,-34.0169589],[18.5865659,-34.0169478],[18.5865182,-34.0169344],[18.5864349,-34.0169376],[18.5863734,-34.01694]]}},
{"type":"Feature","properties":{},"geometry":{"type":"LineString","coordinates":[[18.5871428,-34.020489299999987],[18.5869672,-34.020578200000017]]}},
{"type":"Feature","properties":{},"geometry":{"type":"LineString","coordinates":[[18.5852968,-34.0202851],[18.5853818,-34.0202727],[18.5855125,-34.0202467]]}},
{"type":"Feature","properties":{},"geometry":{"type":"LineString","coordinates":[[18.5850832,-34.0187515],[18.5852382,-34.0187452],[18.5852589,-34.01873350000001],[18.5854326,-34.018730199999986],[18.5855366,-34.0187096]]}},
{"type":"Feature","properties":{},"geometry":{"type":"LineString","coordinates":[[18.5865426,-34.0185781],[18.586472,-34.0185929],[18.5864592,-34.0185712],[18.5863969,-34.0185963],[18.5863828,-34.0185824],[18.5863171,-34.0186001],[18.5863057,-34.0185796],[18.5862594,-34.0185918],[18.5862105,-34.0186229],[18.5861367,-34.0186318],[18.5861367,-34.0185724],[18.5861045,-34.0185707],[18.586097,-34.0185625],[18.5860877,-34.01855230000001],[18.5860924,-34.018499],[18.5859067,-34.0184868],[18.5859,-34.0184467],[18.5859094,-34.01836],[18.5859,-34.0183373],[18.5858873,-34.0183404],[18.5857216,-34.0183817],[18.5855654,-34.0184084],[18.5855486,-34.0184034],[18.5854731,-34.0184059]]}},
{"type":"Feature","properties":{},"geometry":{"type":"LineString","coordinates":[[18.5856027,-34.0192194],[18.5855701,-34.0191787],[18.5855614,-34.0191609],[18.5855433,-34.0191465],[18.5855231,-34.0191304],[18.5855064,-34.019095899999989]]}},
{"type":"Feature","properties":{},"geometry":{"type":"LineString","coordinates":[[18.5851069,-34.0191398],[18.5852341,-34.0191276],[18.5852884,-34.0191259],[18.5853817,-34.0191231],[18.5854023,-34.019120799999989],[18.5854601,-34.0191142],[18.5855064,-34.019095899999989],[18.58556,-34.0190726],[18.5855721,-34.0190659],[18.5856231,-34.019047600000015],[18.5856163,-34.0190231],[18.5856807,-34.019002],[18.5856703,-34.018941]]}},
{"type":"Feature","properties":{},"geometry":{"type":"LineString","coordinates":[[18.5851353,-34.0193457],[18.5852183,-34.0193248],[18.5853408,-34.0193015],[18.5853488,-34.019281],[18.5854098,-34.0192732],[18.5854722,-34.0192621],[18.585493,-34.0192532],[18.5855909,-34.0192243],[18.5856027,-34.0192194],[18.5856546,-34.0191977],[18.5856774,-34.0191882],[18.5857552,-34.0191704],[18.585837,-34.01916150000001]]}},
{"type":"Feature","properties":{},"geometry":{"type":"LineString","coordinates":[[18.5855771,-34.0203642],[18.5857052,-34.0203193],[18.5857219,-34.0203041],[18.5857427,-34.0203027],[18.5858006,-34.0203147],[18.5858358,-34.020322],[18.5859132,-34.0203531],[18.5859297,-34.0203711],[18.586013,-34.020462],[18.5861703,-34.0204289],[18.5862293,-34.0204262],[18.5863,-34.0203903],[18.586295,-34.0203717],[18.5864139,-34.020324],[18.5864548,-34.0203076],[18.5865313,-34.0202655],[18.586535,-34.0202492],[18.5865518,-34.0202358],[18.5865773,-34.020213],[18.5866014,-34.0201897],[18.5866228,-34.0201675],[18.5866503,-34.0201413],[18.5866807,-34.0201216]]}},
{"type":"Feature","properties":{},"geometry":{"type":"LineString","coordinates":[[18.5867289,-34.0208214],[18.5867321,-34.0207477],[18.5867429,-34.0207355],[18.5867543,-34.0206955],[18.5867798,-34.020651],[18.5867804,-34.0206065],[18.5868596,-34.0206021],[18.5868683,-34.020619299999986],[18.5868924,-34.0206126],[18.5869233,-34.0205932],[18.5869672,-34.020578200000017]]}},
{"type":"Feature","properties":{},"geometry":{"type":"LineString","coordinates":[[18.5861541,-34.020023],[18.5862266,-34.0200719],[18.5862493,-34.020059900000014],[18.5863761,-34.0199929],[18.5864466,-34.0199509],[18.586412,-34.0198941]]}},
{"type":"Feature","properties":{},"geometry":{"type":"LineString","coordinates":[[18.5858417,-34.0200324],[18.5859027,-34.0201197],[18.585957,-34.0201069],[18.5860683,-34.0199713],[18.5861541,-34.020023],[18.5862467,-34.0199463],[18.586254,-34.0199224],[18.5863211,-34.019894],[18.5863573,-34.019922400000013],[18.586412,-34.0198941],[18.5864767,-34.0198607]]}},
{"type":"Feature","properties":{},"geometry":{"type":"LineString","coordinates":[[18.5854004,-34.0200386],[18.5855734,-34.0200291],[18.5855962,-34.0200319],[18.5855956,-34.0200535],[18.5857867,-34.020073],[18.5858021,-34.0200569],[18.5858356,-34.02005410000001],[18.5858417,-34.0200324],[18.5858953,-34.0199774],[18.5859315,-34.0199554],[18.585967,-34.0199413],[18.5859543,-34.0199182],[18.5859942,-34.0198999],[18.586017,-34.0199246],[18.5860254,-34.0199149]]}},
{"type":"Feature","properties":{},"geometry":{"type":"LineString","coordinates":[[18.5852451,-34.0199309],[18.5854286,-34.019916799999976],[18.5854514,-34.0199096],[18.5854983,-34.019919],[18.5856358,-34.0198918],[18.5856465,-34.0199051],[18.5857625,-34.0198829]]}},
{"type":"Feature","properties":{},"geometry":{"type":"LineString","coordinates":[[18.5878339,-34.018868],[18.58785,-34.0189219],[18.5879009,-34.0189158],[18.5879096,-34.0189553],[18.5878426,-34.018963099999986],[18.5878453,-34.0189797],[18.5877366,-34.0190137],[18.5877252,-34.019022],[18.5877011,-34.0190248],[18.5875911,-34.0190092]]}},
{"type":"Feature","properties":{},"geometry":{"type":"LineString","coordinates":[[18.5871761,-34.018804099999983],[18.5870956,-34.0188169],[18.5870963,-34.0188447],[18.5869474,-34.0188169]]}},
{"type":"Feature","properties":{},"geometry":{"type":"LineString","coordinates":[[18.5871343,-34.017903200000013],[18.5870158,-34.0180266],[18.5870044,-34.0180227],[18.5869876,-34.0180377],[18.5869762,-34.0180366],[18.5869286,-34.018106],[18.5868421,-34.0180671],[18.5867932,-34.0181516]]}},
{"type":"Feature","properties":{},"geometry":{"type":"LineString","coordinates":[[18.5865882,-34.01864530000001],[18.5867281,-34.018499],[18.5867147,-34.0184873],[18.5867295,-34.0184606],[18.5866879,-34.0184145],[18.5866041,-34.0183773],[18.5866275,-34.0183361],[18.5866423,-34.0183361],[18.5866557,-34.0183156],[18.5866778,-34.01832060000001],[18.5867093,-34.0182761],[18.5867456,-34.0182239],[18.586712,-34.0182083],[18.5867268,-34.0181818]]}},
{"type":"Feature","properties":{},"geometry":{"type":"LineString","coordinates":[[18.5871717,-34.018343400000013],[18.5872854,-34.0183778],[18.58729,-34.0183723],[18.5873296,-34.0183828],[18.5873363,-34.0183473]]}},
{"type":"Feature","properties":{},"geometry":{"type":"LineString","coordinates":[[18.5869253,-34.0191494],[18.5870594,-34.0190648],[18.5870936,-34.0190553],[18.5871103,-34.0190453],[18.5870654,-34.0189831],[18.5870942,-34.0189681],[18.587166,-34.018967],[18.5872438,-34.0189286],[18.5873477,-34.0188919],[18.5873792,-34.0189386],[18.5874309,-34.0189036],[18.5874476,-34.0188391],[18.5873544,-34.0188269],[18.587284,-34.0188325],[18.587282,-34.0188008],[18.5871761,-34.018804099999983],[18.5871733,-34.0187541],[18.58717,-34.0186941],[18.5872693,-34.0186796],[18.5872458,-34.0185985],[18.5871881,-34.018596300000013],[18.5871761,-34.0185818],[18.5870996,-34.0185801],[18.5870249,-34.018553]]}},
{"type":"Feature","properties":{},"geometry":{"type":"LineString","coordinates":[[18.5865884,-34.019429],[18.5865182,-34.0193543],[18.5866517,-34.0192721],[18.5867234,-34.0193314],[18.5867825,-34.0193905],[18.5868316,-34.0194354],[18.5868907,-34.0194843],[18.5869323,-34.0195243],[18.5869838,-34.0195581],[18.5869164,-34.0196215],[18.5869347,-34.0196525],[18.5869189,-34.0196719],[18.5869564,-34.0197063],[18.586859,-34.019784199999989]]}},
{"type":"Feature","properties":{},"geometry":{"type":"LineString","coordinates":[[18.5861024,-34.0195048],[18.5862634,-34.0194144],[18.5864103,-34.0195622]]}},
{"type":"Feature","properties":{},"geometry":{"type":"LineString","coordinates":[[18.5882573,-34.0191306],[18.5882556,-34.0190859],[18.5882409,-34.0190837],[18.5882362,-34.0190459],[18.5882637,-34.0190431],[18.5882697,-34.019037],[18.5883797,-34.0190231]]}},
{"type":"Feature","properties":{},"geometry":{"type":"LineString","coordinates":[[18.5884622,-34.0162436],[18.588432,-34.0162814],[18.5884286,-34.0163186],[18.5884158,-34.0164056],[18.5884085,-34.0164548]]}},
{"type":"Feature","properties":{},"geometry":{"type":"LineString","coordinates":[[18.5872565,-34.015406],[18.5871492,-34.0154349],[18.5870808,-34.01545380000001],[18.586995,-34.0154777],[18.5869796,-34.0154732],[18.5869333,-34.0154965],[18.5869273,-34.0155049],[18.586887,-34.0155299],[18.5868528,-34.0156049],[18.586765,-34.015591],[18.5867097,-34.0155938]]}},
{"type":"Feature","properties":{},"geometry":{"type":"LineString","coordinates":[[18.5859002,-34.0162874],[18.5859597,-34.0162725],[18.5860012,-34.0162613],[18.5860978,-34.0162363]]}},
{"type":"Feature","properties":{},"geometry":{"type":"LineString","coordinates":[[18.5859416,-34.0163781],[18.5860857,-34.0163569],[18.5861736,-34.016338],[18.5862601,-34.0163141]]}},
{"type":"Feature","properties":{},"geometry":{"type":"LineString","coordinates":[[18.5856968,-34.0168055],[18.5857102,-34.0166487],[18.5855433,-34.0166398],[18.5855372,-34.0166804],[18.5854876,-34.0166765],[18.5854849,-34.016666],[18.5853495,-34.0166343],[18.5853019,-34.016636],[18.5852984,-34.0165656]]}},
{"type":"Feature","properties":{},"geometry":{"type":"LineString","coordinates":[[18.5850538,-34.0165782],[18.5852569,-34.0165609],[18.5852984,-34.0165656],[18.5854729,-34.0165854],[18.5855093,-34.016489],[18.585516,-34.0164713],[18.5855372,-34.0164153],[18.5854856,-34.016400799999985],[18.5854923,-34.0163503],[18.5853153,-34.0163364],[18.5853032,-34.016323],[18.5851738,-34.0163125],[18.5851436,-34.016298],[18.5850457,-34.0162919]]}},
{"type":"Feature","properties":{},"geometry":{"type":"LineString","coordinates":[[18.5850424,-34.0162097],[18.5851108,-34.0162074],[18.5851758,-34.0162097],[18.5851932,-34.0162241],[18.5854024,-34.016220200000014],[18.5853977,-34.0162124],[18.5854232,-34.0162102],[18.5854205,-34.016173],[18.5855024,-34.0161669],[18.5855064,-34.0161985],[18.5857015,-34.0161869],[18.5858182,-34.0161669],[18.5859013,-34.0161719]]}},
{"type":"Feature","properties":{},"geometry":{"type":"LineString","coordinates":[[18.5927778,-34.0133672],[18.5929368,-34.0133189],[18.592985,-34.0133177],[18.5929723,-34.0132838],[18.5930099,-34.0132694],[18.5930025,-34.0132471],[18.5930427,-34.0132333],[18.5930461,-34.0132388],[18.5932083,-34.0131888],[18.5932868,-34.013166599999984],[18.5932828,-34.0131377],[18.5932667,-34.0130815],[18.5932184,-34.0130915],[18.593195,-34.0130258],[18.5931907,-34.0130137]]}},
{"type":"Feature","properties":{},"geometry":{"type":"LineString","coordinates":[[18.5884649,-34.0161596],[18.5884944,-34.0161518],[18.5885527,-34.0161096],[18.5885668,-34.0161068],[18.5887002,-34.0160279]]}},
{"type":"Feature","properties":{},"geometry":{"type":"LineString","coordinates":[[18.5883625,-34.0159211],[18.5884481,-34.0159034],[18.5884923,-34.0158839],[18.5885379,-34.0158717],[18.588546,-34.0158623],[18.5886741,-34.0158167]]}},
{"type":"Feature","properties":{},"geometry":{"type":"LineString","coordinates":[[18.5881986,-34.015293899999989],[18.5882748,-34.0152792]]}},
{"type":"Feature","properties":{},"geometry":{"type":"LineString","coordinates":[[18.5881691,-34.0157902],[18.5881638,-34.0157497],[18.58815,-34.0156855],[18.5881343,-34.0155727],[18.5881219,-34.0154965],[18.5882033,-34.0154815],[18.5882057,-34.015436],[18.5882352,-34.015436],[18.5882322,-34.0153737],[18.588194,-34.0153709],[18.5881986,-34.015293899999989],[18.5882,-34.0152701],[18.5881792,-34.0151622],[18.5882054,-34.015155],[18.5881601,-34.0150177]]}},
{"type":"Feature","properties":{},"geometry":{"type":"LineString","coordinates":[[18.5885648,-34.0200291],[18.5885461,-34.0200325],[18.5885353,-34.0199814],[18.5885145,-34.019953200000018],[18.5884479,-34.0199759],[18.5884288,-34.019927],[18.5884038,-34.019928299999982],[18.5883914,-34.0199194],[18.5882915,-34.0199228],[18.5881626,-34.0199449],[18.5881618,-34.0198973],[18.5881393,-34.0198939],[18.588116,-34.019807],[18.5881609,-34.0198008],[18.5881543,-34.0197636],[18.5882466,-34.019751099999986],[18.58824,-34.0197077],[18.588255,-34.0197073]]}},
{"type":"Feature","properties":{},"geometry":{"type":"LineString","coordinates":[[18.5891226,-34.0202109],[18.5890088,-34.0202463],[18.5889814,-34.0202601],[18.5889756,-34.0202815],[18.5889639,-34.0203345],[18.5888773,-34.0203404],[18.5889503,-34.020400299999984],[18.5889812,-34.0203725],[18.589122,-34.020524800000011],[18.5892856,-34.0207616],[18.5893754,-34.0208856]]}},
{"type":"Feature","properties":{},"geometry":{"type":"LineString","coordinates":[[18.5868605,-34.02083240000001],[18.5868316,-34.0209757],[18.5867085,-34.0210488],[18.586706,-34.0210867]]}},
{"type":"Feature","properties":{},"geometry":{"type":"LineString","coordinates":[[18.5864827,-34.0205404],[18.5864814,-34.0204765],[18.5864581,-34.0203889],[18.5865854,-34.0203689],[18.5866111,-34.020362],[18.5866203,-34.0203793],[18.5866985,-34.0203441],[18.5866819,-34.0203158],[18.5867867,-34.0202567],[18.5868183,-34.020239299999986],[18.58681,-34.0202331],[18.5868491,-34.0202083],[18.5867775,-34.0201262],[18.5867967,-34.0201131],[18.5867434,-34.0200669],[18.586671,-34.020109],[18.5866807,-34.0201216]]}},
{"type":"Feature","properties":{},"geometry":{"type":"LineString","coordinates":[[18.5858006,-34.0203147],[18.5858159,-34.0202676],[18.5858516,-34.0202545],[18.5858034,-34.0201517],[18.5858001,-34.02008690000001],[18.5857867,-34.020073]]}},
{"type":"Feature","properties":{},"geometry":{"type":"LineString","coordinates":[[18.5880748,-34.019028299999988],[18.5881792,-34.019020299999987],[18.5881801,-34.0189968],[18.5882217,-34.018992],[18.5882192,-34.0189575],[18.5882632,-34.0189396]]}},
{"type":"Feature","properties":{},"geometry":{"type":"LineString","coordinates":[[18.5869564,-34.0197063],[18.5870013,-34.0196774],[18.587052,-34.019726299999988],[18.5870895,-34.0196987],[18.587101,-34.019692799999987],[18.5871338,-34.0197184],[18.587111,-34.0197423],[18.5871492,-34.0197929],[18.5872191,-34.0198456]]}},
{"type":"Feature","properties":{},"geometry":{"type":"LineString","coordinates":[[18.5894216,-34.01498620000001],[18.5895294,-34.0150073],[18.5895785,-34.0150004],[18.5896167,-34.0150707],[18.5896483,-34.0151031],[18.5896225,-34.015121],[18.5896117,-34.0151224],[18.5895577,-34.0151603],[18.5895909,-34.0151969],[18.589541,-34.015241],[18.5894978,-34.0152782],[18.5894961,-34.0152865],[18.5894462,-34.015321],[18.5893663,-34.015374799999989],[18.5891975,-34.0155023],[18.5890818,-34.015608499999985],[18.5890394,-34.015581],[18.5889945,-34.0156237],[18.5890327,-34.0156658],[18.5889762,-34.0157051],[18.5889279,-34.015674],[18.5888215,-34.0157078]]}},
{"type":"Feature","properties":{},"geometry":{"type":"LineString","coordinates":[[18.5880545,-34.0165381],[18.5882017,-34.0165332],[18.5882009,-34.016516],[18.5882799,-34.0165139],[18.5882915,-34.0164056],[18.5883406,-34.0164015],[18.5884158,-34.0164056]]}},
{"type":"Feature","properties":{},"geometry":{"type":"LineString","coordinates":[[18.5878758,-34.0174772],[18.5878856,-34.0175296],[18.5877823,-34.0176039],[18.587765,-34.0176164]]}},
{"type":"Feature","properties":{},"geometry":{"type":"LineString","coordinates":[[18.5874362,-34.016666],[18.587745,-34.0166608],[18.5877492,-34.0166173],[18.5880625,-34.016610900000011]]}},
{"type":"Feature","properties":{},"geometry":{"type":"LineString","coordinates":[[18.5873879,-34.0163664],[18.5875129,-34.0163167],[18.5875653,-34.0163015],[18.5876635,-34.0162794],[18.587666,-34.0162243]]}},
{"type":"Feature","properties":{},"geometry":{"type":"LineString","coordinates":[[18.5873806,-34.0163091],[18.5874538,-34.0162981],[18.5874505,-34.0162836],[18.5875221,-34.0162464],[18.5875994,-34.0162133]]}},
{"type":"Feature","properties":{},"geometry":{"type":"LineString","coordinates":[[18.5873424,-34.0161074],[18.5874031,-34.0161015],[18.5874464,-34.016136],[18.5874946,-34.0161622],[18.5875803,-34.016182199999989],[18.5875994,-34.0162133],[18.587666,-34.0162243],[18.5877407,-34.016208699999986],[18.587755,-34.0162057],[18.587755,-34.0161905],[18.5878132,-34.0161836]]}},
{"type":"Feature","properties":{},"geometry":{"type":"LineString","coordinates":[[18.5873202,-34.015994],[18.5874056,-34.0160057],[18.5874355,-34.0160519],[18.5874746,-34.016034],[18.5874954,-34.0160374],[18.5875246,-34.0160698],[18.5875354,-34.0160967],[18.5875803,-34.016182199999989]]}},
{"type":"Feature","properties":{},"geometry":{"type":"LineString","coordinates":[[18.5873304,-34.0160502],[18.5872673,-34.0160659],[18.5872152,-34.0160857],[18.5871567,-34.0161037],[18.5871369,-34.0161126]]}},
{"type":"Feature","properties":{},"geometry":{"type":"LineString","coordinates":[[18.5867777,-34.0163664],[18.5868857,-34.016363599999984],[18.5868965,-34.0163905],[18.5869506,-34.0163884],[18.5869514,-34.0163636],[18.5870179,-34.0163622],[18.5870179,-34.0162946],[18.5871993,-34.0162953],[18.5872525,-34.0162955],[18.5872857,-34.016300199999989],[18.5873464,-34.0163061],[18.5873806,-34.0163091]]}},
{"type":"Feature","properties":{},"geometry":{"type":"LineString","coordinates":[[18.5871117,-34.0165759],[18.5871053,-34.0166401],[18.5871901,-34.0166366]]}},
{"type":"Feature","properties":{},"geometry":{"type":"LineString","coordinates":[[18.5867898,-34.0168155],[18.5869489,-34.0168187],[18.5871777,-34.0167663]]}},
{"type":"Feature","properties":{},"geometry":{"type":"LineString","coordinates":[[18.5872756,-34.0169202],[18.5872193,-34.0169262],[18.5872059,-34.0168828],[18.5870196,-34.0168745]]}},
{"type":"Feature","properties":{},"geometry":{"type":"LineString","coordinates":[[18.5875053,-34.0168771],[18.5874089,-34.0169062],[18.5874147,-34.0169248],[18.587285,-34.0169469],[18.5872756,-34.0169202],[18.5871777,-34.0167663]]}},
{"type":"Feature","properties":{},"geometry":{"type":"LineString","coordinates":[[18.5873994,-34.0174883],[18.5873116,-34.0174696],[18.587255,-34.0174406],[18.5872717,-34.0174282],[18.5872168,-34.0173923]]}},
{"type":"Feature","properties":{},"geometry":{"type":"LineString","coordinates":[[18.5871703,-34.0179266],[18.5872858,-34.0177667],[18.5872974,-34.0177729],[18.5874214,-34.0176033],[18.5874014,-34.0175944],[18.5874272,-34.0175668],[18.5873773,-34.017544],[18.5873994,-34.0174883],[18.5874249,-34.0174237]]}},
{"type":"Feature","properties":{},"geometry":{"type":"LineString","coordinates":[[18.58727,-34.0173317],[18.5872168,-34.0173923],[18.587156,-34.0173744],[18.5870703,-34.0174144],[18.5870518,-34.0174186],[18.5869831,-34.0174332],[18.5869197,-34.0173927]]}},
{"type":"Feature","properties":{},"geometry":{"type":"LineString","coordinates":[[18.5871107,-34.0172307],[18.587146,-34.0171648],[18.5871244,-34.017151699999985]]}},
{"type":"Feature","properties":{},"geometry":{"type":"LineString","coordinates":[[18.5876377,-34.0175015],[18.5875636,-34.0174751],[18.5875021,-34.017433],[18.5874547,-34.0174613],[18.5874249,-34.0174237],[18.5874023,-34.0173951],[18.5873532,-34.0173779],[18.5873673,-34.0173537],[18.5873016,-34.0173151],[18.58727,-34.0173317],[18.5871693,-34.0172468],[18.5871394,-34.0172503],[18.5871107,-34.0172307],[18.5870961,-34.0172206],[18.5869813,-34.0171889]]}},
{"type":"Feature","properties":{},"geometry":{"type":"LineString","coordinates":[[18.5875395,-34.0170139],[18.587458,-34.017029],[18.5874522,-34.0170193],[18.5873016,-34.0170676],[18.5872667,-34.0170793],[18.5872093,-34.0170869],[18.5871319,-34.0170917],[18.5870886,-34.0170876],[18.5870171,-34.0170814],[18.5869106,-34.017064799999986],[18.5867925,-34.0170386],[18.586763,-34.0170295]]}},
{"type":"Feature","properties":{},"geometry":{"type":"LineString","coordinates":[[18.5874292,-34.0166371],[18.5873956,-34.0166525],[18.5873049,-34.0166876],[18.5871901,-34.0166366]]}},
{"type":"Feature","properties":{},"geometry":{"type":"LineString","coordinates":[[18.5887183,-34.0206372],[18.5887492,-34.0206353],[18.5888717,-34.0206335]]}},
{"type":"Feature","properties":{},"geometry":{"type":"LineString","coordinates":[[18.5884965,-34.0206577],[18.5885852,-34.0206489],[18.5885877,-34.0206689],[18.5887075,-34.0206578],[18.5887183,-34.0206372],[18.5887133,-34.0205923]]}},
{"type":"Feature","properties":{},"geometry":{"type":"LineString","coordinates":[[18.588047,-34.02083],[18.5880045,-34.0207475],[18.5879588,-34.020753],[18.5879234,-34.0206525]]}},
{"type":"Feature","properties":{},"geometry":{"type":"LineString","coordinates":[[18.5873682,-34.020439299999985],[18.5873615,-34.0203779],[18.5875587,-34.0203924],[18.5875761,-34.0203214],[18.5874913,-34.0203138],[18.5874979,-34.0202565]]}},
{"type":"Feature","properties":{},"geometry":{"type":"LineString","coordinates":[[18.5878505,-34.0201849],[18.5879538,-34.020204099999987],[18.5879521,-34.0202345],[18.5880312,-34.0202324]]}},
{"type":"Feature","properties":{},"geometry":{"type":"LineString","coordinates":[[18.5885108,-34.0202372],[18.588334,-34.0202441],[18.5883298,-34.0201959],[18.5882475,-34.0201979],[18.5882425,-34.0201138],[18.5882333,-34.0201035],[18.5882308,-34.0200683],[18.588324,-34.02006],[18.5882915,-34.0199228]]}},
{"type":"Feature","properties":{},"geometry":{"type":"LineString","coordinates":[[18.5884796,-34.0196428],[18.5884712,-34.019554]]}},
{"type":"Feature","properties":{},"geometry":{"type":"LineString","coordinates":[[18.5878495,-34.0199609],[18.5879064,-34.0198959],[18.5879064,-34.0198497],[18.5879363,-34.0198256],[18.5879527,-34.0197369],[18.5879654,-34.0196684],[18.5880686,-34.0196629],[18.5881085,-34.019653199999986],[18.5881476,-34.0196484],[18.5881501,-34.0196057],[18.5881684,-34.019607],[18.5881742,-34.0195746],[18.5882,-34.0195767],[18.5882034,-34.0195615],[18.5882316,-34.0195615],[18.5882325,-34.019514],[18.5882932,-34.0195133],[18.5882924,-34.019453299999988]]}},
{"type":"Feature","properties":{},"geometry":{"type":"LineString","coordinates":[[18.5878074,-34.0202612],[18.5875886,-34.0202207],[18.5875828,-34.0202614],[18.5874979,-34.0202565],[18.5874455,-34.0201648],[18.5873973,-34.0201662],[18.5873773,-34.0201979],[18.5873507,-34.0201938],[18.5873166,-34.0202193],[18.5872625,-34.02018970000001]]}},
{"type":"Feature","properties":{},"geometry":{"type":"LineString","coordinates":[[18.5870972,-34.0204308],[18.5872434,-34.0203869],[18.5872775,-34.020451700000017],[18.5873682,-34.020439299999985],[18.5874644,-34.0204503],[18.587537,-34.0204586],[18.5877086,-34.020477]]}},
{"type":"Feature","properties":{},"geometry":{"type":"LineString","coordinates":[[18.5882836,-34.0205597],[18.5882924,-34.0206296],[18.5883015,-34.0206337],[18.588319,-34.0206806],[18.588345,-34.0207044]]}},
{"type":"Feature","properties":{},"geometry":{"type":"LineString","coordinates":[[18.5912937,-34.0138193],[18.5913395,-34.0138923],[18.5913071,-34.0139109],[18.5913379,-34.0139585],[18.5912397,-34.0140074],[18.5912713,-34.0140516],[18.5913994,-34.0139854]]}},
{"type":"Feature","properties":{},"geometry":{"type":"LineString","coordinates":[[18.5910817,-34.0139874],[18.5911108,-34.0140391],[18.5910293,-34.014075]]}},
{"type":"Feature","properties":{},"geometry":{"type":"LineString","coordinates":[[18.5896423,-34.0146356],[18.5897598,-34.014717],[18.5898031,-34.0146873],[18.5898155,-34.0146825],[18.5899162,-34.014608],[18.589952,-34.0146377],[18.5900302,-34.0145901],[18.5900426,-34.0145722],[18.5901,-34.0145515],[18.5901849,-34.0145142],[18.5902905,-34.0144674],[18.5904087,-34.014421199999987],[18.5905276,-34.014357],[18.5905018,-34.0143053],[18.5905376,-34.0142915],[18.5905534,-34.0143101],[18.590625,-34.0142812]]}},
{"type":"Feature","properties":{},"geometry":{"type":"LineString","coordinates":[[18.5896149,-34.0146534],[18.589571,-34.014574199999984],[18.589556,-34.0145694],[18.5895319,-34.01452530000001],[18.5896325,-34.0145032],[18.5896616,-34.0145708],[18.5896858,-34.0145653],[18.5897154,-34.0145961]]}},
{"type":"Feature","properties":{},"geometry":{"type":"LineString","coordinates":[[18.5895785,-34.0150004],[18.5896192,-34.0149652],[18.5895643,-34.0149093],[18.5896159,-34.0148769],[18.5895015,-34.014717299999987]]}},
{"type":"Feature","properties":{},"geometry":{"type":"LineString","coordinates":[[18.5864703,-34.01815],[18.5866153,-34.0181839],[18.5866486,-34.018188],[18.5866627,-34.0181639],[18.5867268,-34.0181818],[18.5867501,-34.0181487],[18.5867858,-34.0181618],[18.5867932,-34.0181516]]}},
{"type":"Feature","properties":{},"geometry":{"type":"LineString","coordinates":[[18.5858541,-34.018672100000011],[18.5858683,-34.0187121],[18.5858108,-34.0187264]]}},
{"type":"Feature","properties":{},"geometry":{"type":"LineString","coordinates":[[18.586097,-34.0185625],[18.5860713,-34.01857],[18.5860055,-34.0185721],[18.5860005,-34.0186293],[18.5859423,-34.0186321],[18.5859398,-34.0186728],[18.5858541,-34.018672100000011],[18.5858508,-34.0186521],[18.5857886,-34.01865320000001]]}},
{"type":"Feature","properties":{},"geometry":{"type":"LineString","coordinates":[[18.5850959,-34.0190309],[18.585246,-34.0190182],[18.5852527,-34.0190279],[18.5853059,-34.0190258],[18.5853725,-34.0190251],[18.5854274,-34.0190244],[18.5854249,-34.0190051],[18.5854773,-34.0189817],[18.5856703,-34.018941],[18.5857502,-34.0189265],[18.5857044,-34.0188444],[18.5857834,-34.0188307],[18.5858292,-34.018812],[18.5858234,-34.0187679],[18.5858108,-34.0187264],[18.5857886,-34.01865320000001],[18.5857676,-34.0185838]]}},
{"type":"Feature","properties":{},"geometry":{"type":"LineString","coordinates":[[18.5850911,-34.0180833],[18.5851864,-34.0180886],[18.585345,-34.0180887],[18.5853542,-34.0181584],[18.5854664,-34.018157]]}},
{"type":"Feature","properties":{},"geometry":{"type":"LineString","coordinates":[[18.588868,-34.0150224],[18.5889704,-34.015019]]}},
{"type":"Feature","properties":{},"geometry":{"type":"LineString","coordinates":[[18.5888739,-34.015100599999982],[18.588868,-34.0150224],[18.5887898,-34.0150231],[18.5887907,-34.0149728],[18.588586,-34.0149755]]}},
{"type":"Feature","properties":{},"geometry":{"type":"LineString","coordinates":[[18.5897598,-34.014717],[18.5897981,-34.0147563]]}},
{"type":"Feature","properties":{},"geometry":{"type":"LineString","coordinates":[[18.5878896,-34.0148569],[18.5878966,-34.0149093]]}},
{"type":"Feature","properties":{},"geometry":{"type":"LineString","coordinates":[[18.5883081,-34.0147232],[18.5882441,-34.0147335],[18.5882375,-34.0147032],[18.5881808,-34.014701399999979]]}},
{"type":"Feature","properties":{},"geometry":{"type":"LineString","coordinates":[[18.5883266,-34.014777900000013],[18.5883081,-34.0147232],[18.5882995,-34.0147035]]}},
{"type":"Feature","properties":{},"geometry":{"type":"LineString","coordinates":[[18.5885072,-34.0147144],[18.5884147,-34.0147335],[18.5884238,-34.0147597],[18.588344,-34.014777],[18.5883266,-34.014777900000013],[18.5882757,-34.014797],[18.5882902,-34.0148293],[18.5882399,-34.0148435],[18.588202,-34.014859],[18.5881574,-34.0148771],[18.5881318,-34.0148818]]}},
{"type":"Feature","properties":{},"geometry":{"type":"LineString","coordinates":[[18.5878454,-34.0148607],[18.5878896,-34.0148569],[18.5879056,-34.0148556],[18.5878981,-34.0147901],[18.5880004,-34.0147797],[18.5879921,-34.0147418],[18.5880706,-34.0147198],[18.5881545,-34.0147124],[18.5881808,-34.014701399999979],[18.5881544,-34.0145832]]}},
{"type":"Feature","properties":{},"geometry":{"type":"LineString","coordinates":[[18.5878547,-34.0149129],[18.5878966,-34.0149093],[18.5879521,-34.0149045],[18.5879879,-34.0148942],[18.5880703,-34.014879],[18.5881318,-34.0148818]]}},
{"type":"Feature","properties":{},"geometry":{"type":"LineString","coordinates":[[18.5877463,-34.0150194],[18.5877358,-34.0149631],[18.5878573,-34.014927300000018],[18.5878547,-34.0149129],[18.5878454,-34.0148607],[18.5878391,-34.014828899999983]]}},
{"type":"Feature","properties":{},"geometry":{"type":"LineString","coordinates":[[18.5880337,-34.015432],[18.5880328,-34.0153672],[18.588194,-34.0153709]]}},
{"type":"Feature","properties":{},"geometry":{"type":"LineString","coordinates":[[18.5878855,-34.0157167],[18.5879189,-34.0156272],[18.5879363,-34.0156092],[18.5879505,-34.0155823],[18.5879679,-34.0155134],[18.588027,-34.0155106],[18.5880337,-34.015432],[18.5881293,-34.0154327],[18.588146,-34.0154272],[18.5881925,-34.0154279],[18.5882057,-34.015436]]}},
{"type":"Feature","properties":{},"geometry":{"type":"LineString","coordinates":[[18.5877916,-34.0153727],[18.5878972,-34.0153444]]}},
{"type":"Feature","properties":{},"geometry":{"type":"LineString","coordinates":[[18.5875663,-34.0155532],[18.5876518,-34.0155113],[18.5876984,-34.0154961],[18.5876843,-34.0154541],[18.5877151,-34.0154458],[18.5877009,-34.0153927],[18.5877916,-34.0153727],[18.5877774,-34.015276900000011],[18.5877313,-34.0151125]]}},
{"type":"Feature","properties":{},"geometry":{"type":"LineString","coordinates":[[18.5861019,-34.0156151],[18.5860114,-34.015608499999985],[18.5860014,-34.0154886],[18.5859789,-34.0153789],[18.5860388,-34.0153755],[18.5860428,-34.015217]]}},
{"type":"Feature","properties":{},"geometry":{"type":"LineString","coordinates":[[18.5860033,-34.0165337],[18.5858641,-34.016547],[18.5858525,-34.0165042],[18.5857709,-34.0164987],[18.5857709,-34.0164829],[18.5856903,-34.0164711],[18.5857166,-34.016409]]}},
{"type":"Feature","properties":{},"geometry":{"type":"LineString","coordinates":[[18.5861628,-34.0164567],[18.5861729,-34.0165806]]}},
{"type":"Feature","properties":{},"geometry":{"type":"LineString","coordinates":[[18.5867949,-34.0167104],[18.5866752,-34.0167097],[18.5866735,-34.0166601],[18.5865945,-34.0166635],[18.5865138,-34.0166828],[18.586404,-34.016709],[18.5863828,-34.0166393],[18.5863517,-34.0165354]]}},
{"type":"Feature","properties":{},"geometry":{"type":"LineString","coordinates":[[18.5860131,-34.0166139],[18.5861729,-34.0165806],[18.5861919,-34.0165766],[18.5862975,-34.0165497],[18.5863425,-34.0165373],[18.5863517,-34.0165354],[18.5865687,-34.0164904]]}},
{"type":"Feature","properties":{},"geometry":{"type":"LineString","coordinates":[[18.5863949,-34.0164167],[18.5865171,-34.0164049],[18.5865238,-34.016398],[18.5866178,-34.016370500000015],[18.5867777,-34.0163664]]}},
{"type":"Feature","properties":{},"geometry":{"type":"LineString","coordinates":[[18.5859858,-34.0164864],[18.5861628,-34.0164567],[18.5862734,-34.0164422],[18.5862759,-34.0164346],[18.5863949,-34.0164167],[18.5863882,-34.016307]]}},
{"type":"Feature","properties":{},"geometry":{"type":"LineString","coordinates":[[18.5854923,-34.0163503],[18.5855447,-34.016353199999983],[18.5855913,-34.0163587],[18.5856869,-34.0163849],[18.5856819,-34.016398],[18.5857166,-34.016409],[18.5857302,-34.016413199999988],[18.5858167,-34.0164215]]}},
{"type":"Feature","properties":{},"geometry":{"type":"LineString","coordinates":[[18.585516,-34.0164713],[18.5856487,-34.0165015],[18.5856362,-34.016538],[18.5857102,-34.0166487]]}},
{"type":"Feature","properties":{},"geometry":{"type":"LineString","coordinates":[[18.5844937,-34.0160496],[18.5844982,-34.016079],[18.5845042,-34.0162597],[18.5846182,-34.0162463],[18.5846216,-34.0162213],[18.5847302,-34.0162294],[18.5847272,-34.0163086],[18.5848385,-34.0163166],[18.5848355,-34.016419499999984],[18.585037,-34.0164498],[18.5852269,-34.016442900000015],[18.5855093,-34.016489]]}},
{"type":"Feature","properties":{},"geometry":{"type":"LineString","coordinates":[[18.5854648,-34.0155605],[18.5857876,-34.0155472],[18.5857834,-34.0154665],[18.5858516,-34.0154582],[18.5858367,-34.0153989]]}},
{"type":"Feature","properties":{},"geometry":{"type":"LineString","coordinates":[[18.5852282,-34.0151933],[18.5853542,-34.0152189],[18.5853683,-34.015159],[18.5854315,-34.0151693],[18.5854492,-34.0151319]]}},
{"type":"Feature","properties":{},"geometry":{"type":"LineString","coordinates":[[18.5855089,-34.0151417],[18.5854492,-34.0151319],[18.5853958,-34.015123099999983]]}},
{"type":"Feature","properties":{},"geometry":{"type":"LineString","coordinates":[[18.5854839,-34.0152142],[18.5856037,-34.0152417]]}},
{"type":"Feature","properties":{},"geometry":{"type":"LineString","coordinates":[[18.5854112,-34.0149491],[18.5854266,-34.0149935],[18.5854898,-34.0149935],[18.5854956,-34.0150176],[18.585533,-34.0150176],[18.5855089,-34.0151417],[18.5854839,-34.0152142],[18.5854573,-34.0152913],[18.5854665,-34.0153534],[18.5854898,-34.0153865],[18.5855392,-34.0154282],[18.5854889,-34.0154175],[18.5853991,-34.01541550000001],[18.5853159,-34.0154058]]}},
{"type":"Feature","properties":{},"geometry":{"type":"LineString","coordinates":[[18.5927707,-34.0132815],[18.5930025,-34.0132471]]}},
{"type":"Feature","properties":{},"geometry":{"type":"LineString","coordinates":[[18.592124,-34.013553],[18.5922828,-34.0135428]]}},
{"type":"Feature","properties":{},"geometry":{"type":"LineString","coordinates":[[18.5919423,-34.0136115],[18.5920211,-34.0135894],[18.592124,-34.013553],[18.5921614,-34.0136199]]}},
{"type":"Feature","properties":{},"geometry":{"type":"LineString","coordinates":[[18.5918528,-34.013717799999988],[18.5916382,-34.0138047],[18.5915769,-34.0138274],[18.5915702,-34.0138397],[18.5915709,-34.0138558],[18.5915883,-34.0138819]]}},
{"type":"Feature","properties":{},"geometry":{"type":"LineString","coordinates":[[18.5919188,-34.0135505],[18.5919423,-34.0136115],[18.5919818,-34.0137144],[18.5919027,-34.013733],[18.5918903,-34.0137054],[18.5918528,-34.013717799999988],[18.591872,-34.013773],[18.5916573,-34.0138585],[18.5916507,-34.0138509],[18.5915883,-34.0138819]]}},
{"type":"Feature","properties":{},"geometry":{"type":"LineString","coordinates":[[18.5896167,-34.0150707],[18.5896916,-34.0150211],[18.5896812,-34.0150033],[18.5896708,-34.0149891],[18.5896427,-34.0149719],[18.5896313,-34.0149635],[18.5896192,-34.0149652]]}},
{"type":"Feature","properties":{},"geometry":{"type":"LineString","coordinates":[[18.5888239,-34.0151016],[18.5887923,-34.0152452],[18.5889537,-34.015239599999987],[18.5889624,-34.015211699999988],[18.5889631,-34.0151781],[18.5889879,-34.0151756],[18.5889832,-34.0151522],[18.5889876,-34.0151233],[18.5889855,-34.0150973]]}},
{"type":"Feature","properties":{},"geometry":{"type":"LineString","coordinates":[[18.5885777,-34.0152948],[18.5885411,-34.0153024],[18.5885444,-34.0153196],[18.5884246,-34.0153417],[18.5884138,-34.0153651],[18.588324,-34.0153755],[18.5883232,-34.0153644],[18.5882322,-34.0153737]]}},
{"type":"Feature","properties":{},"geometry":{"type":"LineString","coordinates":[[18.5886601,-34.0156147],[18.5886809,-34.0157085],[18.588527,-34.0157354],[18.5885252,-34.0157617],[18.5885359,-34.0158006],[18.5885447,-34.0158406],[18.588546,-34.0158623]]}},
{"type":"Feature","properties":{},"geometry":{"type":"LineString","coordinates":[[18.5883026,-34.015795],[18.5883257,-34.0157189],[18.5883265,-34.0156154],[18.5884529,-34.0156003],[18.5886551,-34.0155865],[18.5886601,-34.0156147],[18.5887308,-34.0155954],[18.5887216,-34.0155658],[18.5887349,-34.0155616],[18.5887241,-34.015412],[18.5886626,-34.0153727],[18.5886318,-34.0153762],[18.588601,-34.0152913],[18.5885777,-34.0152948],[18.5885569,-34.0152093],[18.5885012,-34.0152196]]}},
{"type":"Feature","properties":{},"geometry":{"type":"LineString","coordinates":[[18.5879089,-34.0204834],[18.587923,-34.020491],[18.5879621,-34.020581299999989],[18.5879688,-34.0206171],[18.5879355,-34.0206268],[18.5879505,-34.0206482]]}},
{"type":"Feature","properties":{},"geometry":{"type":"LineString","coordinates":[[18.5877118,-34.020462],[18.5877608,-34.0204682],[18.5877982,-34.0204737],[18.5878831,-34.0204924],[18.5879089,-34.0204834],[18.5879571,-34.020407499999983],[18.5879621,-34.0203427]]}},
{"type":"Feature","properties":{},"geometry":{"type":"LineString","coordinates":[[18.5883301,-34.0205209],[18.5883523,-34.0204551],[18.5881967,-34.0204634]]}},
{"type":"Feature","properties":{},"geometry":{"type":"LineString","coordinates":[[18.5885204,-34.0203838],[18.5886409,-34.0203724],[18.5886717,-34.020362],[18.5887225,-34.0203558],[18.5887324,-34.0203538],[18.588693,-34.020169],[18.588683,-34.0201427]]}},
{"type":"Feature","properties":{},"geometry":{"type":"LineString","coordinates":[[18.5884052,-34.0196667],[18.5884221,-34.0197174],[18.5884804,-34.019716],[18.5885095,-34.0198718],[18.5885186,-34.0198711],[18.5885253,-34.0199125],[18.5885968,-34.019898699999985],[18.588633,-34.0200104],[18.588683,-34.0201427]]}},
{"type":"Feature","properties":{},"geometry":{"type":"LineString","coordinates":[[18.5881476,-34.0196484],[18.58823,-34.0196457],[18.5882308,-34.019607],[18.5882316,-34.0195615]]}},
{"type":"Feature","properties":{},"geometry":{"type":"LineString","coordinates":[[18.5879064,-34.0198959],[18.5881393,-34.0198939]]}},
{"type":"Feature","properties":{},"geometry":{"type":"LineString","coordinates":[[18.5872548,-34.0198117],[18.5873524,-34.0199063],[18.5873931,-34.0198856],[18.5874023,-34.0198959],[18.5874355,-34.019889],[18.5874605,-34.019943499999989],[18.5874389,-34.0199511],[18.5874522,-34.0199876],[18.5874364,-34.02000420000001],[18.5874563,-34.0200428],[18.5874746,-34.0200435],[18.5874813,-34.0200807],[18.5874613,-34.020090399999987],[18.5874655,-34.020149],[18.5874455,-34.0201648]]}},
{"type":"Feature","properties":{},"geometry":{"type":"LineString","coordinates":[[18.5872458,-34.0185985],[18.5872658,-34.0185224],[18.5873748,-34.0185707],[18.5874439,-34.0185838],[18.5875312,-34.0185921],[18.5876152,-34.018599],[18.5876834,-34.0186121]]}},
{"type":"Feature","properties":{},"geometry":{"type":"LineString","coordinates":[[18.587282,-34.0188008],[18.5872904,-34.0187504],[18.5874281,-34.0187583]]}},
{"type":"Feature","properties":{},"geometry":{"type":"LineString","coordinates":[[18.5859417,-34.019325],[18.5859889,-34.0192975],[18.586043,-34.0192616],[18.5860521,-34.0192464],[18.586122,-34.0192188],[18.5861877,-34.0191837],[18.5862593,-34.0191471],[18.5862809,-34.0191706],[18.5863325,-34.019164400000015],[18.5863474,-34.0191616],[18.5863915,-34.0191396]]}},
{"type":"Feature","properties":{},"geometry":{"type":"LineString","coordinates":[[18.5867433,-34.018924],[18.5866702,-34.0189692],[18.5866893,-34.0189948],[18.586622,-34.0190189]]}},
{"type":"Feature","properties":{},"geometry":{"type":"LineString","coordinates":[[18.5886716,-34.019422499999983],[18.5885128,-34.0194367],[18.5885103,-34.0194257],[18.5884629,-34.0194271],[18.5884654,-34.0193892],[18.5886655,-34.0193717]]}},
{"type":"Feature","properties":{},"geometry":{"type":"LineString","coordinates":[[18.5868421,-34.0180671],[18.5868341,-34.0180646],[18.5868674,-34.0180053]]}},
{"type":"Feature","properties":{},"geometry":{"type":"LineString","coordinates":[[18.5867851,-34.016887699999984],[18.5869198,-34.0168924],[18.5870196,-34.0168745]]}},
{"type":"Feature","properties":{},"geometry":{"type":"LineString","coordinates":[[18.5870379,-34.0161822],[18.5870379,-34.0162229],[18.5870179,-34.0162946]]}},
{"type":"Feature","properties":{},"geometry":{"type":"LineString","coordinates":[[18.5867644,-34.0161622],[18.5869481,-34.0161471],[18.5869555,-34.0161278],[18.5870021,-34.0161229],[18.5870379,-34.0161822],[18.5870961,-34.016176],[18.5871739,-34.0161462],[18.5871567,-34.0161037]]}},
{"type":"Feature","properties":{},"geometry":{"type":"LineString","coordinates":[[18.5870993,-34.0158876],[18.5871111,-34.0159802],[18.5870495,-34.0159905],[18.5870055,-34.015998099999983],[18.5870038,-34.0160105],[18.5869115,-34.016012599999989],[18.5869015,-34.0158981]]}},
{"type":"Feature","properties":{},"geometry":{"type":"LineString","coordinates":[[18.5877325,-34.0159685],[18.5880107,-34.0159802]]}},
{"type":"Feature","properties":{},"geometry":{"type":"LineString","coordinates":[[18.5877407,-34.016208699999986],[18.5877275,-34.0161374],[18.5877084,-34.0161374],[18.5877126,-34.0160816],[18.5877042,-34.0159726],[18.5877325,-34.0159685],[18.5877259,-34.0158584]]}},
{"type":"Feature","properties":{},"geometry":{"type":"LineString","coordinates":[[18.5880298,-34.0162726],[18.5881792,-34.0162567],[18.5881601,-34.0161298]]}},
{"type":"Feature","properties":{},"geometry":{"type":"LineString","coordinates":[[18.5875212,-34.0181639],[18.5876593,-34.0180205],[18.587725,-34.0180157],[18.5877799,-34.0180081]]}},
{"type":"Feature","properties":{},"geometry":{"type":"LineString","coordinates":[[18.5874909,-34.0178441],[18.5875844,-34.0178909],[18.5876626,-34.0179267],[18.5876934,-34.0179315],[18.5877101,-34.0178915],[18.5877658,-34.0179033],[18.587849,-34.0178943],[18.5878548,-34.0179508],[18.5878731,-34.0179508],[18.5878573,-34.0180157],[18.5877799,-34.0180081],[18.5877749,-34.0180729],[18.5877167,-34.0180881],[18.5876086,-34.0182163]]}},
{"type":"Feature","properties":{},"geometry":{"type":"LineString","coordinates":[[18.5881108,-34.0176395],[18.5880428,-34.0176454],[18.5879605,-34.0176654],[18.5879663,-34.0177123],[18.5879031,-34.0177274],[18.5878407,-34.0176723],[18.5877823,-34.0176039]]}},
{"type":"Feature","properties":{},"geometry":{"type":"LineString","coordinates":[[18.5864474,-34.0182861],[18.5863058,-34.0182508],[18.5862518,-34.0182411],[18.5861328,-34.0182542],[18.5860555,-34.0182529],[18.5860555,-34.0182342]]}},
{"type":"Feature","properties":{},"geometry":{"type":"LineString","coordinates":[[18.5858786,-34.0182545],[18.5859814,-34.0182446],[18.5860555,-34.0182342]]}},
{"type":"Feature","properties":{},"geometry":{"type":"LineString","coordinates":[[18.5858489,-34.0181374],[18.58586,-34.0182135],[18.5858691,-34.018214199999989],[18.5858786,-34.0182545],[18.5858849,-34.01828110000001],[18.5858873,-34.0183404]]}},
{"type":"Feature","properties":{},"geometry":{"type":"LineString","coordinates":[[18.5859239,-34.0179897],[18.5858758,-34.0180619],[18.5858633,-34.0181363],[18.5858489,-34.0181374],[18.5857576,-34.0181439],[18.5856803,-34.018159099999984]]}},
{"type":"Feature","properties":{},"geometry":{"type":"LineString","coordinates":[[18.5854657,-34.0182487],[18.5854607,-34.0183115],[18.5854731,-34.0184059]]}},
{"type":"Feature","properties":{},"geometry":{"type":"LineString","coordinates":[[18.5859025,-34.0179669],[18.5857568,-34.0179653],[18.5856121,-34.0179577],[18.5855896,-34.0179805],[18.5854623,-34.018034299999989],[18.5854665,-34.0181453],[18.5854664,-34.018157],[18.5854657,-34.0182487],[18.5856212,-34.018239099999988]]}},
{"type":"Feature","properties":{},"geometry":{"type":"LineString","coordinates":[[18.5850782,-34.0185851],[18.5851861,-34.01858450000001],[18.5853841,-34.0185914],[18.5853899,-34.0185969],[18.5853968,-34.0185966],[18.5855056,-34.0185921],[18.5856287,-34.01857],[18.5856428,-34.0185769],[18.5856869,-34.0185749],[18.5856903,-34.0185955],[18.5857676,-34.0185838]]}},
{"type":"Feature","properties":{},"geometry":{"type":"LineString","coordinates":[[18.585216,-34.0197827],[18.5854024,-34.019749100000013],[18.5854623,-34.0197249],[18.5855006,-34.019696]]}},
{"type":"Feature","properties":{},"geometry":{"type":"LineString","coordinates":[[18.5863211,-34.019894],[18.5862875,-34.0198539],[18.5862301,-34.0198759],[18.5861969,-34.0198215],[18.586185,-34.0197801],[18.5862078,-34.0197595],[18.5861494,-34.0197039],[18.5862341,-34.0196412]]}},
{"type":"Feature","properties":{},"geometry":{"type":"LineString","coordinates":[[18.588527,-34.0210419],[18.5884885,-34.0208874],[18.5884762,-34.0208378],[18.588512,-34.020832299999988],[18.5885057,-34.0207616],[18.5884965,-34.0206577]]}},
{"type":"Feature","properties":{},"geometry":{"type":"LineString","coordinates":[[18.5881525,-34.02079220000001],[18.5882109,-34.0209067],[18.5882127,-34.0210095]]}},
{"type":"Feature","properties":{},"geometry":{"type":"LineString","coordinates":[[18.5878678,-34.0200478],[18.5880503,-34.0200545],[18.5880511,-34.0199656],[18.5881626,-34.0199449]]}},
{"type":"Feature","properties":{},"geometry":{"type":"LineString","coordinates":[[18.5878691,-34.0193679],[18.587958,-34.0195512],[18.5879047,-34.0195684],[18.5878533,-34.0195922],[18.5878292,-34.0195478],[18.5877366,-34.019487700000013],[18.5877044,-34.0194432]]}},
{"type":"Feature","properties":{},"geometry":{"type":"LineString","coordinates":[[18.5880748,-34.018708],[18.5879363,-34.0186769],[18.5879347,-34.0186838],[18.5878498,-34.0186831],[18.5877758,-34.0186983],[18.587755,-34.0186962],[18.5876844,-34.0186894],[18.5876834,-34.0186121]]}},
{"type":"Feature","properties":{},"geometry":{"type":"LineString","coordinates":[[18.5871475,-34.018376],[18.5873049,-34.0184349],[18.5873083,-34.0184245],[18.5873199,-34.0184307],[18.5873296,-34.0183828]]}},
{"type":"Feature","properties":{},"geometry":{"type":"LineString","coordinates":[[18.5864939,-34.0179171],[18.5865762,-34.01780260000001],[18.5864464,-34.0177495],[18.5864224,-34.0177328],[18.586392,-34.017706],[18.5864727,-34.0175537]]}},
{"type":"Feature","properties":{},"geometry":{"type":"LineString","coordinates":[[18.586373,-34.0175162],[18.5862875,-34.0176923],[18.5863333,-34.017715],[18.5863208,-34.017747399999983],[18.5863341,-34.0177509],[18.5863233,-34.017775],[18.5863566,-34.0177867],[18.5863524,-34.0178143],[18.5864048,-34.0178412],[18.5863416,-34.017929499999987],[18.5864139,-34.0179662],[18.586466,-34.0179019],[18.5864939,-34.0179171],[18.586372,-34.0181152]]}},
{"type":"Feature","properties":{},"geometry":{"type":"LineString","coordinates":[[18.5872904,-34.0187504],[18.5872512,-34.0187488],[18.5871733,-34.0187541]]}},
{"type":"Feature","properties":{},"geometry":{"type":"LineString","coordinates":[[18.5854623,-34.018034299999989],[18.5854433,-34.0179902],[18.585438,-34.017953],[18.5854258,-34.0179167],[18.585423,-34.017833],[18.5854198,-34.0177804],[18.5853328,-34.017776],[18.5853369,-34.0177022]]}},
{"type":"Feature","properties":{},"geometry":{"type":"LineString","coordinates":[[18.5866211,-34.0174112],[18.5866847,-34.0174344],[18.5867475,-34.0174592],[18.5867934,-34.017461],[18.586848,-34.0174713],[18.5868705,-34.0174379],[18.5869197,-34.0173927],[18.5868861,-34.0173587],[18.5868466,-34.0173209],[18.5868854,-34.0172937],[18.5869061,-34.0172544],[18.5869521,-34.017255899999988],[18.5869667,-34.0171944],[18.5869813,-34.0171889]]}},
{"type":"Feature","properties":{},"geometry":{"type":"LineString","coordinates":[[18.5876994,-34.014826],[18.5877457,-34.0148188],[18.587806,-34.014812],[18.5878356,-34.01481110000001],[18.5878391,-34.014828899999983]]}},
{"type":"Feature","properties":{},"geometry":{"type":"LineString","coordinates":[[18.587613,-34.0141947],[18.5877284,-34.0141674],[18.5879563,-34.0141074],[18.5880223,-34.0140542]]}},
{"type":"Feature","properties":{},"geometry":{"type":"LineString","coordinates":[[18.590974,-34.0137487],[18.5910032,-34.013755],[18.5910296,-34.0137786],[18.5910852,-34.0138176],[18.5911027,-34.0138407],[18.5911233,-34.0138714],[18.5911233,-34.0138927]]}},
{"type":"Feature","properties":{},"geometry":{"type":"LineString","coordinates":[[18.5923366,-34.0133701],[18.5922878,-34.0133856],[18.5922436,-34.0134018],[18.5922546,-34.0134189],[18.5922824,-34.013432],[18.5922949,-34.0134639],[18.5923277,-34.01348930000001],[18.5923405,-34.0135159],[18.5922828,-34.0135428],[18.5923191,-34.0136069],[18.5923669,-34.0135886],[18.5923965,-34.0135525],[18.592429,-34.013540100000014],[18.5924466,-34.0135423]]}},
{"type":"Feature","properties":{},"geometry":{"type":"LineString","coordinates":[[18.5919958,-34.0135289],[18.5920211,-34.0135894]]}},
{"type":"Feature","properties":{},"geometry":{"type":"LineString","coordinates":[[18.5911748,-34.0205923],[18.5911565,-34.0205585],[18.5909452,-34.0204462],[18.5909053,-34.0203572],[18.5908637,-34.0202972],[18.5908279,-34.0201766],[18.5908479,-34.0200931],[18.5909602,-34.0200097],[18.5910118,-34.0199339],[18.5910126,-34.019902099999989],[18.5909968,-34.0198637]]}},
{"type":"Feature","properties":{},"geometry":{"type":"LineString","coordinates":[[18.5856452,-34.012509],[18.5856405,-34.0125646],[18.5856264,-34.0125896],[18.5856338,-34.01265690000001],[18.585674,-34.012658],[18.585674,-34.0127208],[18.5856606,-34.0127458],[18.5856707,-34.0128114],[18.5857002,-34.012800799999987],[18.5857324,-34.0128075],[18.5857626,-34.0128046],[18.58578,-34.012803],[18.5857914,-34.0128775],[18.5858088,-34.0128831],[18.5858115,-34.0129262],[18.5858437,-34.0129292],[18.5858631,-34.0129698],[18.5858712,-34.0130226],[18.5859436,-34.0130282],[18.5859469,-34.0130882]]}},
{"type":"Feature","properties":{},"geometry":{"type":"LineString","coordinates":[[18.5936691,-34.0131716],[18.593722,-34.0131349],[18.5937944,-34.0131076],[18.593844,-34.0131243],[18.5939415,-34.0131112]]}},
{"type":"Feature","properties":{},"geometry":{"type":"LineString","coordinates":[[18.5883265,-34.0156154],[18.5883348,-34.0155991],[18.5883375,-34.0155771],[18.5883348,-34.0155527],[18.5883351,-34.0155307],[18.5883301,-34.0155007],[18.5883274,-34.0154704],[18.5883287,-34.0154551],[18.5883234,-34.0154343],[18.5882912,-34.0154396],[18.5882456,-34.0154443],[18.5882352,-34.015436]]}},
{"type":"Feature","properties":{},"geometry":{"type":"LineString","coordinates":[[18.5887308,-34.0155954],[18.5887498,-34.0156261],[18.5887679,-34.0156644],[18.5887834,-34.0156744],[18.5888215,-34.0157078]]}},
{"type":"Feature","properties":{},"geometry":{"type":"LineString","coordinates":[[18.5876635,-34.0162794],[18.587683,-34.0162886],[18.5877034,-34.0163389],[18.5877155,-34.016385],[18.5877236,-34.0164206],[18.5877262,-34.016448399999987],[18.587736,-34.0164998],[18.5877155,-34.01650510000001],[18.587678,-34.016509],[18.5876407,-34.0165081]]}},
{"type":"Feature","properties":{},"geometry":{"type":"LineString","coordinates":[[18.5848409,-34.0163036],[18.5848774,-34.0163066],[18.5849089,-34.0163061],[18.5849572,-34.0163041],[18.5850108,-34.0163103],[18.5850444,-34.0163142]]}},
{"type":"Feature","properties":{},"geometry":{"type":"LineString","coordinates":[[18.5848385,-34.0163166],[18.5848409,-34.0163036],[18.5848415,-34.01628],[18.5848077,-34.0162777],[18.5848083,-34.016263799999983],[18.5847721,-34.0162616],[18.5847738,-34.0162369],[18.5847547,-34.0162336],[18.5847302,-34.0162294]]}},
{"type":"Feature","properties":{},"geometry":{"type":"LineString","coordinates":[[18.5858084,-34.017143],[18.585841,-34.0170434],[18.585853,-34.0169911]]}},
{"type":"Feature","properties":{},"geometry":{"type":"LineString","coordinates":[[18.5842739,-34.016886600000014],[18.5842773,-34.0169177],[18.5842793,-34.016946600000011],[18.5842082,-34.0169461],[18.5842095,-34.016985],[18.5841539,-34.0169928],[18.5841633,-34.0170284],[18.58417,-34.0170673],[18.584176,-34.0171017],[18.5841791,-34.0171415]]}},
{"type":"Feature","properties":{},"geometry":{"type":"LineString","coordinates":[[18.5842022,-34.016069],[18.584172,-34.0161352],[18.5841693,-34.016244099999987],[18.5842122,-34.016253],[18.5842337,-34.0163153],[18.5842216,-34.0163842],[18.584227,-34.0164842],[18.5842323,-34.0165476],[18.5842296,-34.0166209],[18.5842229,-34.016701],[18.5842149,-34.0167266],[18.5842444,-34.016767699999988],[18.5842739,-34.016886600000014],[18.584459,-34.0168677],[18.584573,-34.01686440000001],[18.5846682,-34.0168611],[18.5847849,-34.0168599],[18.5849015,-34.01686440000001],[18.5850061,-34.0168511],[18.5851121,-34.0168199],[18.5851812,-34.0167966]]}},
{"type":"Feature","properties":{},"geometry":{"type":"LineString","coordinates":[[18.5942782,-34.0161782],[18.5943738,-34.0161702],[18.5944489,-34.0161518],[18.5944958,-34.0161463],[18.5945716,-34.0161374],[18.5945649,-34.0161063],[18.5946004,-34.016094],[18.5946038,-34.0160679],[18.5946017,-34.016039],[18.5946138,-34.016014],[18.5946071,-34.0159618],[18.5945977,-34.015924],[18.5945937,-34.0158695],[18.5945347,-34.0157883],[18.5944515,-34.0157639],[18.5943738,-34.0157728],[18.594232,-34.0157899]]}},
{"type":"Feature","properties":{},"geometry":{"type":"LineString","coordinates":[[18.5885198,-34.0127858],[18.5884769,-34.0127914],[18.5884233,-34.0127936],[18.5883549,-34.0128092],[18.5882744,-34.0128214],[18.5882476,-34.0128092],[18.588194,-34.01277910000001],[18.588194,-34.012839199999988],[18.5881618,-34.0128392],[18.5881673,-34.0129332]]}},
{"type":"Feature","properties":{},"geometry":{"type":"LineString","coordinates":[[18.5864995,-34.012800799999987],[18.5865028,-34.0128369],[18.5865001,-34.0128586],[18.5865216,-34.0128681],[18.5865417,-34.0128681],[18.5865719,-34.012867],[18.586598,-34.0128753],[18.5866135,-34.0128909],[18.5866356,-34.0129003],[18.5866651,-34.0128986],[18.5866752,-34.0128986],[18.5866785,-34.0129164],[18.5866718,-34.0129431],[18.5866718,-34.0129565],[18.5866711,-34.0129826],[18.5866738,-34.0130031],[18.5866787,-34.0130301]]}},
{"type":"Feature","properties":{},"geometry":{"type":"LineString","coordinates":[[18.5861059,-34.0127797],[18.5860985,-34.0128008],[18.5861025,-34.0128386],[18.5861072,-34.0128803],[18.5861119,-34.0129148],[18.5861146,-34.0129531],[18.5861079,-34.0129981],[18.5861173,-34.0130332],[18.5861136,-34.0130721]]}},
{"type":"Feature","properties":{},"geometry":{"type":"LineString","coordinates":[[18.5878158,-34.0127502],[18.5877661,-34.0127636],[18.5877158,-34.0127697],[18.5876689,-34.0127675],[18.5875992,-34.012758],[18.5875442,-34.012760199999988],[18.5875167,-34.0127652],[18.5875133,-34.0127391],[18.5875154,-34.0127108],[18.5875207,-34.0126969],[18.5874879,-34.0126924],[18.5874651,-34.0126913],[18.5874235,-34.0126913],[18.5873752,-34.0126991],[18.587341,-34.0127002],[18.5873306,-34.0127056],[18.5873108,-34.0127158],[18.5872914,-34.0127224],[18.5872324,-34.0127302],[18.587223,-34.012743],[18.587229,-34.012772499999983],[18.5872243,-34.0128053],[18.5872183,-34.0128358],[18.5871854,-34.0128364],[18.5871942,-34.0128514],[18.5872324,-34.0128503],[18.5872773,-34.0128503],[18.5873457,-34.0128592],[18.587335,-34.0129025],[18.5873377,-34.012928100000011],[18.5873477,-34.0129806]]}},
{"type":"Feature","properties":{},"geometry":{"type":"LineString","coordinates":[[18.5876817,-34.0129548],[18.5877004,-34.012897],[18.587746,-34.0128492],[18.5878158,-34.0128003],[18.5878158,-34.0127502],[18.5878734,-34.012738],[18.5879298,-34.0127035],[18.5879619,-34.0127002],[18.5879874,-34.012698],[18.5879982,-34.0126669],[18.5880357,-34.0126368],[18.5880263,-34.0125935],[18.5880156,-34.0125146],[18.5880116,-34.0124645],[18.5879713,-34.0124556],[18.5879537,-34.012402]]}},
{"type":"Feature","properties":{},"geometry":{"type":"LineString","coordinates":[[18.5874644,-34.0204503],[18.587461,-34.0205037],[18.5874188,-34.0205015],[18.5873859,-34.0205098],[18.587394,-34.0205393],[18.5873403,-34.0205421],[18.5873377,-34.0205771],[18.5872686,-34.0205954],[18.5872241,-34.0206102]]}},
{"type":"Feature","properties":{},"geometry":{"type":"LineString","coordinates":[[18.5869899,-34.0202854],[18.5869601,-34.0203147],[18.5869206,-34.0203431],[18.5868763,-34.0203709],[18.5868964,-34.020402],[18.5869233,-34.0204409],[18.5868689,-34.0204515],[18.5868783,-34.0204854],[18.5868944,-34.0205232],[18.5868756,-34.0205293],[18.5868669,-34.0205479],[18.5868689,-34.020576],[18.5868696,-34.020604],[18.5868683,-34.020619299999986]]}},
{"type":"Feature","properties":{},"geometry":{"type":"LineString","coordinates":[[18.5866807,-34.0201216],[18.5866966,-34.0201486],[18.5867114,-34.0201769],[18.5867355,-34.020198],[18.586761,-34.0202275],[18.5867867,-34.0202567]]}},
{"type":"Feature","properties":{},"geometry":{"type":"LineString","coordinates":[[18.5885057,-34.0207616],[18.5885735,-34.020761],[18.5885829,-34.0208111],[18.5886392,-34.0208116],[18.5886915,-34.0208061]]}},
{"type":"Feature","properties":{},"geometry":{"type":"LineString","coordinates":[[18.5885877,-34.0206689],[18.5885829,-34.0206871],[18.5885849,-34.0207155],[18.5885889,-34.0207427],[18.5886224,-34.020736],[18.5886627,-34.0207299],[18.5886868,-34.0207299],[18.5887009,-34.0207444],[18.5887042,-34.0207755],[18.5887016,-34.0207988],[18.5886915,-34.0208061],[18.5886875,-34.0208149],[18.5886841,-34.0208361],[18.5886938,-34.0208816],[18.5887029,-34.0209361],[18.5887108,-34.0209741]]}},
{"type":"Feature","properties":{},"geometry":{"type":"LineString","coordinates":[[18.5873631,-34.0211479],[18.5873437,-34.0211312],[18.5873004,-34.0210973],[18.5872609,-34.0210723],[18.5872079,-34.0210311],[18.5871549,-34.0209956],[18.5871502,-34.0209614],[18.5871647,-34.0209005],[18.5871693,-34.0208666]]}},
{"type":"Feature","properties":{},"geometry":{"type":"LineString","coordinates":[[18.5871325,-34.0208412],[18.5871693,-34.0208666],[18.5872062,-34.020885],[18.5872961,-34.020938899999983],[18.5874,-34.0210072],[18.5874309,-34.0210828],[18.5873631,-34.0211479],[18.5872753,-34.0212231]]}},
{"type":"Feature","properties":{},"geometry":{"type":"LineString","coordinates":[[18.5876019,-34.0212212],[18.5876146,-34.0212007],[18.5876126,-34.0211701],[18.5876065,-34.0211456],[18.5876052,-34.0211223],[18.5876287,-34.0211006],[18.5876622,-34.0210839],[18.5877172,-34.021055],[18.5877031,-34.0210384],[18.5876817,-34.0210117],[18.5876642,-34.0210022],[18.5876548,-34.0209733],[18.5876381,-34.0209217],[18.5876347,-34.0209039],[18.5876245,-34.020853099999989]]}},
{"type":"Feature","properties":{},"geometry":{"type":"LineString","coordinates":[[18.5861213,-34.0210845],[18.5861152,-34.0210453],[18.5861005,-34.0210156],[18.5860918,-34.0209908],[18.5860834,-34.0209617],[18.5860696,-34.0209164],[18.5860492,-34.02092],[18.5860281,-34.0209225],[18.5860153,-34.0209194],[18.5860177,-34.0208975],[18.586018,-34.0208438],[18.5860388,-34.0208405],[18.5860368,-34.0208224],[18.5860341,-34.020788],[18.5860345,-34.0207527]]}},
{"type":"Feature","properties":{},"geometry":{"type":"LineString","coordinates":[[18.5856497,-34.0205342],[18.5856844,-34.0205284],[18.5857189,-34.0205159],[18.5857528,-34.0205068],[18.5857575,-34.020499299999983],[18.5857783,-34.0204926],[18.5858031,-34.020488699999987],[18.5858262,-34.0204848],[18.5858514,-34.0204751],[18.5858789,-34.020459],[18.585906,-34.020443699999987],[18.5858926,-34.020427],[18.5858829,-34.0204095],[18.5859124,-34.0203856],[18.5859297,-34.0203711]]}},
{"type":"Feature","properties":{},"geometry":{"type":"LineString","coordinates":[[18.5861035,-34.0201858],[18.5861173,-34.020165199999987],[18.586138,-34.0201358],[18.5861555,-34.0201113],[18.5861675,-34.0201002],[18.5861903,-34.020085799999983],[18.5862266,-34.0200719]]}},
{"type":"Feature","properties":{},"geometry":{"type":"LineString","coordinates":[[18.5859132,-34.0203531],[18.5859298,-34.0203348],[18.5859449,-34.0202972],[18.585953,-34.0202653],[18.5859647,-34.0202506],[18.5859949,-34.0202511],[18.5860348,-34.0202617],[18.5860676,-34.0202622],[18.586081,-34.0202422],[18.5861045,-34.0202211],[18.5861226,-34.0201986],[18.5861035,-34.0201858],[18.5860646,-34.020163],[18.5860375,-34.0201463],[18.5860113,-34.0201269],[18.5859791,-34.0201099],[18.585957,-34.0201069]]}},
{"type":"Feature","properties":{},"geometry":{"type":"LineString","coordinates":[[18.5864139,-34.020324],[18.5863918,-34.0202964],[18.5863694,-34.02026390000001],[18.5863395,-34.0202297],[18.5863211,-34.0202022],[18.5863124,-34.0201811],[18.5863043,-34.0201536],[18.5862856,-34.0201255],[18.5862799,-34.0201038],[18.5862614,-34.0200763],[18.5862493,-34.020059900000014]]}},
{"type":"Feature","properties":{},"geometry":{"type":"LineString","coordinates":[[18.5860683,-34.0199713],[18.5860579,-34.0199521],[18.5860358,-34.0199343],[18.5860254,-34.0199149],[18.5860341,-34.0198912],[18.5860468,-34.0198746],[18.5860737,-34.0198607]]}},
{"type":"Feature","properties":{},"geometry":{"type":"LineString","coordinates":[[18.5856546,-34.0191977],[18.5856774,-34.0192193],[18.5856935,-34.0192493],[18.5857122,-34.0192782],[18.5857344,-34.0193004],[18.5857525,-34.0193254],[18.5857733,-34.019358799999985],[18.5857847,-34.0193766],[18.5857645,-34.019390199999989],[18.5857424,-34.0194185],[18.5857488,-34.0194372],[18.5857716,-34.0194561],[18.58579,-34.019473],[18.5858088,-34.0195016],[18.5858326,-34.0195266],[18.5858591,-34.019552199999985],[18.5858477,-34.0195625],[18.5858651,-34.0195844],[18.5858946,-34.0196125],[18.5859204,-34.0196339],[18.5859432,-34.0196703],[18.5859758,-34.0197181]]}},
{"type":"Feature","properties":{},"geometry":{"type":"LineString","coordinates":[[18.5850881,-34.0188813],[18.5851698,-34.0188836],[18.5852308,-34.018875799999989],[18.5853079,-34.0188719],[18.5853139,-34.0188947],[18.5853206,-34.018932],[18.5853267,-34.018943599999986],[18.5853347,-34.0189786],[18.5852992,-34.018987],[18.5853059,-34.0190258]]}},
{"type":"Feature","properties":{},"geometry":{"type":"LineString","coordinates":[[18.5853968,-34.0185966],[18.5853964,-34.0185601],[18.5853967,-34.0185265],[18.5853887,-34.0184968],[18.5853977,-34.0184873],[18.58544,-34.0184845],[18.585446,-34.018474500000011],[18.5854796,-34.018469],[18.5854755,-34.0184445],[18.5854731,-34.0184059]]}},
{"type":"Feature","properties":{},"geometry":{"type":"LineString","coordinates":[[18.5851585,-34.0175635],[18.585216,-34.0175664],[18.5852616,-34.0175658],[18.5853059,-34.0175664],[18.585328,-34.0175664],[18.5853367,-34.0175514],[18.585385,-34.017560299999985],[18.5853823,-34.0175853]]}},
{"type":"Feature","properties":{},"geometry":{"type":"LineString","coordinates":[[18.5858161,-34.0173452],[18.5858021,-34.0173941],[18.5857907,-34.0174324],[18.5857719,-34.0174752],[18.5857578,-34.017558]]}},
{"type":"Feature","properties":{},"geometry":{"type":"LineString","coordinates":[[18.5941139,-34.0199515],[18.5942628,-34.0199676]]}},
{"type":"Feature","properties":{},"geometry":{"type":"LineString","coordinates":[[18.5856375,-34.02047180000001],[18.5855989,-34.0204937],[18.585556,-34.020502599999986],[18.585562,-34.0205176],[18.5854977,-34.0205326],[18.5854869,-34.0205215],[18.5854293,-34.0205337],[18.5853425,-34.0205461]]}},
{"type":"Feature","properties":{},"geometry":{"type":"LineString","coordinates":[[18.5944401,-34.0144083],[18.5944301,-34.0145989],[18.5943872,-34.0147634],[18.594363,-34.0150658],[18.5943255,-34.0153526],[18.5943738,-34.0157728]]}},
{"type":"Feature","properties":{},"geometry":{"type":"LineString","coordinates":[[18.5937273,-34.0133127],[18.5938159,-34.0133616],[18.5939704,-34.013380399999988],[18.5940573,-34.013375],[18.5940801,-34.0135651],[18.5942303,-34.0135317],[18.594473,-34.0134606]]}},
{"type":"Feature","properties":{},"geometry":{"type":"LineString","coordinates":[[18.5948922,-34.0143111],[18.5948297,-34.0143971],[18.5946145,-34.0144116],[18.5944401,-34.0144083],[18.5944489,-34.0140475],[18.594465,-34.0137085],[18.594473,-34.0134606],[18.594477,-34.0131882],[18.5944381,-34.0131071],[18.5943134,-34.0130204],[18.5942115,-34.0130059],[18.5942222,-34.0130971],[18.5939415,-34.0131112]]}},
{"type":"Feature","properties":{},"geometry":{"type":"LineString","coordinates":[[18.5855312,-34.012970899999985],[18.5855453,-34.0129114],[18.5855359,-34.012867],[18.5855184,-34.0128314],[18.5855305,-34.0127992],[18.5855252,-34.0127491],[18.5855252,-34.0127291],[18.585674,-34.0127208]]}},
{"type":"Feature","properties":{},"geometry":{"type":"LineString","coordinates":[[18.5917479,-34.0164153],[18.5917023,-34.0163964],[18.5917023,-34.016211899999988],[18.5914609,-34.0161207]]}},
{"type":"Feature","properties":{},"geometry":{"type":"LineString","coordinates":[[18.5919356,-34.0165987],[18.5918471,-34.0165198],[18.5917479,-34.0164153]]}},
{"type":"Feature","properties":{},"geometry":{"type":"LineString","coordinates":[[18.5913174,-34.0158751],[18.5915011,-34.0160707]]}},
{"type":"Feature","properties":{},"geometry":{"type":"LineString","coordinates":[[18.5918297,-34.0157839],[18.5916567,-34.0158184],[18.5913174,-34.0158751],[18.5912825,-34.0158639],[18.5909647,-34.0158562]]}},
{"type":"Feature","properties":{},"geometry":{"type":"LineString","coordinates":[[18.5918731,-34.0157072],[18.5918297,-34.0157839],[18.5916527,-34.0159362],[18.5915011,-34.0160707],[18.5914609,-34.0161207]]}},
{"type":"Feature","properties":{},"geometry":{"type":"LineString","coordinates":[[18.585493,-34.0192532],[18.5854802,-34.0192443],[18.5854494,-34.0191948],[18.5854112,-34.0191543],[18.5854023,-34.019120799999989]]}},
{"type":"Feature","properties":{},"geometry":{"type":"LineString","coordinates":[[18.5887324,-34.0203538],[18.5887519,-34.0203631],[18.5888565,-34.0203498],[18.5888773,-34.0203404]]}},
{"type":"Feature","properties":{},"geometry":{"type":"LineString","coordinates":[[18.5946804,-34.020078],[18.5945387,-34.0202288],[18.5926169,-34.020626],[18.5894811,-34.021209399999989]]}},
{"type":"Feature","properties":{},"geometry":{"type":"LineString","coordinates":[[18.5846199,-34.0153026],[18.5846166,-34.0152692]]}},
{"type":"Feature","properties":{},"geometry":{"type":"LineString","coordinates":[[18.5860005,-34.0186293],[18.5859979,-34.0186752],[18.5860529,-34.0186802],[18.5860519,-34.0187327],[18.5859996,-34.018735499999984],[18.5859982,-34.0187736],[18.5859996,-34.0188052],[18.5860086,-34.0188855],[18.5859872,-34.0188975],[18.5860002,-34.0189517],[18.5859855,-34.0189553],[18.5860207,-34.0190423]]}},
{"type":"Feature","properties":{},"geometry":{"type":"LineString","coordinates":[[18.5879874,-34.012698],[18.5880102,-34.012718],[18.5880082,-34.012788],[18.5880498,-34.0129009],[18.5880485,-34.0129372]]}},
{"type":"Feature","properties":{},"geometry":{"type":"LineString","coordinates":[[18.5875167,-34.0127652],[18.5875636,-34.012798],[18.5875529,-34.012862],[18.5876099,-34.0129603]]}},
{"type":"Feature","properties":{},"geometry":{"type":"LineString","coordinates":[[18.5870902,-34.0128714],[18.5870245,-34.0128848],[18.5870366,-34.013004]]}},
{"type":"Feature","properties":{},"geometry":{"type":"LineString","coordinates":[[18.5859436,-34.0130282],[18.5859543,-34.0130081],[18.5860334,-34.0130037],[18.5860254,-34.012929199999988],[18.5859583,-34.0129326],[18.5859583,-34.0128781],[18.5859945,-34.0128747],[18.5860059,-34.0127975]]}},
{"type":"Feature","properties":{},"geometry":{"type":"LineString","coordinates":[[18.5862418,-34.0152031],[18.5861997,-34.0151764],[18.5861561,-34.0151692],[18.5861468,-34.0150747],[18.5860616,-34.0150725]]}},
{"type":"Feature","properties":{},"geometry":{"type":"LineString","coordinates":[[18.5868491,-34.0202083],[18.5868857,-34.0202242],[18.5869691,-34.0202014]]}},
{"type":"Feature","properties":{},"geometry":{"type":"LineString","coordinates":[[18.5934873,-34.0147612],[18.5932955,-34.0146078],[18.5931802,-34.0144455],[18.593156,-34.0141698],[18.5930152,-34.014177]]}},
{"type":"Feature","properties":{},"geometry":{"type":"LineString","coordinates":[[18.5929643,-34.0144805],[18.592971,-34.0141764]]}},
{"type":"Feature","properties":{},"geometry":{"type":"LineString","coordinates":[[18.5878506,-34.019705],[18.5878868,-34.019757],[18.5879527,-34.0197369]]}},
{"type":"Feature","properties":{},"geometry":{"type":"LineString","coordinates":[[18.5859901,-34.0176454],[18.5858162,-34.0176147],[18.5857578,-34.017558]]}},
{"type":"Feature","properties":{},"geometry":{"type":"LineString","coordinates":[[18.584823,-34.018955399999989],[18.5847849,-34.0189175],[18.5847688,-34.018833],[18.5847969,-34.0188252],[18.5847822,-34.0187608],[18.5847138,-34.0186907],[18.5847039,-34.01868]]}},
{"type":"Feature","properties":{},"geometry":{"type":"LineString","coordinates":[[18.5863191,-34.0168877],[18.5863211,-34.0168338],[18.5863654,-34.0168283],[18.586354,-34.0167927],[18.5864063,-34.0167766],[18.5863868,-34.016712100000014],[18.586404,-34.016709]]}},
{"type":"Feature","properties":{},"geometry":{"type":"LineString","coordinates":[[18.5864349,-34.0169376],[18.5864284,-34.0168811],[18.5863191,-34.0168877],[18.5863238,-34.0170261],[18.5861387,-34.0170195],[18.586136,-34.0170589],[18.5860475,-34.0170539]]}},
{"type":"Feature","properties":{},"geometry":{"type":"LineString","coordinates":[[18.586434,-34.0158692],[18.5864509,-34.0157795],[18.5864465,-34.0157211],[18.5864686,-34.0156494],[18.5864559,-34.015556],[18.5864103,-34.0155338],[18.5863516,-34.0154283]]}},
{"type":"Feature","properties":{},"geometry":{"type":"LineString","coordinates":[[18.5946804,-34.020078],[18.5946632,-34.0199658],[18.5946446,-34.019862199999984],[18.5946012,-34.0194963],[18.594553,-34.019095399999983],[18.594502,-34.0186515],[18.594472,-34.0183862],[18.5944586,-34.0183525],[18.5944336,-34.018322499999989],[18.5944193,-34.0183102],[18.5943786,-34.0182913],[18.5943321,-34.0182843],[18.5942718,-34.0182876],[18.5939656,-34.0183117],[18.5932682,-34.0183706],[18.5926258,-34.0184217],[18.5924618,-34.0184397],[18.5924253,-34.0184582],[18.5924009,-34.0184959],[18.5924354,-34.0188008]]}}
]
}
