{
"type": "FeatureCollection",
"name": "desire_lines_KEN.30.6_1_109",
"crs": { "type": "name", "properties": { "name": "urn:ogc:def:crs:OGC:1.3:CRS84" } },
"features": [
{"type":"Feature","properties":{},"geometry":{"type":"LineString","coordinates":[[36.8820552,-1.3190455],[36.8820283,-1.3189945],[36.8820421,-1.3189667],[36.8819329,-1.3188921],[36.881927,-1.3188652],[36.8819132,-1.3188391],[36.8818798,-1.3188012],[36.8818132,-1.3187211],[36.8817832,-1.3187104],[36.8817724,-1.3186947],[36.8810441,-1.3196211],[36.8809464,-1.3197453],[36.8809447,-1.3197475],[36.8809271,-1.3197623],[36.8809124,-1.3197761],[36.8807033,-1.3195977],[36.8806836,-1.3195839],[36.8806607,-1.3195629],[36.8805722,-1.3196357],[36.8805291,-1.3196798],[36.8804821,-1.3196996],[36.8804192,-1.3197806]]}},
{"type":"Feature","properties":{},"geometry":{"type":"LineString","coordinates":[[36.8799998,-1.312876],[36.8801064,-1.3126247],[36.8801735,-1.3125499],[36.8802122,-1.3124906],[36.8802401,-1.3124489],[36.8802751,-1.3123837],[36.8803067,-1.3123482],[36.8803255,-1.3123266],[36.8803437,-1.3123041],[36.880368,-1.3122662],[36.8804028,-1.3122066],[36.8804563,-1.3121206],[36.880493,-1.3120851],[36.8805522,-1.3119795],[36.8805404,-1.3119421],[36.8805266,-1.3118896],[36.8805284,-1.3118266],[36.8805492,-1.3117706],[36.8806332,-1.3116443],[36.880686,-1.3115546],[36.8807568,-1.3114563]]}},
{"type":"Feature","properties":{},"geometry":{"type":"LineString","coordinates":[[36.8807568,-1.3114563],[36.8808074,-1.3113715],[36.880872,-1.3112856],[36.8809278,-1.3112056],[36.8809737,-1.3111367],[36.8810111,-1.3110801],[36.8810817,-1.3109662],[36.8811083,-1.3109197],[36.8811467,-1.310854],[36.8811847,-1.3108086],[36.8812284,-1.310752],[36.8812666,-1.3106946],[36.8813074,-1.3106549],[36.88136,-1.3106418],[36.8815207,-1.3106087]]}},
{"type":"Feature","properties":{},"geometry":{"type":"LineString","coordinates":[[36.8707589,-1.3106655],[36.8707998,-1.3106822],[36.8708023,-1.3107334],[36.8708079,-1.3108495],[36.8707895,-1.3110552],[36.8707985,-1.3116308],[36.8707919,-1.3117241],[36.8707871,-1.3117609],[36.8707805,-1.3118015],[36.8707773,-1.3118939],[36.8707542,-1.3119586],[36.8707579,-1.3120011],[36.8707586,-1.3121]]}},
{"type":"Feature","properties":{},"geometry":{"type":"LineString","coordinates":[[36.879845,-1.3169726],[36.879628,-1.3169153],[36.8794,-1.3168968],[36.8792722,-1.3168053],[36.8791422,-1.316752],[36.8790564,-1.3166903],[36.8789284,-1.316589],[36.8788254,-1.3164723],[36.8787753,-1.3164464],[36.8785997,-1.3165426],[36.8785611,-1.3165801],[36.8784727,-1.31662],[36.878257,-1.3167099],[36.8782051,-1.3167029],[36.8781822,-1.3166974],[36.8781621,-1.3167091]]}},
{"type":"Feature","properties":{},"geometry":{"type":"LineString","coordinates":[[36.8822025,-1.3111269],[36.8821699,-1.3111651],[36.8821481,-1.3111512],[36.8821176,-1.3111315],[36.8821059,-1.3111427],[36.8820943,-1.3111465],[36.8820674,-1.3111454],[36.8820071,-1.3111245],[36.8819237,-1.3111121],[36.881876,-1.3111095],[36.8818486,-1.3111189],[36.8818246,-1.3111154],[36.881787,-1.3111142],[36.8817346,-1.3111152],[36.8816805,-1.3110566],[36.8815229,-1.3109722]]}},
{"type":"Feature","properties":{},"geometry":{"type":"LineString","coordinates":[[36.86963,-1.3165466],[36.8695872,-1.3166033],[36.8692337,-1.3163889],[36.8692029,-1.3163773],[36.8691743,-1.3163668],[36.8690524,-1.316293]]}},
{"type":"Feature","properties":{},"geometry":{"type":"LineString","coordinates":[[36.86963,-1.3165466],[36.8696948,-1.3163216],[36.8690983,-1.3161676]]}},
{"type":"Feature","properties":{},"geometry":{"type":"LineString","coordinates":[[36.8787753,-1.3164464],[36.8786787,-1.3163538],[36.8786099,-1.3162763],[36.8785813,-1.3162441],[36.8784626,-1.3161288]]}},
{"type":"Feature","properties":{},"geometry":{"type":"LineString","coordinates":[[36.881818,-1.3149869],[36.8815318,-1.3146458]]}},
{"type":"Feature","properties":{},"geometry":{"type":"LineString","coordinates":[[36.8829894,-1.3158525],[36.8829719,-1.3158619],[36.8829737,-1.3159463],[36.8829642,-1.3160502],[36.8829181,-1.3161426],[36.8828524,-1.3161951],[36.8827985,-1.3162453],[36.8827392,-1.3163095],[36.8826709,-1.3163947],[36.8825671,-1.316497],[36.8824151,-1.3166442],[36.8823582,-1.3167117],[36.882183,-1.3168922],[36.882057,-1.317027],[36.881909,-1.3171529],[36.8817271,-1.3173292],[36.8816312,-1.3173339]]}},
{"type":"Feature","properties":{},"geometry":{"type":"LineString","coordinates":[[36.8739876,-1.313529],[36.8738662,-1.3137787],[36.8738524,-1.3138347],[36.8738229,-1.3139347],[36.8738182,-1.3139547],[36.8737986,-1.314013],[36.8737513,-1.3140911],[36.8737126,-1.3141678],[36.8736842,-1.3142242],[36.8736567,-1.3142806],[36.8735243,-1.3145312],[36.8735249,-1.3145494],[36.8735276,-1.3145627],[36.873648,-1.31466],[36.87369180000001,-1.3147136],[36.8737206,-1.314742]]}},
{"type":"Feature","properties":{},"geometry":{"type":"LineString","coordinates":[[36.86619,-1.3160162],[36.8661846,-1.3159485],[36.8661106,-1.3152982],[36.8660217,-1.3146573]]}},
{"type":"Feature","properties":{},"geometry":{"type":"LineString","coordinates":[[36.8678648,-1.3161059],[36.8678683,-1.3156912],[36.8678728,-1.3156645],[36.8678879,-1.3156541],[36.8679003,-1.3156511],[36.8681991,-1.3156799],[36.8684535,-1.3157174],[36.8691328,-1.3158512],[36.8691724,-1.3158612]]}},
{"type":"Feature","properties":{},"geometry":{"type":"LineString","coordinates":[[36.8656641,-1.3160742],[36.8656245,-1.3158254],[36.8656197,-1.3155461],[36.8655977,-1.3154295],[36.8655608,-1.3152787],[36.8655346,-1.3151694],[36.8655062,-1.3150911],[36.8654793,-1.3150712],[36.8654532,-1.3150608],[36.8654327,-1.3150494],[36.8654082,-1.3149901],[36.8653776,-1.3149151],[36.8653284,-1.3148774],[36.8653098,-1.3148083],[36.865286,-1.3146468],[36.8652723,-1.31455]]}},
{"type":"Feature","properties":{},"geometry":{"type":"LineString","coordinates":[[36.8652059,-1.3117478],[36.8652351,-1.3118971],[36.8652708,-1.3119901],[36.8653019,-1.3121316],[36.8653472,-1.3123199],[36.8653844,-1.312384],[36.8653985,-1.3124349],[36.8654091,-1.3124636],[36.8654226,-1.3124973],[36.8654334,-1.3125361],[36.8654448,-1.3125931],[36.8654521,-1.3126775],[36.8654561,-1.3127887],[36.8654401,-1.3128274],[36.8654408,-1.3128965],[36.8654361,-1.3129615],[36.8654326,-1.3129733],[36.8654245,-1.3130823],[36.8653894,-1.3134922]]}},
{"type":"Feature","properties":{},"geometry":{"type":"LineString","coordinates":[[36.8631126,-1.3142125],[36.8631307,-1.3142047],[36.8633473,-1.3140532],[36.863647,-1.3138521],[36.8637473,-1.313777],[36.8638448,-1.3137157],[36.8639401,-1.3136703],[36.8639508,-1.313662],[36.8639776,-1.3136305],[36.8639507,-1.3135183],[36.8639263,-1.3133617],[36.8639214,-1.3132047]]}},
{"type":"Feature","properties":{},"geometry":{"type":"LineString","coordinates":[[36.8642264,-1.3119241],[36.8642579,-1.3120169],[36.8642264,-1.3121855],[36.8641955,-1.312321],[36.8642117,-1.3124155],[36.8642078,-1.3124484],[36.8641955,-1.3124764],[36.8641716,-1.3127066],[36.8641937,-1.3129403],[36.8645271,-1.3128847],[36.8646345,-1.3128883],[36.8646657,-1.3128833],[36.8646815,-1.312888],[36.8646898,-1.3128925],[36.8647039,-1.3128965],[36.8647287,-1.3128909],[36.8647901,-1.3128989],[36.8647963,-1.3129007],[36.8648114,-1.3129056],[36.8648193,-1.3129078],[36.8648237,-1.312908],[36.8648289,-1.3129059],[36.8648373,-1.31291],[36.8648559,-1.3129235],[36.8651385,-1.3129478],[36.8654326,-1.3129733]]}},
{"type":"Feature","properties":{},"geometry":{"type":"LineString","coordinates":[[36.8666488,-1.3167549],[36.8667905,-1.3165589],[36.8668954,-1.3164001],[36.8669685,-1.3163541],[36.8669717,-1.316308],[36.867004,-1.316297],[36.867032,-1.3162865],[36.867051,-1.316191],[36.8670635,-1.3160085]]}},
{"type":"Feature","properties":{},"geometry":{"type":"LineString","coordinates":[[36.8631282,-1.3144337],[36.8630885,-1.3144062],[36.8630664,-1.3143835],[36.8630554,-1.314368],[36.8630466,-1.3143476]]}},
{"type":"Feature","properties":{},"geometry":{"type":"LineString","coordinates":[[36.8674095,-1.3113883],[36.86756110000001,-1.312099]]}},
{"type":"Feature","properties":{},"geometry":{"type":"LineString","coordinates":[[36.8706635,-1.330273],[36.8705883,-1.3296335]]}},
{"type":"Feature","properties":{},"geometry":{"type":"LineString","coordinates":[[36.8702184,-1.3124409],[36.8702884,-1.3122191]]}},
{"type":"Feature","properties":{},"geometry":{"type":"LineString","coordinates":[[36.8667975,-1.3127522],[36.866828,-1.3128216],[36.8668678,-1.3129071],[36.86688980000001,-1.3129452],[36.8669389,-1.3129858],[36.866999,-1.3130408],[36.8670338,-1.3130484],[36.8670913,-1.313023],[36.8671362,-1.3129765]]}},
{"type":"Feature","properties":{},"geometry":{"type":"LineString","coordinates":[[36.8639214,-1.3132047],[36.8640603,-1.3131688],[36.8640325,-1.3130538],[36.8641081,-1.3130091],[36.8641275,-1.312991],[36.8641464,-1.3129763],[36.8641937,-1.3129403]]}},
{"type":"Feature","properties":{},"geometry":{"type":"LineString","coordinates":[[36.8682557,-1.3112314],[36.8682795,-1.3115202],[36.8683057,-1.3115829],[36.8683155,-1.3117001],[36.8683389,-1.3118577],[36.8683508,-1.3119671]]}},
{"type":"Feature","properties":{},"geometry":{"type":"LineString","coordinates":[[36.8687776,-1.3110413],[36.8688046,-1.3110781],[36.8688123,-1.3111659],[36.8688133,-1.3112808],[36.8688113,-1.3113858],[36.8688106,-1.3115135]]}},
{"type":"Feature","properties":{},"geometry":{"type":"LineString","coordinates":[[36.8691884,-1.3109443],[36.869167,-1.3109708],[36.8691633,-1.3111947],[36.8691586,-1.3111991],[36.869156,-1.3112142],[36.8691454,-1.3112811],[36.8691073,-1.3113709]]}},
{"type":"Feature","properties":{},"geometry":{"type":"LineString","coordinates":[[36.8700226,-1.3107953],[36.8700257,-1.3108126],[36.8700438,-1.3110238],[36.8700468,-1.3110389],[36.8700474,-1.3110928],[36.8700454,-1.3111971],[36.870024,-1.3111964],[36.8700183,-1.3112727],[36.8700126,-1.3114035],[36.8699961,-1.3114531],[36.8699706,-1.3116047]]}},
{"type":"Feature","properties":{},"geometry":{"type":"LineString","coordinates":[[36.8723109,-1.3115809],[36.8722545,-1.3117758],[36.8722275,-1.3118708],[36.8722228,-1.3119192],[36.87222,-1.3119636]]}},
{"type":"Feature","properties":{},"geometry":{"type":"LineString","coordinates":[[36.8722545,-1.3117758],[36.8722978,-1.3117897],[36.8724427,-1.3118386],[36.8725624,-1.3118947],[36.8725921,-1.3118914],[36.8726529,-1.3119083],[36.8727519,-1.3119446],[36.8728541,-1.3119458],[36.8729826,-1.3119529]]}},
{"type":"Feature","properties":{},"geometry":{"type":"LineString","coordinates":[[36.8693531,-1.3109245],[36.8693621,-1.310939],[36.8693687,-1.3109584],[36.8693742,-1.3110077],[36.8693734,-1.3110223],[36.8693689,-1.3111196],[36.8693606,-1.3113199],[36.8693618,-1.311387],[36.8693494,-1.3114542],[36.8693417,-1.3115279],[36.8693316,-1.3115951],[36.8693039,-1.3117265]]}},
{"type":"Feature","properties":{},"geometry":{"type":"LineString","coordinates":[[36.869617,-1.3108639],[36.8696096,-1.3108897],[36.8696143,-1.3109152],[36.8696263,-1.3110308],[36.8695503,-1.3110378],[36.8695551,-1.3110848],[36.869565,-1.3111175],[36.8695714,-1.3111874],[36.8695774,-1.3111894],[36.8695819,-1.3112567],[36.8695657,-1.311386],[36.8695459,-1.3115381],[36.8695338,-1.3115529],[36.8695191,-1.3116984]]}},
{"type":"Feature","properties":{},"geometry":{"type":"LineString","coordinates":[[36.8707895,-1.3110552],[36.8705514,-1.311059],[36.8705414,-1.3110598],[36.8703761,-1.3110762],[36.8703847,-1.3111971],[36.8703933,-1.3112677],[36.8703867,-1.3112738],[36.8702731,-1.3112728],[36.870258,-1.3112775],[36.8701631,-1.3112755],[36.8700183,-1.3112727]]}},
{"type":"Feature","properties":{},"geometry":{"type":"LineString","coordinates":[[36.8705414,-1.3110598],[36.8705406,-1.3109816],[36.8706114,-1.3109827],[36.8706033,-1.310826],[36.8705916,-1.3106979]]}},
{"type":"Feature","properties":{},"geometry":{"type":"LineString","coordinates":[[36.8707895,-1.3110552],[36.8708136,-1.3110607],[36.8709061,-1.3110633],[36.8712177,-1.3110522],[36.871207,-1.310954],[36.8712875,-1.3109443],[36.8713341,-1.3109422],[36.8713669,-1.3109414],[36.8713693,-1.310893],[36.8717034,-1.3109041],[36.8717007,-1.3109162],[36.8717724,-1.3109176],[36.871771,-1.3109725],[36.8718462,-1.310974]]}},
{"type":"Feature","properties":{},"geometry":{"type":"LineString","coordinates":[[36.8712177,-1.3110522],[36.8712335,-1.3111701],[36.8712441,-1.3111818],[36.8712472,-1.3112572],[36.87124270000001,-1.3112747],[36.8712451,-1.3113211],[36.8712601,-1.3114684],[36.8712665,-1.3116372],[36.8712873,-1.3118215],[36.8713097,-1.3120552],[36.8713182,-1.3121291]]}},
{"type":"Feature","properties":{},"geometry":{"type":"LineString","coordinates":[[36.8707805,-1.3118015],[36.8709411,-1.3117976],[36.8710115,-1.3118065],[36.8710155,-1.3118608],[36.8710736,-1.3118542],[36.8710818,-1.3119402],[36.8710894,-1.3120185],[36.8711862,-1.3120014],[36.8712009,-1.3120679],[36.8713097,-1.3120552]]}},
{"type":"Feature","properties":{},"geometry":{"type":"LineString","coordinates":[[36.8707919,-1.3117241],[36.8706585,-1.3117238],[36.8705546,-1.311709],[36.8705532,-1.3117234],[36.8705458,-1.3117972],[36.8705265,-1.3119902],[36.870504,-1.3119898]]}},
{"type":"Feature","properties":{},"geometry":{"type":"LineString","coordinates":[[36.8759227,-1.3098833],[36.8759559,-1.310031],[36.8759606,-1.3100327],[36.8759658,-1.3100642],[36.8759715,-1.3100979],[36.8759723,-1.3101113],[36.8760004,-1.3102447],[36.8760392,-1.3104609],[36.8760694,-1.3106637],[36.8761039,-1.3108068],[36.8761342,-1.3110785],[36.8760263,-1.3110909],[36.8759737,-1.3111014],[36.8759628,-1.3110962],[36.8758905,-1.3111194],[36.8759422,-1.311274]]}},
{"type":"Feature","properties":{},"geometry":{"type":"LineString","coordinates":[[36.8777531,-1.3094833],[36.8778218,-1.3097437],[36.877844,-1.3098727],[36.8778622,-1.3099695],[36.8778651,-1.3099841],[36.8778653,-1.3099884],[36.8778656,-1.3099908],[36.8778643,-1.3099942],[36.8778621,-1.3099953],[36.8778491,-1.3099989],[36.8778194,-1.3100048],[36.8778111,-1.3100069],[36.8778094,-1.3100085],[36.8778087,-1.310012],[36.8778106,-1.3100197],[36.8778114,-1.3100236],[36.8778248,-1.3100816],[36.8777598,-1.3101016],[36.8778122,-1.3102933],[36.8777127,-1.3103239],[36.8777249,-1.3103725],[36.8778233,-1.3103462],[36.8778446,-1.310404],[36.8778703,-1.3104051]]}},
{"type":"Feature","properties":{},"geometry":{"type":"LineString","coordinates":[[36.8763158,-1.3097897],[36.8763205,-1.3097966],[36.8763299,-1.3098412],[36.87634,-1.3098831],[36.8763587,-1.3099655],[36.8764125,-1.3102345],[36.8764047,-1.3102421],[36.8764275,-1.3103178],[36.8764399,-1.3103849],[36.8764362,-1.3103892],[36.8764577,-1.3105237],[36.8764167,-1.3105558],[36.8764144,-1.3105986],[36.8764665,-1.3106793],[36.8764157,-1.3106865],[36.8764123,-1.3106938],[36.8764123,-1.3107592],[36.8763581,-1.310757],[36.8763546,-1.3108066],[36.8763883,-1.3108072],[36.8763907,-1.3108156],[36.8763914,-1.3108731],[36.8763927,-1.3108961],[36.8764121,-1.3109627],[36.876462,-1.3109443],[36.8764664,-1.3109559],[36.8765599,-1.3111778],[36.8765123,-1.3112587],[36.8765405,-1.3113262]]}},
{"type":"Feature","properties":{},"geometry":{"type":"LineString","coordinates":[[36.873485,-1.3105579],[36.873483,-1.3105746],[36.8735102,-1.3106889],[36.873538,-1.3107389],[36.8735452,-1.3109302],[36.8735442,-1.3109564],[36.8735518,-1.311024],[36.873555,-1.3111055],[36.8735633,-1.3111061],[36.8735645,-1.3111575],[36.8735722,-1.3111652],[36.8735655,-1.3113472],[36.8735574,-1.31155]]}},
{"type":"Feature","properties":{},"geometry":{"type":"LineString","coordinates":[[36.8730911,-1.3103675],[36.8730958,-1.3103916],[36.8731199,-1.3105254],[36.8731832,-1.3105101],[36.873198,-1.310589],[36.8731363,-1.3106034],[36.8731489,-1.3106638],[36.8731692,-1.3106895],[36.873214,-1.3106834],[36.8732278,-1.3107412],[36.8732648,-1.310755],[36.8733379,-1.3107533],[36.8733593,-1.3109031],[36.8733636,-1.3110457],[36.8733624,-1.3111126],[36.873351,-1.3111572],[36.8733541,-1.3112429],[36.8733315,-1.3113358],[36.8732837,-1.3113182],[36.8732705,-1.3113141],[36.8732146,-1.3112956],[36.8731721,-1.3112855],[36.8731521,-1.3113529],[36.8731568,-1.3113667],[36.873138,-1.3114495],[36.8731776,-1.3114615],[36.8731548,-1.311554],[36.8731028,-1.3115698],[36.8730589,-1.3117139],[36.8730321,-1.3117773],[36.8730146,-1.3118735],[36.8730073,-1.311885],[36.8729913,-1.3119096],[36.8729826,-1.3119529],[36.8729606,-1.3121665],[36.8730168,-1.3121683],[36.8730233,-1.3122482],[36.8730458,-1.3122509],[36.8732085,-1.3122664],[36.8732084,-1.3122822],[36.8732023,-1.3123412]]}},
{"type":"Feature","properties":{},"geometry":{"type":"LineString","coordinates":[[36.8732804,-1.3116115],[36.8732478,-1.3119045],[36.8732443,-1.3119537],[36.8732429,-1.3120004],[36.873241,-1.3120126],[36.8732327,-1.3120959],[36.873226,-1.3120986],[36.8732226,-1.312175],[36.8732763,-1.3121791],[36.8734075,-1.3121905],[36.8734113,-1.3121938],[36.8734067,-1.3122816],[36.8735885,-1.3122926],[36.8736603,-1.312289],[36.8736677,-1.3122913]]}},
{"type":"Feature","properties":{},"geometry":{"type":"LineString","coordinates":[[36.8734446,-1.3117064],[36.8734404,-1.3117374],[36.8734383,-1.311769],[36.8734311,-1.3118443],[36.873424,-1.3119805],[36.8734075,-1.3121905]]}},
{"type":"Feature","properties":{},"geometry":{"type":"LineString","coordinates":[[36.8741083,-1.3103792],[36.874064,-1.3103856],[36.8740589,-1.3104071],[36.874058,-1.310433],[36.8740268,-1.3104322],[36.8739625,-1.310455],[36.87393,-1.3104676],[36.873929,-1.3105456],[36.873921,-1.3105996],[36.8739093,-1.3106597],[36.8738996,-1.3108044],[36.873839,-1.3108009],[36.8738413,-1.3108648],[36.87383,-1.3108698],[36.873825,-1.3109589],[36.8737672,-1.3109599],[36.873767,-1.3109526],[36.8736919,-1.3109497],[36.8736787,-1.3110571],[36.8736821,-1.3111632],[36.8736763,-1.3113528],[36.8736674,-1.3116272],[36.8736721,-1.311636],[36.873671,-1.3116776],[36.8736865,-1.3116925],[36.8736755,-1.3117939],[36.8736656,-1.31221],[36.8736677,-1.3122913],[36.873658,-1.3123947],[36.873647,-1.312457],[36.8736346,-1.312564],[36.8736386,-1.3125972],[36.8736526,-1.3126955]]}},
{"type":"Feature","properties":{},"geometry":{"type":"LineString","coordinates":[[36.8770448,-1.3096439],[36.8770789,-1.3098332],[36.8770846,-1.3098486],[36.877091900000011,-1.309855],[36.8772861,-1.3098137],[36.877302,-1.3098153],[36.8773033,-1.309882],[36.8771525,-1.3099362],[36.877109,-1.309949],[36.877141,-1.3100863],[36.8770459,-1.310111],[36.8770577,-1.3101764],[36.877051,-1.3101986],[36.8771327,-1.3105896]]}},
{"type":"Feature","properties":{},"geometry":{"type":"LineString","coordinates":[[36.8772733,-1.3096009],[36.8773008,-1.309732],[36.8773022,-1.3097496],[36.8773092,-1.3098],[36.877302,-1.3098153],[36.877306,-1.3098334],[36.8773191,-1.3099125],[36.8773367,-1.3099626],[36.8773418,-1.3099737],[36.8773778,-1.3101141],[36.8773841,-1.3101215],[36.8774025,-1.3101901]]}},
{"type":"Feature","properties":{},"geometry":{"type":"LineString","coordinates":[[36.8760082,-1.3098571],[36.8760323,-1.3099388],[36.8760598,-1.3100799],[36.8760861,-1.3102267],[36.8760355,-1.3102379],[36.8760004,-1.3102447]]}},
{"type":"Feature","properties":{},"geometry":{"type":"LineString","coordinates":[[36.8642117,-1.3124155],[36.8643146,-1.3124178],[36.864472,-1.312416],[36.8644748,-1.3124225],[36.8645496,-1.3124304],[36.8646197,-1.3124389],[36.8646208,-1.3125015],[36.8645737,-1.3125107],[36.8645736,-1.3125549],[36.8645736,-1.3126006],[36.8646219,-1.3126004],[36.8646237,-1.3126367],[36.8645,-1.3126447],[36.8645143,-1.3128165],[36.8647142,-1.312758],[36.8647135,-1.3127882],[36.8647122,-1.3128355],[36.8647109,-1.3128918],[36.8646815,-1.312888]]}},
{"type":"Feature","properties":{},"geometry":{"type":"LineString","coordinates":[[36.8645496,-1.3124304],[36.8645482,-1.312418],[36.864547,-1.3122488],[36.8644416,-1.3118584]]}},
{"type":"Feature","properties":{},"geometry":{"type":"LineString","coordinates":[[36.875261,-1.3100186],[36.8753053,-1.3100289],[36.8753193,-1.310092],[36.8753379,-1.3101875],[36.8753583,-1.3103311],[36.8753645,-1.3103698],[36.8753818,-1.3104997],[36.8754052,-1.31064],[36.8754224,-1.3107887],[36.8754319,-1.3108641],[36.8754512,-1.3109396],[36.8754527,-1.3110008],[36.8754539,-1.3110169],[36.8754541,-1.3110272],[36.8754553,-1.3110392],[36.8754649,-1.311111],[36.8754783,-1.3111857],[36.8754875,-1.3112236],[36.8755042,-1.3112569],[36.8755101,-1.3112901],[36.8755201,-1.3113248],[36.8755282,-1.3113808],[36.87553290000001,-1.3114578],[36.875557,-1.3115494],[36.8755874,-1.3116712],[36.8755808,-1.311932]]}},
{"type":"Feature","properties":{},"geometry":{"type":"LineString","coordinates":[[36.8744352,-1.3114399],[36.874471,-1.3114413],[36.8745161,-1.3114335],[36.8745535,-1.3114249],[36.8745693,-1.3114162],[36.8746247,-1.3114054],[36.874647,-1.3114054],[36.8746576,-1.3114047],[36.8746608,-1.3114055],[36.8746599,-1.311419],[36.874662,-1.3114278],[36.8746685,-1.3114298],[36.8746745,-1.3114274],[36.8747682,-1.3114164],[36.8747732,-1.3114154],[36.8747758,-1.3114622],[36.8748476,-1.3114521],[36.8748756,-1.3114481],[36.8748818,-1.3114476],[36.874888,-1.311457],[36.8748936,-1.3115246],[36.8749024,-1.3115239],[36.8749242,-1.31152],[36.8749285,-1.311527],[36.8750241,-1.3115069],[36.8750794,-1.3114939],[36.8751029,-1.3114882]]}},
{"type":"Feature","properties":{},"geometry":{"type":"LineString","coordinates":[[36.873946,-1.3117315],[36.8739425,-1.3117805],[36.8739391,-1.3119015],[36.8739495,-1.3119706],[36.8739452,-1.3119977],[36.8739492,-1.3120577],[36.8739482,-1.3121274],[36.8739468,-1.3121339],[36.873945,-1.3121391],[36.8739492,-1.3122233],[36.8739494,-1.3123081]]}},
{"type":"Feature","properties":{},"geometry":{"type":"LineString","coordinates":[[36.8760004,-1.3102447],[36.8758851,-1.310279],[36.8757237,-1.3103121],[36.8757024,-1.3103151],[36.875679,-1.3103112],[36.8756156,-1.310323],[36.8755384,-1.3103353],[36.8753645,-1.3103698]]}},
{"type":"Feature","properties":{},"geometry":{"type":"LineString","coordinates":[[36.8641955,-1.3124764],[36.864155,-1.3124661],[36.8639982,-1.312513],[36.8639598,-1.3125301],[36.8639469,-1.3125323],[36.863869,-1.3125623],[36.86378,-1.3127049],[36.8637852,-1.3127306],[36.8637972,-1.312754],[36.863817,-1.3128355],[36.8638476,-1.3129557],[36.863787,-1.3129721],[36.8638068,-1.3130426],[36.8640081,-1.3129887],[36.8641275,-1.312991]]}},
{"type":"Feature","properties":{},"geometry":{"type":"LineString","coordinates":[[36.8688613,-1.311003],[36.8688542,-1.3107506],[36.8688508,-1.3106832],[36.8688421,-1.3105817],[36.8688341,-1.3105639],[36.868818,-1.3105391],[36.8687935,-1.3105287],[36.8687038,-1.3105289]]}},
{"type":"Feature","properties":{},"geometry":{"type":"LineString","coordinates":[[36.8814571,-1.3157315],[36.8813667,-1.3156283],[36.8812324,-1.3154935]]}},
{"type":"Feature","properties":{},"geometry":{"type":"LineString","coordinates":[[36.8815139,-1.3172544],[36.8815199,-1.3172605],[36.8815508,-1.3172801],[36.8816312,-1.3173339]]}},
{"type":"Feature","properties":{},"geometry":{"type":"LineString","coordinates":[[36.8815176,-1.3174845],[36.8814747,-1.3174634],[36.8814665,-1.3174629],[36.8814266,-1.3175587],[36.8813779,-1.3176439],[36.8813348,-1.3176883],[36.8812956,-1.3177288],[36.8812278,-1.3178166],[36.8811286,-1.3179219]]}},
{"type":"Feature","properties":{},"geometry":{"type":"LineString","coordinates":[[36.8816312,-1.3173339],[36.881615,-1.3173846],[36.8815902,-1.3174178],[36.8815732,-1.3174282],[36.8815679,-1.3174453],[36.8815176,-1.3174845]]}},
{"type":"Feature","properties":{},"geometry":{"type":"LineString","coordinates":[[36.8808074,-1.3142565],[36.8810617,-1.3141526],[36.8816038,-1.3139292],[36.8817787,-1.3138803],[36.8819051,-1.3138453],[36.8820282,-1.3138302],[36.8821026,-1.3138823],[36.882168,-1.3138322]]}},
{"type":"Feature","properties":{},"geometry":{"type":"LineString","coordinates":[[36.8814284,-1.3202635],[36.8813653,-1.3202108],[36.8813326,-1.3201847],[36.8812866,-1.3201454],[36.8812387,-1.3201016],[36.8812173,-1.3200825],[36.881213,-1.3200497],[36.8812901,-1.3199457],[36.88136,-1.3198428],[36.8814188,-1.3197815],[36.8814617,-1.3197319],[36.8814996,-1.3196869],[36.8815589,-1.3196152],[36.8816556,-1.3194905],[36.8817472,-1.3193644],[36.8819082,-1.3191893],[36.8820552,-1.3190455]]}},
{"type":"Feature","properties":{},"geometry":{"type":"LineString","coordinates":[[36.8802016,-1.3126881],[36.8801492,-1.3126836],[36.880123,-1.3126808],[36.8799998,-1.312876]]}},
{"type":"Feature","properties":{},"geometry":{"type":"LineString","coordinates":[[36.8794359,-1.3134022],[36.8794519,-1.3134053],[36.8794768,-1.3134096],[36.8794979,-1.313406],[36.8796471,-1.3132414],[36.8796608,-1.31323],[36.8797567,-1.313165],[36.8797698,-1.3131519],[36.8799998,-1.312876]]}},
{"type":"Feature","properties":{},"geometry":{"type":"LineString","coordinates":[[36.8741935,-1.3192667],[36.8745161,-1.3195139]]}},
{"type":"Feature","properties":{},"geometry":{"type":"LineString","coordinates":[[36.8700099,-1.3130027],[36.8700444,-1.3129823],[36.8700746,-1.3129692],[36.8701313,-1.312831],[36.8701738,-1.3128266],[36.8701929,-1.3128323],[36.870201,-1.3128371],[36.8702235,-1.3128593],[36.8703182,-1.3128727],[36.8704163,-1.3128902],[36.8704804,-1.3129045],[36.8705545,-1.3129102],[36.8706741,-1.3129234],[36.8707003,-1.3129181],[36.8707651,-1.3129097],[36.8708594,-1.312918],[36.8709604,-1.3129146],[36.8711029,-1.3129341],[36.8713333,-1.3129713],[36.871546,-1.3130011]]}},
{"type":"Feature","properties":{},"geometry":{"type":"LineString","coordinates":[[36.8749533,-1.3151078],[36.8747343,-1.3149418],[36.8743231,-1.3146665],[36.8736842,-1.3142242]]}},
{"type":"Feature","properties":{},"geometry":{"type":"LineString","coordinates":[[36.8738229,-1.3139347],[36.8741566,-1.3141245],[36.8744356,-1.3143205],[36.8746544,-1.3144768],[36.8750525,-1.3147363],[36.8751546,-1.3148054]]}},
{"type":"Feature","properties":{},"geometry":{"type":"LineString","coordinates":[[36.8773031,-1.3138375],[36.8773622,-1.3137563],[36.8774614,-1.3135989],[36.8776062,-1.3133575],[36.8776138,-1.3132274],[36.8776148,-1.3131152],[36.8776226,-1.3130577],[36.877617,-1.3130303],[36.8775794,-1.3130089],[36.8775043,-1.3129821],[36.8774346,-1.3129284],[36.8773648,-1.3127514],[36.8773024,-1.3126014],[36.8770658,-1.312172],[36.8768715,-1.3118542]]}},
{"type":"Feature","properties":{},"geometry":{"type":"LineString","coordinates":[[36.8664964,-1.3295704],[36.8671796,-1.3294817]]}},
{"type":"Feature","properties":{},"geometry":{"type":"LineString","coordinates":[[36.8674398,-1.3294508],[36.8676647,-1.3294222]]}},
{"type":"Feature","properties":{},"geometry":{"type":"LineString","coordinates":[[36.8677596,-1.3294012],[36.8683308,-1.3293219]]}},
{"type":"Feature","properties":{},"geometry":{"type":"LineString","coordinates":[[36.8684521,-1.3293086],[36.868677,-1.32928]]}},
{"type":"Feature","properties":{},"geometry":{"type":"LineString","coordinates":[[36.8656732,-1.3296857],[36.8664964,-1.3295704]]}},
{"type":"Feature","properties":{},"geometry":{"type":"LineString","coordinates":[[36.8762195,-1.3126296],[36.8763292,-1.3125461],[36.8763971,-1.3124946],[36.8764166,-1.3124723],[36.8765008,-1.3124172],[36.8765664,-1.3123751],[36.8766028,-1.3123431],[36.8767403,-1.3122517],[36.8767569,-1.3122489],[36.8767733,-1.3122468],[36.8767943,-1.3122399],[36.8769071,-1.3121771]]}},
{"type":"Feature","properties":{},"geometry":{"type":"LineString","coordinates":[[36.8695872,-1.3166033],[36.8692111,-1.3172909]]}},
{"type":"Feature","properties":{},"geometry":{"type":"LineString","coordinates":[[36.8798489,-1.3284937],[36.8799395,-1.3290615]]}},
{"type":"Feature","properties":{},"geometry":{"type":"LineString","coordinates":[[36.8798489,-1.3284937],[36.8795901,-1.3285941]]}},
{"type":"Feature","properties":{},"geometry":{"type":"LineString","coordinates":[[36.8798489,-1.3284937],[36.8800637,-1.3285125]]}},
{"type":"Feature","properties":{},"geometry":{"type":"LineString","coordinates":[[36.8799395,-1.3290615],[36.8802199,-1.3289191]]}},
{"type":"Feature","properties":{},"geometry":{"type":"LineString","coordinates":[[36.8799395,-1.3290615],[36.8796599,-1.3289814]]}},
{"type":"Feature","properties":{},"geometry":{"type":"LineString","coordinates":[[36.8705883,-1.3296335],[36.87096240000001,-1.3295968]]}},
{"type":"Feature","properties":{},"geometry":{"type":"LineString","coordinates":[[36.8780893,-1.3287912],[36.8779466,-1.3287331],[36.8779238,-1.3287304],[36.8777347,-1.3287398],[36.8776005,-1.3287478],[36.8774021,-1.3287559],[36.8770909,-1.3287813],[36.8769246,-1.3287947],[36.8767577,-1.3288041],[36.8766041,-1.3288068],[36.8764539,-1.3288041],[36.8762152,-1.3287988],[36.8760006,-1.3287934]]}},
{"type":"Feature","properties":{},"geometry":{"type":"LineString","coordinates":[[36.8706307,-1.314263],[36.8706419,-1.3141876],[36.8706618,-1.3141117]]}},
{"type":"Feature","properties":{},"geometry":{"type":"LineString","coordinates":[[36.8702884,-1.3122191],[36.8704814,-1.3120112],[36.870504,-1.3119898]]}},
{"type":"Feature","properties":{},"geometry":{"type":"LineString","coordinates":[[36.8706618,-1.3141117],[36.8706869,-1.3140178]]}},
{"type":"Feature","properties":{},"geometry":{"type":"LineString","coordinates":[[36.875153,-1.3287907],[36.8751483,-1.3287391],[36.8751336,-1.3286948],[36.8749566,-1.3284508],[36.8749183,-1.32842],[36.8747366,-1.3281404],[36.874683,-1.3280084],[36.8745267,-1.3278327],[36.8743832,-1.327637],[36.8743739,-1.3275814],[36.8742699,-1.3273501],[36.8741593,-1.3272046],[36.8740406,-1.3269881],[36.8739809,-1.3268372],[36.8739031,-1.3266938],[36.8738354,-1.3265557],[36.8737952,-1.3264042]]}},
{"type":"Feature","properties":{},"geometry":{"type":"LineString","coordinates":[[36.8709768,-1.3296416],[36.8710747,-1.3296166],[36.8711592,-1.3296126],[36.8712464,-1.3295724],[36.871646,-1.3295093],[36.8717681,-1.329508],[36.8718861,-1.3294664],[36.8720444,-1.3294329],[36.8721087,-1.3294075],[36.8721892,-1.3294155],[36.872385,-1.3294142],[36.8724614,-1.3294289],[36.8725473,-1.3294289],[36.8726425,-1.3293847],[36.8728195,-1.3293538],[36.8731172,-1.3293123],[36.8735316,-1.3292492],[36.8736349,-1.3292452],[36.87371,-1.3292171],[36.8737972,-1.3291889],[36.874005,-1.3291272],[36.874107,-1.3291138],[36.8742089,-1.3290937],[36.8744704,-1.3290119],[36.8746494,-1.3289554],[36.8746855,-1.328941],[36.874696,-1.3289356],[36.8748768,-1.3288765],[36.875153,-1.3287907],[36.8752442,-1.3288376],[36.8753649,-1.3288966],[36.87544,-1.3288939],[36.8755352,-1.3288859],[36.8757351,-1.328843],[36.8758853,-1.3288135],[36.8760006,-1.3287934]]}},
{"type":"Feature","properties":{},"geometry":{"type":"LineString","coordinates":[[36.87096240000001,-1.3295968],[36.8709768,-1.3296416],[36.8710141,-1.3297574]]}},
{"type":"Feature","properties":{},"geometry":{"type":"LineString","coordinates":[[36.8743832,-1.327637],[36.8743215,-1.3275693],[36.8742934,-1.3274942],[36.874227,-1.3273668],[36.8741465,-1.3272733],[36.8741593,-1.3272046]]}},
{"type":"Feature","properties":{},"geometry":{"type":"LineString","coordinates":[[36.8751029,-1.3114882],[36.8751129,-1.3114915],[36.8751207,-1.3115036],[36.8751314,-1.3115545],[36.8751679,-1.3117503]]}},
{"type":"Feature","properties":{},"geometry":{"type":"LineString","coordinates":[[36.8817724,-1.3186947],[36.8816774,-1.3185743],[36.8815787,-1.3184419],[36.8815355,-1.3184162],[36.8813503,-1.3186],[36.8807188,-1.3193692],[36.8806514,-1.3194514]]}}
]
}
