{
"type": "FeatureCollection",
"name": "desire_lines_KEN.30.6_1_80",
"crs": { "type": "name", "properties": { "name": "urn:ogc:def:crs:OGC:1.3:CRS84" } },
"features": [
{"type":"Feature","properties":{},"geometry":{"type":"LineString","coordinates":[[36.8820552,-1.3190455],[36.8820283,-1.3189945],[36.8820421,-1.3189667],[36.8819329,-1.3188921],[36.881927,-1.3188652],[36.8819132,-1.3188391],[36.8818798,-1.3188012],[36.8818132,-1.3187211],[36.8817832,-1.3187104],[36.8817724,-1.3186947],[36.8810441,-1.3196211],[36.8809464,-1.3197453],[36.8809447,-1.3197475],[36.8809271,-1.3197623],[36.8809124,-1.3197761],[36.8807033,-1.3195977],[36.8806836,-1.3195839],[36.8806607,-1.3195629],[36.8805722,-1.3196357],[36.8805291,-1.3196798],[36.8804821,-1.3196996],[36.8804192,-1.3197806]]}},
{"type":"Feature","properties":{},"geometry":{"type":"LineString","coordinates":[[36.8799998,-1.312876],[36.8801064,-1.3126247],[36.8801735,-1.3125499],[36.8802122,-1.3124906],[36.8802401,-1.3124489],[36.8802751,-1.3123837],[36.8803067,-1.3123482],[36.8803255,-1.3123266],[36.8803437,-1.3123041],[36.880368,-1.3122662],[36.8804028,-1.3122066],[36.8804563,-1.3121206],[36.880493,-1.3120851],[36.8805522,-1.3119795],[36.8805404,-1.3119421],[36.8805266,-1.3118896],[36.8805284,-1.3118266],[36.8805492,-1.3117706],[36.8806332,-1.3116443],[36.880686,-1.3115546],[36.8807568,-1.3114563]]}},
{"type":"Feature","properties":{},"geometry":{"type":"LineString","coordinates":[[36.8807568,-1.3114563],[36.8808074,-1.3113715],[36.880872,-1.3112856],[36.8809278,-1.3112056],[36.8809737,-1.3111367],[36.8810111,-1.3110801],[36.8810817,-1.3109662],[36.8811083,-1.3109197],[36.8811467,-1.310854],[36.8811847,-1.3108086],[36.8812284,-1.310752],[36.8812666,-1.3106946],[36.8813074,-1.3106549],[36.88136,-1.3106418],[36.8815207,-1.3106087]]}},
{"type":"Feature","properties":{},"geometry":{"type":"LineString","coordinates":[[36.879845,-1.3169726],[36.879628,-1.3169153],[36.8794,-1.3168968],[36.8792722,-1.3168053],[36.8791422,-1.316752],[36.8790564,-1.3166903],[36.8789284,-1.316589],[36.8788254,-1.3164723],[36.8787753,-1.3164464],[36.8785997,-1.3165426],[36.8785611,-1.3165801],[36.8784727,-1.31662],[36.878257,-1.3167099],[36.8782051,-1.3167029],[36.8781822,-1.3166974],[36.8781621,-1.3167091]]}},
{"type":"Feature","properties":{},"geometry":{"type":"LineString","coordinates":[[36.8822025,-1.3111269],[36.8821699,-1.3111651],[36.8821481,-1.3111512],[36.8821176,-1.3111315],[36.8821059,-1.3111427],[36.8820943,-1.3111465],[36.8820674,-1.3111454],[36.8820071,-1.3111245],[36.8819237,-1.3111121],[36.881876,-1.3111095],[36.8818486,-1.3111189],[36.8818246,-1.3111154],[36.881787,-1.3111142],[36.8817346,-1.3111152],[36.8816805,-1.3110566],[36.8815229,-1.3109722]]}},
{"type":"Feature","properties":{},"geometry":{"type":"LineString","coordinates":[[36.8837788,-1.3171508],[36.8839813,-1.3170637],[36.8840717,-1.3169619],[36.8841335,-1.3169079],[36.8842195,-1.3168584],[36.8843335,-1.3167961],[36.8844858,-1.3167057],[36.8846866,-1.3166171]]}},
{"type":"Feature","properties":{},"geometry":{"type":"LineString","coordinates":[[36.8838979,-1.3151884],[36.8839195,-1.3151805],[36.8839195,-1.3151686],[36.8838925,-1.3151068],[36.8839246,-1.3150939],[36.8839143,-1.3150699],[36.8838914,-1.3150075],[36.8838709,-1.3149384],[36.883859,-1.3149011],[36.8838523,-1.3148615],[36.8836634,-1.3143052],[36.8840614,-1.3141652],[36.8844076,-1.3140052]]}},
{"type":"Feature","properties":{},"geometry":{"type":"LineString","coordinates":[[36.8869489,-1.3193814],[36.8868747,-1.3190512],[36.8868713,-1.3190354]]}},
{"type":"Feature","properties":{},"geometry":{"type":"LineString","coordinates":[[36.8787753,-1.3164464],[36.8786787,-1.3163538],[36.8786099,-1.3162763],[36.8785813,-1.3162441],[36.8784626,-1.3161288]]}},
{"type":"Feature","properties":{},"geometry":{"type":"LineString","coordinates":[[36.881818,-1.3149869],[36.8815318,-1.3146458]]}},
{"type":"Feature","properties":{},"geometry":{"type":"LineString","coordinates":[[36.8829894,-1.3158525],[36.8829719,-1.3158619],[36.8829737,-1.3159463],[36.8829642,-1.3160502],[36.8829181,-1.3161426],[36.8828524,-1.3161951],[36.8827985,-1.3162453],[36.8827392,-1.3163095],[36.8826709,-1.3163947],[36.8825671,-1.316497],[36.8824151,-1.3166442],[36.8823582,-1.3167117],[36.882183,-1.3168922],[36.882057,-1.317027],[36.881909,-1.3171529],[36.8817271,-1.3173292],[36.8816312,-1.3173339]]}},
{"type":"Feature","properties":{},"geometry":{"type":"LineString","coordinates":[[36.8739876,-1.313529],[36.8738662,-1.3137787],[36.8738524,-1.3138347],[36.8738229,-1.3139347],[36.8738182,-1.3139547],[36.8737986,-1.314013],[36.8737513,-1.3140911],[36.8737126,-1.3141678],[36.8736842,-1.3142242],[36.8736567,-1.3142806],[36.8735243,-1.3145312],[36.8735249,-1.3145494],[36.8735276,-1.3145627],[36.873648,-1.31466],[36.87369180000001,-1.3147136],[36.8737206,-1.314742]]}},
{"type":"Feature","properties":{},"geometry":{"type":"LineString","coordinates":[[36.8844858,-1.3167057],[36.8840861,-1.3160307]]}},
{"type":"Feature","properties":{},"geometry":{"type":"LineString","coordinates":[[36.8825895,-1.3207275],[36.883036,-1.3203246],[36.8833423,-1.3200846],[36.8836429,-1.3198573],[36.8838874,-1.3196607],[36.8839612,-1.3195969],[36.8840588,-1.3194465],[36.8842047,-1.3192809],[36.8842656,-1.3192118],[36.8845819,-1.3188656],[36.8846699,-1.3188105]]}},
{"type":"Feature","properties":{},"geometry":{"type":"LineString","coordinates":[[36.8843417,-1.3201182],[36.8842386,-1.3199539],[36.8839612,-1.3195969]]}},
{"type":"Feature","properties":{},"geometry":{"type":"LineString","coordinates":[[36.8850353,-1.3147035],[36.8854541,-1.3144662]]}},
{"type":"Feature","properties":{},"geometry":{"type":"LineString","coordinates":[[36.8862643,-1.3208552],[36.8862694,-1.3208431],[36.8864611,-1.3207485],[36.8867106,-1.3206314],[36.8869616,-1.3204851],[36.8872805,-1.3203528],[36.8874888,-1.3202477],[36.8876261,-1.3201761],[36.8876395,-1.3201696],[36.8877661,-1.3200893],[36.8879319,-1.3200161],[36.888184,-1.3198807]]}},
{"type":"Feature","properties":{},"geometry":{"type":"LineString","coordinates":[[36.8722545,-1.3117758],[36.8722978,-1.3117897],[36.8724427,-1.3118386],[36.8725624,-1.3118947],[36.8725921,-1.3118914],[36.8726529,-1.3119083],[36.8727519,-1.3119446],[36.8728541,-1.3119458],[36.8729826,-1.3119529]]}},
{"type":"Feature","properties":{},"geometry":{"type":"LineString","coordinates":[[36.8791193,-1.309253],[36.8791225,-1.3092803],[36.8791308,-1.3093187],[36.8791401,-1.3093736],[36.8791814,-1.3094397],[36.879239,-1.3096361],[36.8792471,-1.3096779],[36.879293,-1.3098474]]}},
{"type":"Feature","properties":{},"geometry":{"type":"LineString","coordinates":[[36.8787963,-1.3093176],[36.8788222,-1.3094395],[36.8788236,-1.3094424],[36.8788268,-1.3094435],[36.8788561,-1.3094444],[36.8788578,-1.3094453],[36.8788591,-1.3094477],[36.8788651,-1.3096023],[36.878865,-1.3096639],[36.8788669,-1.3096841],[36.8788697,-1.309686],[36.8789122,-1.3097039],[36.8789214,-1.3097404],[36.8789491,-1.3097427],[36.8789513,-1.3097628]]}},
{"type":"Feature","properties":{},"geometry":{"type":"LineString","coordinates":[[36.8823818,-1.3080701],[36.8823839,-1.3081083],[36.8824463,-1.308156],[36.8823992,-1.3082227],[36.8824255,-1.3082404],[36.8823527,-1.3083342],[36.8824201,-1.3084033],[36.8824416,-1.3084418],[36.8824634,-1.3084703],[36.8824808,-1.308483],[36.8827437,-1.3086982]]}},
{"type":"Feature","properties":{},"geometry":{"type":"LineString","coordinates":[[36.8759227,-1.3098833],[36.8759559,-1.310031],[36.8759606,-1.3100327],[36.8759658,-1.3100642],[36.8759715,-1.3100979],[36.8759723,-1.3101113],[36.8760004,-1.3102447],[36.8760392,-1.3104609],[36.8760694,-1.3106637],[36.8761039,-1.3108068],[36.8761342,-1.3110785],[36.8760263,-1.3110909],[36.8759737,-1.3111014],[36.8759628,-1.3110962],[36.8758905,-1.3111194],[36.8759422,-1.311274]]}},
{"type":"Feature","properties":{},"geometry":{"type":"LineString","coordinates":[[36.8777531,-1.3094833],[36.8778218,-1.3097437],[36.877844,-1.3098727],[36.8778622,-1.3099695],[36.8778651,-1.3099841],[36.8778653,-1.3099884],[36.8778656,-1.3099908],[36.8778643,-1.3099942],[36.8778621,-1.3099953],[36.8778491,-1.3099989],[36.8778194,-1.3100048],[36.8778111,-1.3100069],[36.8778094,-1.3100085],[36.8778087,-1.310012],[36.8778106,-1.3100197],[36.8778114,-1.3100236],[36.8778248,-1.3100816],[36.8777598,-1.3101016],[36.8778122,-1.3102933],[36.8777127,-1.3103239],[36.8777249,-1.3103725],[36.8778233,-1.3103462],[36.8778446,-1.310404],[36.8778703,-1.3104051]]}},
{"type":"Feature","properties":{},"geometry":{"type":"LineString","coordinates":[[36.8763158,-1.3097897],[36.8763205,-1.3097966],[36.8763299,-1.3098412],[36.87634,-1.3098831],[36.8763587,-1.3099655],[36.8764125,-1.3102345],[36.8764047,-1.3102421],[36.8764275,-1.3103178],[36.8764399,-1.3103849],[36.8764362,-1.3103892],[36.8764577,-1.3105237],[36.8764167,-1.3105558],[36.8764144,-1.3105986],[36.8764665,-1.3106793],[36.8764157,-1.3106865],[36.8764123,-1.3106938],[36.8764123,-1.3107592],[36.8763581,-1.310757],[36.8763546,-1.3108066],[36.8763883,-1.3108072],[36.8763907,-1.3108156],[36.8763914,-1.3108731],[36.8763927,-1.3108961],[36.8764121,-1.3109627],[36.876462,-1.3109443],[36.8764664,-1.3109559],[36.8765599,-1.3111778],[36.8765123,-1.3112587],[36.8765405,-1.3113262]]}},
{"type":"Feature","properties":{},"geometry":{"type":"LineString","coordinates":[[36.873485,-1.3105579],[36.873483,-1.3105746],[36.8735102,-1.3106889],[36.873538,-1.3107389],[36.8735452,-1.3109302],[36.8735442,-1.3109564],[36.8735518,-1.311024],[36.873555,-1.3111055],[36.8735633,-1.3111061],[36.8735645,-1.3111575],[36.8735722,-1.3111652],[36.8735655,-1.3113472],[36.8735574,-1.31155]]}},
{"type":"Feature","properties":{},"geometry":{"type":"LineString","coordinates":[[36.8730911,-1.3103675],[36.8730958,-1.3103916],[36.8731199,-1.3105254],[36.8731832,-1.3105101],[36.873198,-1.310589],[36.8731363,-1.3106034],[36.8731489,-1.3106638],[36.8731692,-1.3106895],[36.873214,-1.3106834],[36.8732278,-1.3107412],[36.8732648,-1.310755],[36.8733379,-1.3107533],[36.8733593,-1.3109031],[36.8733636,-1.3110457],[36.8733624,-1.3111126],[36.873351,-1.3111572],[36.8733541,-1.3112429],[36.8733315,-1.3113358],[36.8732837,-1.3113182],[36.8732705,-1.3113141],[36.8732146,-1.3112956],[36.8731721,-1.3112855],[36.8731521,-1.3113529],[36.8731568,-1.3113667],[36.873138,-1.3114495],[36.8731776,-1.3114615],[36.8731548,-1.311554],[36.8731028,-1.3115698],[36.8730589,-1.3117139],[36.8730321,-1.3117773],[36.8730146,-1.3118735],[36.8730073,-1.311885],[36.8729913,-1.3119096],[36.8729826,-1.3119529],[36.8729606,-1.3121665],[36.8730168,-1.3121683],[36.8730233,-1.3122482],[36.8730458,-1.3122509],[36.8732085,-1.3122664],[36.8732084,-1.3122822],[36.8732023,-1.3123412]]}},
{"type":"Feature","properties":{},"geometry":{"type":"LineString","coordinates":[[36.8732804,-1.3116115],[36.8732478,-1.3119045],[36.8732443,-1.3119537],[36.8732429,-1.3120004],[36.873241,-1.3120126],[36.8732327,-1.3120959],[36.873226,-1.3120986],[36.8732226,-1.312175],[36.8732763,-1.3121791],[36.8734075,-1.3121905],[36.8734113,-1.3121938],[36.8734067,-1.3122816],[36.8735885,-1.3122926],[36.8736603,-1.312289],[36.8736677,-1.3122913]]}},
{"type":"Feature","properties":{},"geometry":{"type":"LineString","coordinates":[[36.8734446,-1.3117064],[36.8734404,-1.3117374],[36.8734383,-1.311769],[36.8734311,-1.3118443],[36.873424,-1.3119805],[36.8734075,-1.3121905]]}},
{"type":"Feature","properties":{},"geometry":{"type":"LineString","coordinates":[[36.8741083,-1.3103792],[36.874064,-1.3103856],[36.8740589,-1.3104071],[36.874058,-1.310433],[36.8740268,-1.3104322],[36.8739625,-1.310455],[36.87393,-1.3104676],[36.873929,-1.3105456],[36.873921,-1.3105996],[36.8739093,-1.3106597],[36.8738996,-1.3108044],[36.873839,-1.3108009],[36.8738413,-1.3108648],[36.87383,-1.3108698],[36.873825,-1.3109589],[36.8737672,-1.3109599],[36.873767,-1.3109526],[36.8736919,-1.3109497],[36.8736787,-1.3110571],[36.8736821,-1.3111632],[36.8736763,-1.3113528],[36.8736674,-1.3116272],[36.8736721,-1.311636],[36.873671,-1.3116776],[36.8736865,-1.3116925],[36.8736755,-1.3117939],[36.8736656,-1.31221],[36.8736677,-1.3122913],[36.873658,-1.3123947],[36.873647,-1.312457],[36.8736346,-1.312564],[36.8736386,-1.3125972],[36.8736526,-1.3126955]]}},
{"type":"Feature","properties":{},"geometry":{"type":"LineString","coordinates":[[36.8770448,-1.3096439],[36.8770789,-1.3098332],[36.8770846,-1.3098486],[36.877091900000011,-1.309855],[36.8772861,-1.3098137],[36.877302,-1.3098153],[36.8773033,-1.309882],[36.8771525,-1.3099362],[36.877109,-1.309949],[36.877141,-1.3100863],[36.8770459,-1.310111],[36.8770577,-1.3101764],[36.877051,-1.3101986],[36.8771327,-1.3105896]]}},
{"type":"Feature","properties":{},"geometry":{"type":"LineString","coordinates":[[36.8772733,-1.3096009],[36.8773008,-1.309732],[36.8773022,-1.3097496],[36.8773092,-1.3098],[36.877302,-1.3098153],[36.877306,-1.3098334],[36.8773191,-1.3099125],[36.8773367,-1.3099626],[36.8773418,-1.3099737],[36.8773778,-1.3101141],[36.8773841,-1.3101215],[36.8774025,-1.3101901]]}},
{"type":"Feature","properties":{},"geometry":{"type":"LineString","coordinates":[[36.8760082,-1.3098571],[36.8760323,-1.3099388],[36.8760598,-1.3100799],[36.8760861,-1.3102267],[36.8760355,-1.3102379],[36.8760004,-1.3102447]]}},
{"type":"Feature","properties":{},"geometry":{"type":"LineString","coordinates":[[36.8766268,-1.3097265],[36.8766451,-1.3098644],[36.8766456,-1.3098853],[36.876653,-1.3099306],[36.876655,-1.3099381],[36.8766567,-1.3099458],[36.8766682,-1.3099466],[36.8766728,-1.3099454],[36.8766819,-1.3099435],[36.8767506,-1.3099273],[36.876759,-1.3099261],[36.8767624,-1.3099281],[36.876767,-1.3099317],[36.87676780000001,-1.3099387],[36.8767726,-1.3099481],[36.8767868,-1.3099855],[36.876788,-1.309991],[36.8767896,-1.309993],[36.8767924,-1.3099947],[36.8767966,-1.3099943],[36.8769763,-1.3099574],[36.8769951,-1.309957],[36.877019,-1.3099572],[36.877051,-1.3099532],[36.877109,-1.309949]]}},
{"type":"Feature","properties":{},"geometry":{"type":"LineString","coordinates":[[36.8836656,-1.3064602],[36.883656,-1.3064981],[36.8836238,-1.3065651],[36.88357,-1.3066437],[36.883545,-1.3066737],[36.8835317,-1.3066938],[36.8835581,-1.3067076],[36.883496,-1.3067793],[36.8834541,-1.3068343],[36.8834917,-1.3068627],[36.8835145,-1.3068825],[36.8835343,-1.3068584],[36.883586,-1.3068916],[36.8835913,-1.3068887],[36.8836251,-1.3069097],[36.8836834,-1.3069413],[36.8837032,-1.3069532],[36.883668,-1.3070096],[36.8836365,-1.3070562],[36.8835936,-1.3071188],[36.8836017,-1.3071265],[36.8835732,-1.3071621],[36.8835486,-1.3071859],[36.8834679,-1.3072569],[36.8833985,-1.3073277],[36.883366,-1.3073387],[36.8832823,-1.3074447],[36.8832671,-1.3076176],[36.8831832,-1.3077007],[36.8831282,-1.3077466],[36.8830371,-1.3078278],[36.8829808,-1.307872],[36.8829541,-1.3078964]]}},
{"type":"Feature","properties":{},"geometry":{"type":"LineString","coordinates":[[36.8824805,-1.3074375],[36.8823987,-1.3073635],[36.8823135,-1.3072583],[36.8823003,-1.3071594],[36.8823058,-1.3069167],[36.8823152,-1.3068051],[36.8822978,-1.3067257],[36.8822176,-1.3064156],[36.8822815,-1.3063686]]}},
{"type":"Feature","properties":{},"geometry":{"type":"LineString","coordinates":[[36.875261,-1.3100186],[36.8753053,-1.3100289],[36.8753193,-1.310092],[36.8753379,-1.3101875],[36.8753583,-1.3103311],[36.8753645,-1.3103698],[36.8753818,-1.3104997],[36.8754052,-1.31064],[36.8754224,-1.3107887],[36.8754319,-1.3108641],[36.8754512,-1.3109396],[36.8754527,-1.3110008],[36.8754539,-1.3110169],[36.8754541,-1.3110272],[36.8754553,-1.3110392],[36.8754649,-1.311111],[36.8754783,-1.3111857],[36.8754875,-1.3112236],[36.8755042,-1.3112569],[36.8755101,-1.3112901],[36.8755201,-1.3113248],[36.8755282,-1.3113808],[36.87553290000001,-1.3114578],[36.875557,-1.3115494],[36.8755874,-1.3116712],[36.8755808,-1.311932]]}},
{"type":"Feature","properties":{},"geometry":{"type":"LineString","coordinates":[[36.8744352,-1.3114399],[36.874471,-1.3114413],[36.8745161,-1.3114335],[36.8745535,-1.3114249],[36.8745693,-1.3114162],[36.8746247,-1.3114054],[36.874647,-1.3114054],[36.8746576,-1.3114047],[36.8746608,-1.3114055],[36.8746599,-1.311419],[36.874662,-1.3114278],[36.8746685,-1.3114298],[36.8746745,-1.3114274],[36.8747682,-1.3114164],[36.8747732,-1.3114154],[36.8747758,-1.3114622],[36.8748476,-1.3114521],[36.8748756,-1.3114481],[36.8748818,-1.3114476],[36.874888,-1.311457],[36.8748936,-1.3115246],[36.8749024,-1.3115239],[36.8749242,-1.31152],[36.8749285,-1.311527],[36.8750241,-1.3115069],[36.8750794,-1.3114939],[36.8751029,-1.3114882]]}},
{"type":"Feature","properties":{},"geometry":{"type":"LineString","coordinates":[[36.873946,-1.3117315],[36.8739425,-1.3117805],[36.8739391,-1.3119015],[36.8739495,-1.3119706],[36.8739452,-1.3119977],[36.8739492,-1.3120577],[36.8739482,-1.3121274],[36.8739468,-1.3121339],[36.873945,-1.3121391],[36.8739492,-1.3122233],[36.8739494,-1.3123081]]}},
{"type":"Feature","properties":{},"geometry":{"type":"LineString","coordinates":[[36.8760004,-1.3102447],[36.8758851,-1.310279],[36.8757237,-1.3103121],[36.8757024,-1.3103151],[36.875679,-1.3103112],[36.8756156,-1.310323],[36.8755384,-1.3103353],[36.8753645,-1.3103698]]}},
{"type":"Feature","properties":{},"geometry":{"type":"LineString","coordinates":[[36.8837284,-1.3157112],[36.8835966,-1.31574],[36.8834604,-1.3157146],[36.8833188,-1.3157317],[36.8832855,-1.3157734],[36.8832401,-1.315798],[36.8831976,-1.3158156],[36.8831507,-1.3158394],[36.8831339,-1.3158678],[36.883077,-1.3158676],[36.8829894,-1.3158525],[36.8829508,-1.3157974]]}},
{"type":"Feature","properties":{},"geometry":{"type":"LineString","coordinates":[[36.8814571,-1.3157315],[36.8813667,-1.3156283],[36.8812324,-1.3154935]]}},
{"type":"Feature","properties":{},"geometry":{"type":"LineString","coordinates":[[36.8815139,-1.3172544],[36.8815199,-1.3172605],[36.8815508,-1.3172801],[36.8816312,-1.3173339]]}},
{"type":"Feature","properties":{},"geometry":{"type":"LineString","coordinates":[[36.8815176,-1.3174845],[36.8814747,-1.3174634],[36.8814665,-1.3174629],[36.8814266,-1.3175587],[36.8813779,-1.3176439],[36.8813348,-1.3176883],[36.8812956,-1.3177288],[36.8812278,-1.3178166],[36.8811286,-1.3179219]]}},
{"type":"Feature","properties":{},"geometry":{"type":"LineString","coordinates":[[36.8816312,-1.3173339],[36.881615,-1.3173846],[36.8815902,-1.3174178],[36.8815732,-1.3174282],[36.8815679,-1.3174453],[36.8815176,-1.3174845]]}},
{"type":"Feature","properties":{},"geometry":{"type":"LineString","coordinates":[[36.8808074,-1.3142565],[36.8810617,-1.3141526],[36.8816038,-1.3139292],[36.8817787,-1.3138803],[36.8819051,-1.3138453],[36.8820282,-1.3138302],[36.8821026,-1.3138823],[36.882168,-1.3138322]]}},
{"type":"Feature","properties":{},"geometry":{"type":"LineString","coordinates":[[36.8846699,-1.3188105],[36.8847255,-1.3186282],[36.8849534,-1.3183923],[36.8851517,-1.3180906],[36.8852263,-1.3179729]]}},
{"type":"Feature","properties":{},"geometry":{"type":"LineString","coordinates":[[36.8829524,-1.3158042],[36.8829322,-1.3157941],[36.8829406,-1.315796],[36.8829508,-1.3157974]]}},
{"type":"Feature","properties":{},"geometry":{"type":"LineString","coordinates":[[36.8820552,-1.3190455],[36.882111,-1.3190968],[36.8821624,-1.3191608],[36.8821889,-1.319146],[36.882202,-1.3191128],[36.8822263,-1.3190953],[36.8822761,-1.3190067],[36.8823236,-1.3189611],[36.8823509,-1.3188597],[36.8823797,-1.3187466],[36.8824105,-1.3185511],[36.8824728,-1.3184052],[36.8824851,-1.3183293],[36.8824976,-1.3182393]]}},
{"type":"Feature","properties":{},"geometry":{"type":"LineString","coordinates":[[36.8814284,-1.3202635],[36.8813653,-1.3202108],[36.8813326,-1.3201847],[36.8812866,-1.3201454],[36.8812387,-1.3201016],[36.8812173,-1.3200825],[36.881213,-1.3200497],[36.8812901,-1.3199457],[36.88136,-1.3198428],[36.8814188,-1.3197815],[36.8814617,-1.3197319],[36.8814996,-1.3196869],[36.8815589,-1.3196152],[36.8816556,-1.3194905],[36.8817472,-1.3193644],[36.8819082,-1.3191893],[36.8820552,-1.3190455]]}},
{"type":"Feature","properties":{},"geometry":{"type":"LineString","coordinates":[[36.8802016,-1.3126881],[36.8801492,-1.3126836],[36.880123,-1.3126808],[36.8799998,-1.312876]]}},
{"type":"Feature","properties":{},"geometry":{"type":"LineString","coordinates":[[36.8794359,-1.3134022],[36.8794519,-1.3134053],[36.8794768,-1.3134096],[36.8794979,-1.313406],[36.8796471,-1.3132414],[36.8796608,-1.31323],[36.8797567,-1.313165],[36.8797698,-1.3131519],[36.8799998,-1.312876]]}},
{"type":"Feature","properties":{},"geometry":{"type":"LineString","coordinates":[[36.8741935,-1.3192667],[36.8745161,-1.3195139]]}},
{"type":"Feature","properties":{},"geometry":{"type":"LineString","coordinates":[[36.8749533,-1.3151078],[36.8747343,-1.3149418],[36.8743231,-1.3146665],[36.8736842,-1.3142242]]}},
{"type":"Feature","properties":{},"geometry":{"type":"LineString","coordinates":[[36.8738229,-1.3139347],[36.8741566,-1.3141245],[36.8744356,-1.3143205],[36.8746544,-1.3144768],[36.8750525,-1.3147363],[36.8751546,-1.3148054]]}},
{"type":"Feature","properties":{},"geometry":{"type":"LineString","coordinates":[[36.8773031,-1.3138375],[36.8773622,-1.3137563],[36.8774614,-1.3135989],[36.8776062,-1.3133575],[36.8776138,-1.3132274],[36.8776148,-1.3131152],[36.8776226,-1.3130577],[36.877617,-1.3130303],[36.8775794,-1.3130089],[36.8775043,-1.3129821],[36.8774346,-1.3129284],[36.8773648,-1.3127514],[36.8773024,-1.3126014],[36.8770658,-1.312172],[36.8768715,-1.3118542]]}},
{"type":"Feature","properties":{},"geometry":{"type":"LineString","coordinates":[[36.8894193,-1.3077867],[36.8895144,-1.3077347]]}},
{"type":"Feature","properties":{},"geometry":{"type":"LineString","coordinates":[[36.8894114,-1.3077909],[36.8894193,-1.3077867]]}},
{"type":"Feature","properties":{},"geometry":{"type":"LineString","coordinates":[[36.8894114,-1.3077909],[36.8892114,-1.3079511],[36.8892008,-1.3079298],[36.8893601,-1.3078042]]}},
{"type":"Feature","properties":{},"geometry":{"type":"LineString","coordinates":[[36.8894142,-1.307795],[36.889473,-1.3078776]]}},
{"type":"Feature","properties":{},"geometry":{"type":"LineString","coordinates":[[36.889473,-1.3078776],[36.8895224,-1.3079478]]}},
{"type":"Feature","properties":{},"geometry":{"type":"LineString","coordinates":[[36.8894114,-1.3077909],[36.8894142,-1.307795]]}},
{"type":"Feature","properties":{},"geometry":{"type":"LineString","coordinates":[[36.8762195,-1.3126296],[36.8763292,-1.3125461],[36.8763971,-1.3124946],[36.8764166,-1.3124723],[36.8765008,-1.3124172],[36.8765664,-1.3123751],[36.8766028,-1.3123431],[36.8767403,-1.3122517],[36.8767569,-1.3122489],[36.8767733,-1.3122468],[36.8767943,-1.3122399],[36.8769071,-1.3121771]]}},
{"type":"Feature","properties":{},"geometry":{"type":"LineString","coordinates":[[36.8798489,-1.3284937],[36.8799395,-1.3290615]]}},
{"type":"Feature","properties":{},"geometry":{"type":"LineString","coordinates":[[36.8798489,-1.3284937],[36.8795901,-1.3285941]]}},
{"type":"Feature","properties":{},"geometry":{"type":"LineString","coordinates":[[36.8798489,-1.3284937],[36.8800637,-1.3285125]]}},
{"type":"Feature","properties":{},"geometry":{"type":"LineString","coordinates":[[36.8799395,-1.3290615],[36.8802199,-1.3289191]]}},
{"type":"Feature","properties":{},"geometry":{"type":"LineString","coordinates":[[36.8799395,-1.3290615],[36.8796599,-1.3289814]]}},
{"type":"Feature","properties":{},"geometry":{"type":"LineString","coordinates":[[36.8780893,-1.3287912],[36.8779466,-1.3287331],[36.8779238,-1.3287304],[36.8777347,-1.3287398],[36.8776005,-1.3287478],[36.8774021,-1.3287559],[36.8770909,-1.3287813],[36.8769246,-1.3287947],[36.8767577,-1.3288041],[36.8766041,-1.3288068],[36.8764539,-1.3288041],[36.8762152,-1.3287988],[36.8760006,-1.3287934]]}},
{"type":"Feature","properties":{},"geometry":{"type":"LineString","coordinates":[[36.8894841,-1.3076912],[36.8894177,-1.3077823]]}},
{"type":"Feature","properties":{},"geometry":{"type":"LineString","coordinates":[[36.8894177,-1.3077823],[36.8894114,-1.3077909]]}},
{"type":"Feature","properties":{},"geometry":{"type":"LineString","coordinates":[[36.8895016,-1.3076672],[36.8894841,-1.3076912]]}},
{"type":"Feature","properties":{},"geometry":{"type":"LineString","coordinates":[[36.875153,-1.3287907],[36.8751483,-1.3287391],[36.8751336,-1.3286948],[36.8749566,-1.3284508],[36.8749183,-1.32842],[36.8747366,-1.3281404],[36.874683,-1.3280084],[36.8745267,-1.3278327],[36.8743832,-1.327637],[36.8743739,-1.3275814],[36.8742699,-1.3273501],[36.8741593,-1.3272046],[36.8740406,-1.3269881],[36.8739809,-1.3268372],[36.8739031,-1.3266938],[36.8738354,-1.3265557],[36.8737952,-1.3264042]]}},
{"type":"Feature","properties":{},"geometry":{"type":"LineString","coordinates":[[36.8709768,-1.3296416],[36.8710747,-1.3296166],[36.8711592,-1.3296126],[36.8712464,-1.3295724],[36.871646,-1.3295093],[36.8717681,-1.329508],[36.8718861,-1.3294664],[36.8720444,-1.3294329],[36.8721087,-1.3294075],[36.8721892,-1.3294155],[36.872385,-1.3294142],[36.8724614,-1.3294289],[36.8725473,-1.3294289],[36.8726425,-1.3293847],[36.8728195,-1.3293538],[36.8731172,-1.3293123],[36.8735316,-1.3292492],[36.8736349,-1.3292452],[36.87371,-1.3292171],[36.8737972,-1.3291889],[36.874005,-1.3291272],[36.874107,-1.3291138],[36.8742089,-1.3290937],[36.8744704,-1.3290119],[36.8746494,-1.3289554],[36.8746855,-1.328941],[36.874696,-1.3289356],[36.8748768,-1.3288765],[36.875153,-1.3287907],[36.8752442,-1.3288376],[36.8753649,-1.3288966],[36.87544,-1.3288939],[36.8755352,-1.3288859],[36.8757351,-1.328843],[36.8758853,-1.3288135],[36.8760006,-1.3287934]]}},
{"type":"Feature","properties":{},"geometry":{"type":"LineString","coordinates":[[36.8743832,-1.327637],[36.8743215,-1.3275693],[36.8742934,-1.3274942],[36.874227,-1.3273668],[36.8741465,-1.3272733],[36.8741593,-1.3272046]]}},
{"type":"Feature","properties":{},"geometry":{"type":"LineString","coordinates":[[36.8751029,-1.3114882],[36.8751129,-1.3114915],[36.8751207,-1.3115036],[36.8751314,-1.3115545],[36.8751679,-1.3117503]]}},
{"type":"Feature","properties":{},"geometry":{"type":"LineString","coordinates":[[36.8817724,-1.3186947],[36.8816774,-1.3185743],[36.8815787,-1.3184419],[36.8815355,-1.3184162],[36.8813503,-1.3186],[36.8807188,-1.3193692],[36.8806514,-1.3194514]]}}
]
}
