{
"type": "FeatureCollection",
"name": "desire_lines_ZAF.9.3.1_1_38528",
"crs": { "type": "name", "properties": { "name": "urn:ogc:def:crs:OGC:1.3:CRS84" } },
"features": [
{"type":"Feature","properties":{},"geometry":{"type":"LineString","coordinates":[[18.6154343,-34.0063561],[18.6154629,-34.0065802]]}},
{"type":"Feature","properties":{},"geometry":{"type":"LineString","coordinates":[[18.6133544,-34.0014283],[18.6133469,-34.0013968],[18.6133444,-34.0013044],[18.6133353,-34.0012361],[18.6133336,-34.0011795],[18.6133328,-34.0011292],[18.6133236,-34.0010802],[18.6133136,-34.001011299999988],[18.6132978,-34.0009451],[18.6132912,-34.000922299999985],[18.613287,-34.0008747],[18.6132895,-34.0007947],[18.613282,-34.00074570000001],[18.613277,-34.0007051],[18.613272,-34.0006657],[18.6132662,-34.0006085],[18.6132521,-34.0005795],[18.6132338,-34.0005768],[18.6132304,-34.0005395],[18.6132213,-34.0005002],[18.6132213,-34.0004506],[18.6132487,-34.000443699999984],[18.613287,-34.000453299999982],[18.6133311,-34.0004589],[18.6133694,-34.0004685],[18.613416,-34.0004851],[18.6134465,-34.0004887],[18.6134792,-34.0004926],[18.6135316,-34.000492599999987],[18.6135682,-34.0004885],[18.6136148,-34.0004899],[18.6136347,-34.00048850000001],[18.613633,-34.0004437],[18.6136419,-34.000358],[18.6136489,-34.00030850000001],[18.6136614,-34.0002561],[18.6136639,-34.000243],[18.6137096,-34.000242299999989],[18.6137462,-34.000242299999989],[18.6137703,-34.0002347],[18.6137845,-34.0002126],[18.6138277,-34.0002023],[18.6138618,-34.0001982],[18.6139259,-34.00018510000001],[18.6139941,-34.0001768],[18.6140545,-34.00016]]}},
{"type":"Feature","properties":{},"geometry":{"type":"LineString","coordinates":[[18.6161691,-34.0052448],[18.6161332,-34.0051684],[18.6160795,-34.0050639],[18.6160433,-34.0050055],[18.6160142,-34.0049638]]}},
{"type":"Feature","properties":{},"geometry":{"type":"LineString","coordinates":[[18.6159387,-34.0053112],[18.6160728,-34.0052721],[18.6161691,-34.0052448],[18.6161949,-34.0052398],[18.6162254,-34.0052348],[18.6162492,-34.0052345],[18.616272,-34.0052362],[18.6163183,-34.0052418],[18.6163766,-34.0052545],[18.6164336,-34.0052668],[18.6164892,-34.0052734],[18.6165717,-34.005274]]}},
{"type":"Feature","properties":{},"geometry":{"type":"LineString","coordinates":[[18.6162566,-34.0055025],[18.6163002,-34.005519699999986],[18.6163424,-34.0055275],[18.6163981,-34.00553080000001],[18.6164577,-34.0055303],[18.6165181,-34.0055225],[18.616618,-34.0055044]]}},
{"type":"Feature","properties":{},"geometry":{"type":"LineString","coordinates":[[18.6157211,-34.0047948],[18.6157899,-34.0047832],[18.6158519,-34.0047684],[18.6158878,-34.004747300000012],[18.6158998,-34.0047309],[18.6159109,-34.0047084],[18.6159324,-34.0046664]]}},
{"type":"Feature","properties":{},"geometry":{"type":"LineString","coordinates":[[18.6099152,-34.00490210000001],[18.6099528,-34.0048615],[18.6099978,-34.004818],[18.6101039,-34.004759]]}},
{"type":"Feature","properties":{},"geometry":{"type":"LineString","coordinates":[[18.6134852,-34.0069842],[18.6134581,-34.0067416],[18.6134345,-34.0065306],[18.6134329,-34.006516499999989]]}},
{"type":"Feature","properties":{},"geometry":{"type":"LineString","coordinates":[[18.6112516,-34.0037876],[18.6112364,-34.0037312],[18.6112115,-34.003616],[18.6111391,-34.0036229],[18.6110651,-34.0036126],[18.6110701,-34.003585],[18.6109883,-34.003584899999986],[18.610958,-34.0036038],[18.6108821,-34.0036165],[18.610835,-34.0036307],[18.6108535,-34.0037622],[18.6108343,-34.003777],[18.6108407,-34.0038284],[18.6108097,-34.0038651],[18.6107223,-34.0038571],[18.6106999,-34.0037962],[18.61065,-34.0037998],[18.6106296,-34.0037365],[18.6105309,-34.003749199999987],[18.6104945,-34.0037401],[18.6103497,-34.0037509]]}},
{"type":"Feature","properties":{},"geometry":{"type":"LineString","coordinates":[[18.6104653,-34.0041545],[18.6106158,-34.0041346],[18.6108122,-34.004105],[18.6108729,-34.0041119],[18.6109794,-34.0041064],[18.6110218,-34.0041746],[18.6110368,-34.0042574],[18.6111473,-34.0042469],[18.6111509,-34.0042904],[18.6112143,-34.0042951],[18.6112792,-34.0043093],[18.611333,-34.0043129],[18.6113569,-34.0043055],[18.6113929,-34.0043259],[18.6114015,-34.0043428],[18.6114115,-34.0043625],[18.611466,-34.0043528],[18.6114539,-34.0043066],[18.6114906,-34.0042727],[18.6115708,-34.0042496],[18.6115908,-34.004236],[18.6115858,-34.0042053]]}},
{"type":"Feature","properties":{},"geometry":{"type":"LineString","coordinates":[[18.6098136,-34.0045558],[18.6098738,-34.0045153],[18.6099021,-34.0045284],[18.6099462,-34.0044705],[18.6100335,-34.0044374],[18.6101192,-34.0044194],[18.6101966,-34.0044098],[18.6102032,-34.0044353],[18.6102864,-34.0044077],[18.6103006,-34.0043836],[18.6103521,-34.0043801],[18.6103879,-34.0044029],[18.6104945,-34.0043979]]}},
{"type":"Feature","properties":{},"geometry":{"type":"LineString","coordinates":[[18.6113038,-34.0013402],[18.6113313,-34.0013844],[18.6113363,-34.0014175],[18.6113562,-34.0014657],[18.6113978,-34.0014519],[18.6114427,-34.0014471],[18.6114743,-34.0014375],[18.6114985,-34.0014326],[18.611506,-34.0014209],[18.6115684,-34.0014044],[18.6115575,-34.0013492],[18.6115767,-34.0013388],[18.6116798,-34.0013147],[18.6116648,-34.0012685]]}},
{"type":"Feature","properties":{},"geometry":{"type":"LineString","coordinates":[[18.6107464,-34.0013806],[18.6107406,-34.0013409],[18.6107331,-34.0013037],[18.610719,-34.0012802],[18.6107207,-34.001243],[18.610709,-34.0012099],[18.6106916,-34.0011864],[18.6106716,-34.0011692],[18.6106599,-34.0011444],[18.6106525,-34.0011264],[18.6106433,-34.001095399999983],[18.6106168,-34.001068]]}},
{"type":"Feature","properties":{},"geometry":{"type":"LineString","coordinates":[[18.6105426,-34.0014816],[18.6105626,-34.0014657],[18.6105801,-34.001443],[18.6106067,-34.001431299999986],[18.6106258,-34.0014119],[18.6106483,-34.0013871],[18.6106741,-34.0013823],[18.6107323,-34.0013816],[18.6107464,-34.0013806],[18.6108138,-34.001376099999987],[18.6108571,-34.0013747],[18.6109128,-34.001374],[18.6109711,-34.0013637],[18.6110077,-34.0013878],[18.6110243,-34.001393299999982],[18.6110792,-34.0013844],[18.6111291,-34.001374],[18.6111973,-34.0013519],[18.6112514,-34.0013485],[18.6113038,-34.0013402],[18.6112963,-34.001284399999989],[18.6112938,-34.0012499],[18.6113021,-34.0012409],[18.6112838,-34.0012182],[18.6112539,-34.0011609],[18.6112215,-34.0011175],[18.6112065,-34.0010899],[18.6111799,-34.0010444],[18.611169,-34.0010285],[18.6110942,-34.0010257],[18.6110509,-34.00102660000001],[18.6110251,-34.0010271],[18.6109436,-34.0010237],[18.6108771,-34.0010237],[18.6107955,-34.001032],[18.6107132,-34.0010423],[18.6106267,-34.0010623],[18.6106168,-34.001068],[18.6105959,-34.0010802],[18.6105377,-34.0010899],[18.610432,-34.001094],[18.6103983,-34.0010826]]}},
{"type":"Feature","properties":{},"geometry":{"type":"LineString","coordinates":[[18.6102933,-34.0015808],[18.6103372,-34.0015719],[18.6104012,-34.0015692],[18.6104475,-34.0015565],[18.6104819,-34.001547099999989],[18.6105218,-34.0015168],[18.6105426,-34.0014816],[18.6105476,-34.001454],[18.6105401,-34.001434],[18.6105293,-34.0014092],[18.6105135,-34.0013926],[18.6104919,-34.0013878],[18.610452,-34.0013878],[18.6104004,-34.0014016],[18.6103646,-34.0014092],[18.610328,-34.0014175],[18.6103322,-34.0014361],[18.6103322,-34.0014602],[18.6103322,-34.0014671],[18.6103197,-34.0014837],[18.6103155,-34.00150510000001],[18.6103122,-34.0015278],[18.610318,-34.001554],[18.6102933,-34.0015808]]}},
{"type":"Feature","properties":{},"geometry":{"type":"LineString","coordinates":[[18.6156437,-34.0041903],[18.6157203,-34.0041815],[18.615796,-34.0041622],[18.6157876,-34.0041112],[18.6157752,-34.0040519],[18.6157752,-34.0040367],[18.6158093,-34.0040319],[18.6158475,-34.0040236],[18.6159066,-34.0040153],[18.6159407,-34.0039898],[18.6159823,-34.0039602],[18.6159623,-34.0039408],[18.6159079,-34.0038775]]}},
{"type":"Feature","properties":{},"geometry":{"type":"LineString","coordinates":[[18.616337,-34.0037109],[18.6163101,-34.0037209],[18.6161778,-34.0037215],[18.6161287,-34.0037264],[18.6160879,-34.0037215],[18.6160746,-34.0037664],[18.6160497,-34.003787099999983],[18.6160306,-34.0037933],[18.616006,-34.003874],[18.6159942,-34.003913],[18.6159079,-34.0038775],[18.6158248,-34.0038349],[18.6157375,-34.0037915],[18.6156444,-34.0037436],[18.6155528,-34.0036969],[18.6155073,-34.0036588],[18.6155031,-34.0036484],[18.6155015,-34.0036367],[18.6154998,-34.0036264],[18.6155098,-34.003607100000011],[18.6155181,-34.0035919],[18.6155214,-34.0035781],[18.6155239,-34.0035664],[18.6155206,-34.0035581],[18.615469,-34.0035498],[18.6154166,-34.0035395],[18.6153767,-34.003530499999989],[18.6153692,-34.0035395],[18.6153251,-34.0035353],[18.6152835,-34.0035271],[18.6152436,-34.0035147],[18.6152111,-34.0035105],[18.6151463,-34.0035147],[18.615098,-34.0035147],[18.6150664,-34.0035202],[18.6150248,-34.0035074]]}},
{"type":"Feature","properties":{},"geometry":{"type":"LineString","coordinates":[[18.6155461,-34.002062399999986],[18.6154981,-34.0020285],[18.6154349,-34.002005],[18.6153592,-34.0019899],[18.6153093,-34.0019899],[18.6152577,-34.001997500000016],[18.615202,-34.0020078],[18.6151513,-34.002016799999986],[18.6151138,-34.0020568],[18.6150972,-34.0020857],[18.615093,-34.0021285],[18.6150999,-34.0021944]]}},
{"type":"Feature","properties":{},"geometry":{"type":"LineString","coordinates":[[18.6147053,-34.003287],[18.6147037,-34.003236],[18.6146937,-34.0031388],[18.6146646,-34.003128499999988],[18.6146297,-34.0030436],[18.6145997,-34.0030457],[18.6145897,-34.0030167],[18.6145731,-34.0029312],[18.614623,-34.0029223],[18.614618,-34.0028795],[18.6146929,-34.002841600000011],[18.6147736,-34.0028112],[18.6147819,-34.0027519],[18.6148376,-34.002729899999984],[18.6148518,-34.0027043],[18.6149042,-34.0026995],[18.6149707,-34.0026926],[18.6149907,-34.0026333],[18.614994,-34.002583],[18.6149824,-34.0024954],[18.6149732,-34.0024112],[18.6149664,-34.0023511]]}},
{"type":"Feature","properties":{},"geometry":{"type":"LineString","coordinates":[[18.6116016,-34.00190640000001],[18.6115068,-34.0018133],[18.6114444,-34.0018264],[18.6114169,-34.0018409],[18.6113912,-34.0018554],[18.6113712,-34.0018602],[18.6113471,-34.0018878],[18.6111978,-34.0019128]]}},
{"type":"Feature","properties":{},"geometry":{"type":"LineString","coordinates":[[18.6123868,-34.0027364],[18.6123112,-34.0027636],[18.6123087,-34.002784299999988],[18.6123054,-34.002823],[18.6122447,-34.0028395],[18.6122563,-34.0028788],[18.612243,-34.0029216],[18.6122746,-34.0030002],[18.6123004,-34.0031119],[18.6123258,-34.0033518],[18.6123258,-34.0034007],[18.6123278,-34.0034496],[18.6123345,-34.0034952],[18.6123358,-34.0035446],[18.6123305,-34.0035925],[18.6123271,-34.0036408],[18.6123117,-34.0036469],[18.6123084,-34.0036797],[18.612301,-34.003722],[18.6122493,-34.003721400000011],[18.6122091,-34.0037264],[18.6122125,-34.0037531],[18.6122118,-34.0037898],[18.6122084,-34.0038343],[18.6121984,-34.003846499999987],[18.612183,-34.0038615],[18.6121769,-34.0038804],[18.6121742,-34.003896],[18.6121702,-34.0039132],[18.6121687,-34.0039429],[18.6121669,-34.004001],[18.6121689,-34.0040405],[18.6121742,-34.0040744],[18.6121749,-34.004101599999984],[18.6121756,-34.004135],[18.6121716,-34.0041653],[18.6121464,-34.0041681],[18.6120938,-34.0041725],[18.6120887,-34.0041998],[18.6120539,-34.0041998],[18.6120187,-34.0041973],[18.6119644,-34.0041989],[18.611894,-34.0041998],[18.611897,-34.0041823],[18.6118866,-34.0041711],[18.6118544,-34.0041703],[18.6118149,-34.00417]]}},
{"type":"Feature","properties":{},"geometry":{"type":"LineString","coordinates":[[18.6114764,-34.0026929],[18.6114734,-34.002657],[18.611471,-34.0026292],[18.6114719,-34.002565],[18.6114827,-34.002523],[18.6115001,-34.0025154],[18.6114976,-34.0024878],[18.6116092,-34.0024667]]}},
{"type":"Feature","properties":{},"geometry":{"type":"LineString","coordinates":[[18.6099645,-34.0016147],[18.609957,-34.0015892],[18.609957,-34.0015382],[18.6099204,-34.0014892],[18.6099162,-34.0014361],[18.6099187,-34.0013968],[18.6099013,-34.0013554],[18.6098846,-34.0013023],[18.6098714,-34.001257]]}},
{"type":"Feature","properties":{},"geometry":{"type":"LineString","coordinates":[[18.6113562,-34.0014657],[18.6113155,-34.0014906],[18.6112764,-34.001514],[18.6112589,-34.0015319],[18.611214,-34.0015478],[18.6111932,-34.0015595],[18.6112048,-34.0016071],[18.6111649,-34.0016244],[18.6111591,-34.0016354],[18.6111632,-34.001683],[18.6111557,-34.0017319],[18.6111424,-34.001742299999989]]}},
{"type":"Feature","properties":{},"geometry":{"type":"LineString","coordinates":[[18.6105959,-34.0022633],[18.6106025,-34.0022588],[18.6106674,-34.0022409],[18.6107007,-34.00223470000001],[18.6106849,-34.0021802],[18.6107198,-34.0021768],[18.6107398,-34.00218370000001],[18.6108072,-34.0021692],[18.6108373,-34.0021595],[18.6109037,-34.0021381],[18.6109702,-34.0021202],[18.6109785,-34.0020802],[18.6110301,-34.0020485],[18.6111008,-34.0020278],[18.6111574,-34.0020175],[18.6111948,-34.002008499999988],[18.6112081,-34.0019768],[18.6112032,-34.0019388],[18.6111978,-34.0019128],[18.6111932,-34.0018899],[18.6111732,-34.001831899999985],[18.6111607,-34.0017768],[18.6111424,-34.001742299999989],[18.6110983,-34.0017416],[18.6110867,-34.0017623],[18.6110817,-34.001801599999986],[18.6110218,-34.0018119],[18.6109536,-34.0018347],[18.610907,-34.0018533],[18.6108845,-34.0018519],[18.6108213,-34.001877499999985],[18.6108138,-34.0018926],[18.6108222,-34.0019326],[18.610828,-34.0019499],[18.6107864,-34.0019616],[18.6107531,-34.0019892],[18.6107315,-34.001991899999986],[18.6107215,-34.0019906],[18.6106907,-34.0019981],[18.6106391,-34.00200920000001],[18.6106034,-34.0020092],[18.6105892,-34.0020016],[18.610531,-34.0020106],[18.6104611,-34.002025],[18.6104154,-34.0020464],[18.6104503,-34.0021085],[18.6104761,-34.002143],[18.6105144,-34.0021423],[18.6105443,-34.0021609],[18.6105618,-34.002205],[18.6105776,-34.0022478],[18.6105959,-34.0022633]]}},
{"type":"Feature","properties":{},"geometry":{"type":"LineString","coordinates":[[18.6126396,-34.0022844],[18.6125873,-34.0022711],[18.612476,-34.0022978],[18.6123285,-34.0023145],[18.6121665,-34.0023333],[18.612154,-34.0022761],[18.6121157,-34.0021954],[18.6120916,-34.0020788],[18.6121057,-34.002043699999987],[18.6121099,-34.002025],[18.6120941,-34.0019361],[18.6120841,-34.0019216],[18.6120259,-34.0019071],[18.6119943,-34.001903],[18.6119652,-34.0018913],[18.6118953,-34.0018485],[18.6118562,-34.0018388],[18.6118071,-34.0018347],[18.6117314,-34.0018333],[18.6117131,-34.001843],[18.6116915,-34.0018692],[18.6116549,-34.001884399999987],[18.6116016,-34.00190640000001]]}},
{"type":"Feature","properties":{},"geometry":{"type":"LineString","coordinates":[[18.612254,-34.0025635],[18.6122488,-34.002523],[18.6121989,-34.0023809],[18.6121665,-34.0023333],[18.6120708,-34.0023312],[18.6120176,-34.0023409],[18.6119302,-34.0023588],[18.6118745,-34.0023706],[18.6118678,-34.002405],[18.6118994,-34.0024581],[18.6119319,-34.0024823],[18.6119583,-34.0024812]]}},
{"type":"Feature","properties":{},"geometry":{"type":"LineString","coordinates":[[18.6110276,-34.0033807],[18.6110268,-34.0033285],[18.6110318,-34.0032843],[18.6110301,-34.0032505],[18.6110226,-34.0032119],[18.6110268,-34.0031878],[18.6110351,-34.0031547],[18.6110326,-34.0031285],[18.6110326,-34.0031167],[18.6110592,-34.003111199999985],[18.6110667,-34.003084299999983],[18.6111042,-34.0030767],[18.6111308,-34.0030636],[18.6111524,-34.0030581],[18.6112015,-34.0030498],[18.6112248,-34.003043599999984],[18.611235,-34.0030428],[18.6112746,-34.0030399],[18.6112874,-34.0030301],[18.6112896,-34.002989699999986],[18.6113398,-34.0029888],[18.6114332,-34.0029891],[18.6114596,-34.0029852],[18.6114596,-34.0029477],[18.6114575,-34.0029125],[18.6114578,-34.002883199999985],[18.6114557,-34.0028525],[18.611461,-34.0028235],[18.6114632,-34.0027875],[18.6114692,-34.0027148],[18.6114764,-34.0026929],[18.6115206,-34.0026622],[18.6115359,-34.0026498],[18.6115544,-34.0026427],[18.6115708,-34.0026412],[18.6116179,-34.0026468],[18.6116607,-34.0026483],[18.6116589,-34.0025969],[18.6116639,-34.0025815],[18.6116349,-34.0024926],[18.6116092,-34.0024667],[18.6116041,-34.0024616],[18.6115958,-34.002420899999983],[18.611595,-34.002383],[18.6115941,-34.0023554],[18.6115833,-34.00232230000001],[18.6115758,-34.0022912],[18.6115692,-34.0022437],[18.6115617,-34.0021975],[18.61156,-34.0021595],[18.6115567,-34.0021361],[18.6115279,-34.0019961],[18.6115168,-34.0019423],[18.6116016,-34.00190640000001]]}},
{"type":"Feature","properties":{},"geometry":{"type":"LineString","coordinates":[[18.6149067,-34.0016374],[18.6148875,-34.0016678],[18.6148717,-34.001689899999988],[18.6148584,-34.0017057],[18.6148501,-34.0017147],[18.6148485,-34.0017595],[18.6148418,-34.00179880000001],[18.6148301,-34.0018306],[18.6147586,-34.0018368],[18.6146837,-34.0018457],[18.6146663,-34.0018575],[18.6146663,-34.001869899999988],[18.6145947,-34.0018816],[18.6145365,-34.0018968],[18.6144292,-34.0018981],[18.6143868,-34.001916799999989],[18.6143891,-34.0019413],[18.6143909,-34.0019595],[18.6144034,-34.0020085],[18.6144225,-34.0020706],[18.6143876,-34.0020837],[18.6143377,-34.0021037],[18.6143036,-34.0021195],[18.6142453,-34.0021526],[18.6142312,-34.0021781],[18.6142586,-34.0022381],[18.6142711,-34.0022657],[18.6142304,-34.002283],[18.6142146,-34.0022885],[18.6141859,-34.0022844]]}},
{"type":"Feature","properties":{},"geometry":{"type":"LineString","coordinates":[[18.6096657,-34.001719],[18.6097058,-34.001684399999988],[18.6097698,-34.0016506],[18.6098563,-34.0016175],[18.6099088,-34.0016133],[18.6099645,-34.0016147],[18.6100036,-34.0016161],[18.6100468,-34.0016071],[18.6101009,-34.00159750000001],[18.6101392,-34.001594],[18.6101733,-34.001594],[18.6102332,-34.001588499999983],[18.6102723,-34.001585],[18.6102933,-34.0015808]]}},
{"type":"Feature","properties":{},"geometry":{"type":"LineString","coordinates":[[18.6098901,-34.0024853],[18.6099653,-34.002485],[18.6100527,-34.0024781],[18.6101342,-34.00247190000001],[18.6101883,-34.0024643],[18.6101916,-34.0024457],[18.6101982,-34.0024057],[18.6102823,-34.002383],[18.6103513,-34.0023526],[18.6104345,-34.0023278],[18.6104819,-34.0023202],[18.6105876,-34.002274],[18.6105959,-34.0022633]]}},
{"type":"Feature","properties":{},"geometry":{"type":"LineString","coordinates":[[18.6151282,-34.0051476],[18.6151595,-34.0052526],[18.6151963,-34.005331099999985],[18.6152452,-34.0054706],[18.6152509,-34.0054797],[18.6152586,-34.0054877],[18.615263,-34.005493199999989],[18.6152656,-34.0055002],[18.6152669,-34.00552110000001],[18.6152655,-34.0055951],[18.6152652,-34.0056634],[18.6152662,-34.005689799999985],[18.6152709,-34.0057211],[18.6152766,-34.0057587],[18.6152886,-34.0058163],[18.6153245,-34.0059163],[18.6153607,-34.0060016],[18.6153843,-34.006064],[18.615405,-34.006149],[18.6154193,-34.0062375],[18.6154294,-34.0062995]]}},
{"type":"Feature","properties":{},"geometry":{"type":"LineString","coordinates":[[18.6144445,-34.0055763],[18.6144638,-34.0056573],[18.6144749,-34.0057112],[18.6144798,-34.005734],[18.6144793,-34.0057573],[18.6144739,-34.0057842],[18.6144694,-34.0058075],[18.6144669,-34.0058557],[18.6144773,-34.0059441],[18.6144803,-34.0060041],[18.6144816,-34.0060895],[18.6144794,-34.0062804],[18.614479,-34.006313799999987],[18.6144783,-34.0063758]]}},
{"type":"Feature","properties":{},"geometry":{"type":"LineString","coordinates":[[18.6097059,-34.0069008],[18.6097207,-34.006861],[18.6097154,-34.0068183]]}},
{"type":"Feature","properties":{},"geometry":{"type":"LineString","coordinates":[[18.6102211,-34.0068588],[18.6101753,-34.0068285],[18.6101689,-34.0067813]]}},
{"type":"Feature","properties":{},"geometry":{"type":"LineString","coordinates":[[18.6146912,-34.0045786],[18.6147391,-34.0046047],[18.6147646,-34.0046331],[18.6147686,-34.0046709],[18.6148169,-34.0046692],[18.6148504,-34.0046631],[18.6148551,-34.004722],[18.6148692,-34.0047342],[18.6148786,-34.004772],[18.6148672,-34.004824899999988],[18.6148638,-34.0048849],[18.6148692,-34.0049838],[18.6148484,-34.0049977],[18.6148759,-34.0051134],[18.6149067,-34.0051195],[18.6150751,-34.00511],[18.6151282,-34.0051476]]}},
{"type":"Feature","properties":{},"geometry":{"type":"LineString","coordinates":[[18.6144005,-34.0025574],[18.6144565,-34.0025324],[18.6144816,-34.0025212],[18.6145835,-34.002509],[18.6145862,-34.0024512],[18.6147083,-34.0024384],[18.6147378,-34.0024162],[18.6148243,-34.0023939],[18.6148269,-34.002353399999983]]}},
{"type":"Feature","properties":{},"geometry":{"type":"LineString","coordinates":[[18.6146929,-34.002841600000011],[18.61466,-34.0028136],[18.6146305,-34.0027881],[18.6146177,-34.0027742],[18.6145386,-34.002723],[18.6144883,-34.0026686],[18.6144414,-34.0025952],[18.6144005,-34.0025574],[18.6143515,-34.0025251],[18.6143254,-34.002494],[18.6142878,-34.0024518],[18.6142416,-34.0024679],[18.6141262,-34.002404],[18.6140565,-34.002434499999985],[18.6140129,-34.0023643]]}},
{"type":"Feature","properties":{},"geometry":{"type":"LineString","coordinates":[[18.6137313,-34.0020943],[18.6136991,-34.0020637],[18.6136642,-34.0020443],[18.6136501,-34.00203650000001],[18.61362,-34.0020387],[18.6135663,-34.0020487],[18.61352,-34.0020749],[18.6134865,-34.0020715],[18.6134423,-34.0021816],[18.6133678,-34.0021632],[18.6133142,-34.0021783],[18.6132207,-34.0021488]]}},
{"type":"Feature","properties":{},"geometry":{"type":"LineString","coordinates":[[18.6118108,-34.0039065],[18.6118296,-34.003903200000011],[18.6118302,-34.003840399999987],[18.611837,-34.0037314],[18.6118423,-34.0036102],[18.6118477,-34.0035018],[18.6118718,-34.0034974],[18.6118799,-34.0034551],[18.611894,-34.0034112],[18.6118987,-34.0033608]]}},
{"type":"Feature","properties":{},"geometry":{"type":"LineString","coordinates":[[18.6135987,-34.0045765],[18.6135335,-34.0045636],[18.6135174,-34.0046003],[18.6134838,-34.004687499999989],[18.6134456,-34.0047631],[18.6134262,-34.0048154],[18.6134443,-34.004851],[18.6134295,-34.004901],[18.6133692,-34.0049055],[18.6133048,-34.0048954],[18.6132719,-34.0048793],[18.6132203,-34.0048727],[18.6131848,-34.0048488],[18.6131405,-34.0048465],[18.6130795,-34.0048221],[18.6130352,-34.0048037],[18.6130198,-34.0048265],[18.6129514,-34.0048215],[18.6129192,-34.0048415],[18.6129118,-34.0049877],[18.6129655,-34.0050933],[18.6129628,-34.0051662],[18.6129574,-34.005199],[18.6129729,-34.005284],[18.6129749,-34.0053468],[18.6129675,-34.0054141],[18.6129588,-34.0054947],[18.6129628,-34.0055447],[18.6129695,-34.0055825],[18.6130017,-34.005632],[18.613052,-34.0056492],[18.6130735,-34.0056592],[18.6130849,-34.0057154],[18.6131304,-34.0057137],[18.6131351,-34.0057632],[18.6131271,-34.0058199],[18.6131311,-34.00589440000001],[18.6131311,-34.0059566],[18.6131338,-34.0060011],[18.6131331,-34.0060489],[18.6131311,-34.0060917],[18.6131318,-34.006142799999985],[18.6131418,-34.0061851],[18.6131351,-34.0062546],[18.6131372,-34.0063102],[18.6131392,-34.0064069],[18.6131409,-34.0064199]]}},
{"type":"Feature","properties":{},"geometry":{"type":"LineString","coordinates":[[18.6128711,-34.0064448],[18.6128696,-34.0064336],[18.6128401,-34.0063057],[18.6128227,-34.0062407],[18.6128186,-34.0062001],[18.6128093,-34.0061528],[18.6128072,-34.0061323],[18.6128126,-34.0060822],[18.6128059,-34.0060428],[18.6127935,-34.0060033],[18.6127861,-34.0059755],[18.6127834,-34.005947399999989],[18.6127818,-34.0059299],[18.6127969,-34.0058557],[18.6128029,-34.00578010000001],[18.6127747,-34.0057782],[18.6127791,-34.0057362],[18.612773,-34.0057218],[18.6127046,-34.0057176],[18.6126943,-34.0057204],[18.6126228,-34.0057156],[18.6126275,-34.0056184],[18.6126259,-34.0055739],[18.6126232,-34.005538],[18.6125162,-34.0055358],[18.6124103,-34.0055675],[18.6123365,-34.0055631],[18.6122795,-34.0055519],[18.6122319,-34.0055597],[18.6122299,-34.005597],[18.6121152,-34.0055986],[18.6121045,-34.0056542],[18.6121139,-34.0057209],[18.612109,-34.0057533]]}},
{"type":"Feature","properties":{},"geometry":{"type":"LineString","coordinates":[[18.6114943,-34.0058071],[18.6115278,-34.0057982],[18.6115888,-34.005786],[18.6116579,-34.0057726],[18.6117538,-34.0057676],[18.611815,-34.0057626]]}},
{"type":"Feature","properties":{},"geometry":{"type":"LineString","coordinates":[[18.6116428,-34.0060892],[18.6115359,-34.00608],[18.6115218,-34.0059811],[18.6114943,-34.0058071],[18.6114507,-34.0058193],[18.6113971,-34.0058249],[18.6113146,-34.0058315],[18.6112837,-34.0058471],[18.6112301,-34.0058432],[18.6112033,-34.0058477],[18.6111503,-34.0058582],[18.6111175,-34.005841599999989],[18.6110672,-34.0058516],[18.6109867,-34.0058816],[18.6109149,-34.0059016],[18.6108573,-34.0059183],[18.6107966,-34.0059348]]}},
{"type":"Feature","properties":{},"geometry":{"type":"LineString","coordinates":[[18.6108662,-34.0060451],[18.6108962,-34.00606],[18.6109371,-34.0061545],[18.6109096,-34.006183399999983],[18.6109035,-34.0062262],[18.6109049,-34.0062457],[18.6109324,-34.006251200000015],[18.6109418,-34.0063007],[18.6109525,-34.0063357],[18.6109605,-34.0064419],[18.6109632,-34.0065119],[18.6109784,-34.0065964]]}},
{"type":"Feature","properties":{},"geometry":{"type":"LineString","coordinates":[[18.6115232,-34.003369399999983],[18.6115231,-34.0034274],[18.6115238,-34.0034829],[18.6115265,-34.0035408],[18.6115305,-34.0036025],[18.6115339,-34.0036714],[18.6115332,-34.0037181],[18.6115231,-34.0037781],[18.6114889,-34.003782],[18.6114936,-34.003821499999987],[18.611495,-34.0038621],[18.6114983,-34.003909899999982],[18.6114822,-34.0039193],[18.6114916,-34.0039543],[18.6114413,-34.0039821],[18.6114601,-34.0040155],[18.6114152,-34.0040394],[18.6113925,-34.0040501]]}},
{"type":"Feature","properties":{},"geometry":{"type":"LineString","coordinates":[[18.615796,-34.0041622],[18.6158583,-34.0041522],[18.6158703,-34.0041917],[18.6158951,-34.0042323],[18.6159269,-34.004292099999986]]}},
{"type":"Feature","properties":{},"geometry":{"type":"LineString","coordinates":[[18.6160004,-34.0032406],[18.6159562,-34.0032428],[18.6158884,-34.0032534],[18.6158361,-34.0032595],[18.6157845,-34.0032678],[18.6157771,-34.0032195],[18.6157174,-34.0032122],[18.6156665,-34.0032261],[18.6156584,-34.0032022],[18.615641,-34.0031572],[18.6155988,-34.00316],[18.6155552,-34.0031678],[18.6155163,-34.0031811],[18.6154667,-34.0031911],[18.6154539,-34.0031477],[18.6154385,-34.00309330000001],[18.6154227,-34.003043799999986]]}},
{"type":"Feature","properties":{},"geometry":{"type":"LineString","coordinates":[[18.6159184,-34.002824500000017],[18.615932,-34.0028592],[18.6159488,-34.002894799999986],[18.6159609,-34.0029504],[18.6159696,-34.003008199999989],[18.6159696,-34.0030627],[18.6159843,-34.0031383],[18.6160004,-34.0032406],[18.6160554,-34.0032317],[18.6161318,-34.0032239],[18.6161439,-34.0032556],[18.6161607,-34.0033084],[18.6161714,-34.003344],[18.6161795,-34.003395099999985],[18.6161875,-34.0034274],[18.6162364,-34.0034224],[18.6163028,-34.0034101]]}},
{"type":"Feature","properties":{},"geometry":{"type":"LineString","coordinates":[[18.6158864,-34.0021135],[18.6158569,-34.0021238],[18.6158153,-34.002137699999984],[18.6157778,-34.0021455],[18.6157369,-34.002158199999982],[18.6157054,-34.002162699999985],[18.6156739,-34.002161],[18.615633,-34.002156],[18.61559,-34.0021505],[18.6155462,-34.002150599999986]]}},
{"type":"Feature","properties":{},"geometry":{"type":"LineString","coordinates":[[18.6161962,-34.0023461],[18.616221,-34.0023306],[18.6162318,-34.0022917],[18.6162438,-34.0022639],[18.6162686,-34.002255500000011],[18.6162613,-34.0022338],[18.6162505,-34.0022077],[18.6162324,-34.002169900000013],[18.6162224,-34.0021382],[18.6162123,-34.0021093],[18.6161935,-34.0020865],[18.6161781,-34.0020476],[18.6161647,-34.0020132],[18.6161499,-34.0019798]]}},
{"type":"Feature","properties":{},"geometry":{"type":"LineString","coordinates":[[18.6163039,-34.0026818],[18.6163075,-34.0026413],[18.6163048,-34.0025785],[18.6162787,-34.0025752],[18.616274,-34.002554600000011],[18.6162646,-34.0025285],[18.6162579,-34.0024996],[18.6162432,-34.0024573],[18.6162324,-34.0024373],[18.6162177,-34.0024073],[18.6162143,-34.002378899999989],[18.6161962,-34.0023461],[18.6161835,-34.0023128],[18.6161687,-34.0022711]]}},
{"type":"Feature","properties":{},"geometry":{"type":"LineString","coordinates":[[18.6158709,-34.0020421],[18.6159246,-34.0020259],[18.6159904,-34.0020137],[18.6160668,-34.0020015],[18.6161131,-34.0019943],[18.6161499,-34.0019798],[18.6161654,-34.0019559],[18.6161774,-34.0019231],[18.6162036,-34.0018992],[18.6162277,-34.0018753],[18.6162532,-34.0018569],[18.6162968,-34.0018436]]}},
{"type":"Feature","properties":{},"geometry":{"type":"LineString","coordinates":[[18.6148301,-34.0018306],[18.6148283,-34.0018761],[18.6148196,-34.0019173],[18.6148041,-34.0019637],[18.6147492,-34.0019553],[18.6147026,-34.0019587],[18.614713,-34.0020157],[18.6147223,-34.0020715],[18.6146908,-34.0020776],[18.6146922,-34.0021305],[18.6146519,-34.0021299],[18.6146546,-34.002186],[18.6146177,-34.0021955],[18.6145889,-34.0022077],[18.6145373,-34.0022133],[18.614493,-34.0022149],[18.6144575,-34.0022216],[18.6144575,-34.0022472],[18.6144575,-34.0022861],[18.6144541,-34.0023261],[18.6144508,-34.0023623],[18.6144742,-34.0023795],[18.6144856,-34.0024101],[18.6144843,-34.0024334],[18.6144581,-34.0024312],[18.6144622,-34.0024657],[18.614434,-34.0024723],[18.6144565,-34.0025324]]}},
{"type":"Feature","properties":{},"geometry":{"type":"LineString","coordinates":[[18.613832,-34.0021786],[18.6138748,-34.0021477],[18.6139438,-34.0021065],[18.6139948,-34.0020738],[18.6140337,-34.0020476],[18.6140203,-34.0020126],[18.6139894,-34.00198480000001],[18.6139666,-34.001977],[18.6139385,-34.0019787],[18.6139338,-34.0019364],[18.6139284,-34.001902],[18.6139418,-34.0018636],[18.6139653,-34.0018064],[18.613989,-34.001786],[18.6140022,-34.0017747],[18.6140256,-34.0017324],[18.6140551,-34.0016835],[18.6140668,-34.001659899999986],[18.61408,-34.0016335],[18.6140893,-34.001605100000013],[18.6140384,-34.0015918],[18.6140235,-34.0015849],[18.6139941,-34.0015712],[18.6140069,-34.0015415],[18.6140162,-34.0015092],[18.6140092,-34.0014584],[18.6140109,-34.0014227]]}},
{"type":"Feature","properties":{},"geometry":{"type":"LineString","coordinates":[[18.6127627,-34.0016937],[18.6128025,-34.0016966],[18.6128337,-34.0016991],[18.6128555,-34.0017057],[18.6128807,-34.0017074],[18.6129041,-34.0017116],[18.6129333,-34.0017183],[18.6129628,-34.0017283],[18.6129828,-34.0017381]]}},
{"type":"Feature","properties":{},"geometry":{"type":"LineString","coordinates":[[18.6131154,-34.0021855],[18.6130785,-34.0022019],[18.6130409,-34.0022144],[18.612994,-34.0022097],[18.6129541,-34.0022063],[18.6129015,-34.0022136],[18.6128522,-34.0022272],[18.6127975,-34.0022366],[18.6127657,-34.0022489],[18.6127362,-34.0022625],[18.6127053,-34.0022711]]}},
{"type":"Feature","properties":{},"geometry":{"type":"LineString","coordinates":[[18.6128837,-34.0015493],[18.6129216,-34.0015481],[18.6129269,-34.0015793],[18.6129598,-34.0015787],[18.6129923,-34.0015746],[18.612994,-34.001634],[18.6129927,-34.0016863],[18.6129846,-34.0017235],[18.6129828,-34.0017381],[18.6129819,-34.0017455],[18.6129675,-34.001785],[18.6129578,-34.0018166],[18.6129514,-34.0018386],[18.6129474,-34.0018636],[18.6129407,-34.0018975],[18.612942,-34.001932],[18.6129467,-34.0019642],[18.6129491,-34.0020093],[18.6129541,-34.0020473],[18.6129732,-34.0020596],[18.612999,-34.002062399999986],[18.6130483,-34.0020632],[18.6130952,-34.0020676],[18.6130996,-34.0020979],[18.6131026,-34.0021143],[18.6131087,-34.0021599],[18.6131154,-34.0021855],[18.6131945,-34.0022085]]}},
{"type":"Feature","properties":{},"geometry":{"type":"LineString","coordinates":[[18.6133236,-34.00194530000001],[18.6132719,-34.0019287],[18.6132257,-34.0019175],[18.6131988,-34.0019275],[18.6131667,-34.0019225],[18.6131291,-34.0019098],[18.6130989,-34.0018981],[18.6130647,-34.0018853],[18.6130185,-34.0018608],[18.6129514,-34.0018386],[18.6128854,-34.0018319],[18.6128569,-34.00183],[18.6128203,-34.001819099999985],[18.6128036,-34.0018019],[18.6127908,-34.0017858],[18.612765,-34.001783],[18.6127653,-34.0017321],[18.6127627,-34.0016937],[18.6127627,-34.0016932],[18.6127559,-34.0016635],[18.6127539,-34.0016268],[18.6127526,-34.0015929],[18.6127898,-34.0015859],[18.6128173,-34.0015823],[18.612826,-34.0015607],[18.6128518,-34.0015523],[18.6128837,-34.0015493],[18.6128854,-34.0015329],[18.6128837,-34.001502],[18.6128854,-34.0014717],[18.612887,-34.0014478],[18.6128518,-34.001447],[18.6128492,-34.0014119],[18.6128448,-34.0013769],[18.6128324,-34.0013366]]}},
{"type":"Feature","properties":{},"geometry":{"type":"LineString","coordinates":[[18.6092506,-34.0044808],[18.6092922,-34.0044858],[18.6093425,-34.0044891],[18.6093901,-34.0044863],[18.6094324,-34.004488],[18.6094666,-34.0044852],[18.6095034,-34.00448020000001],[18.6095155,-34.0044619],[18.6095128,-34.004433],[18.6095068,-34.0044124],[18.6095075,-34.0043807],[18.6095068,-34.0043557],[18.6095014,-34.004319800000012]]}},
{"type":"Feature","properties":{},"geometry":{"type":"LineString","coordinates":[[18.6118363,-34.0057711],[18.6118336,-34.0058038],[18.611841,-34.005836],[18.6118376,-34.0058838],[18.6118577,-34.0059149],[18.6118604,-34.0059488],[18.6118718,-34.0059944],[18.6118819,-34.0060328],[18.61191,-34.0060728],[18.6119248,-34.0060973],[18.6119436,-34.0061178],[18.6119912,-34.0061262],[18.6120267,-34.0061223],[18.6120683,-34.00612],[18.6121069,-34.0061172]]}},
{"type":"Feature","properties":{},"geometry":{"type":"LineString","coordinates":[[18.6101163,-34.0039363],[18.6100989,-34.0039379],[18.6100707,-34.0039438],[18.6100459,-34.003947899999986],[18.6100318,-34.0039402],[18.6100057,-34.0039382],[18.6099597,-34.003938499999983],[18.609948,-34.0039502],[18.6099286,-34.0039571],[18.6099068,-34.0039463],[18.6098964,-34.0039357],[18.6098836,-34.003929],[18.6098377,-34.0039227]]}},
{"type":"Feature","properties":{},"geometry":{"type":"LineString","coordinates":[[18.6098672,-34.0043387],[18.609895,-34.0043229],[18.6099266,-34.0043229],[18.6099634,-34.004319],[18.6100144,-34.0043118],[18.6100379,-34.0043207],[18.6100687,-34.004329],[18.6101063,-34.0043301],[18.6101136,-34.0043196],[18.6101069,-34.0042879],[18.6101063,-34.0042584],[18.6100972,-34.0042175],[18.6100908,-34.0041914],[18.6100848,-34.004157],[18.6100851,-34.00412],[18.6100814,-34.0040975],[18.6100811,-34.0040683],[18.610119,-34.0040663],[18.6101445,-34.0040611],[18.6101378,-34.0040291],[18.6101301,-34.0039899],[18.610119,-34.0039491],[18.6101163,-34.0039363],[18.6101111,-34.0039114]]}},
{"type":"Feature","properties":{},"geometry":{"type":"LineString","coordinates":[[18.6095309,-34.0038696],[18.6095541,-34.0038773],[18.6095839,-34.0038804],[18.6096158,-34.0038885],[18.6096466,-34.0038915],[18.6096744,-34.0038893],[18.6097069,-34.0038837],[18.6097318,-34.003879],[18.609766,-34.0038676],[18.6097874,-34.0038579],[18.6098045,-34.0038523],[18.609831,-34.0038559],[18.6098575,-34.003858699999988]]}},
{"type":"Feature","properties":{},"geometry":{"type":"LineString","coordinates":[[18.6094712,-34.0037375],[18.6094692,-34.0037587],[18.6094746,-34.0037931],[18.60949,-34.0038042],[18.6095088,-34.0038137],[18.6095195,-34.0038298],[18.6095222,-34.0038498],[18.6095309,-34.0038696],[18.6095292,-34.0039051],[18.6095158,-34.0039371],[18.6095121,-34.003968799999988],[18.6095118,-34.0040141],[18.6095085,-34.0040597],[18.6095091,-34.0041039],[18.6095222,-34.0041436],[18.6095299,-34.0041589],[18.6095408,-34.0041964],[18.6095551,-34.0042487],[18.6095614,-34.0043065],[18.609548,-34.004344]]}},
{"type":"Feature","properties":{},"geometry":{"type":"LineString","coordinates":[[18.609689,-34.0044573],[18.609717,-34.0044405],[18.6097552,-34.0044118],[18.6097857,-34.004404],[18.6098283,-34.004389],[18.6098203,-34.0043546],[18.6098672,-34.0043387],[18.6098682,-34.0043207],[18.6098625,-34.0042915],[18.6098565,-34.0042453],[18.6098511,-34.0042098],[18.6098468,-34.0041747],[18.6098394,-34.0041297],[18.6098417,-34.0040964],[18.6098431,-34.0040513],[18.6098421,-34.0040263],[18.6098149,-34.0040208],[18.6098136,-34.003992099999984],[18.6098206,-34.0039571],[18.6098256,-34.0039321],[18.6098377,-34.0039227],[18.6098454,-34.0039063],[18.6098508,-34.0038882],[18.6098575,-34.003858699999988],[18.6098588,-34.0038201],[18.6098712,-34.0038087],[18.6098823,-34.0037692],[18.6098893,-34.0037259],[18.609887,-34.003675],[18.6098384,-34.0036803],[18.6097998,-34.0036811],[18.609777,-34.0036853],[18.6097385,-34.0036906],[18.609716,-34.0037047],[18.6096717,-34.003722],[18.6096617,-34.0037348],[18.6096302,-34.0037492],[18.6096047,-34.003740899999983],[18.6095866,-34.0037275],[18.6095584,-34.0037342],[18.6095195,-34.0037448],[18.6094712,-34.0037375],[18.6094377,-34.0037231],[18.6094203,-34.003702],[18.6094183,-34.0036647],[18.6094129,-34.0036197],[18.6094002,-34.0035741],[18.6093881,-34.0035363],[18.60937,-34.0034852],[18.6093639,-34.0034496]]}},
{"type":"Feature","properties":{},"geometry":{"type":"LineString","coordinates":[[18.6104965,-34.0044496],[18.6105119,-34.0044624],[18.6105381,-34.00447960000001],[18.6105542,-34.0044963],[18.6105884,-34.0044919],[18.6106199,-34.004483],[18.6106347,-34.0045102],[18.6106554,-34.0045036],[18.6106735,-34.0045258],[18.6106876,-34.0045475],[18.6107044,-34.0045714],[18.6107138,-34.004593],[18.6107238,-34.004632],[18.6106984,-34.0046386],[18.6106702,-34.0046409],[18.6106259,-34.0046447],[18.6106347,-34.0046631],[18.6106119,-34.0046698],[18.610575,-34.0046764],[18.6105475,-34.0046803],[18.610514,-34.0046881],[18.6104757,-34.0046948],[18.6104435,-34.0047026],[18.610406,-34.0047081],[18.6103839,-34.004713700000011],[18.6103443,-34.0047203],[18.6103195,-34.0046926]]}},
{"type":"Feature","properties":{},"geometry":{"type":"LineString","coordinates":[[18.6103862,-34.0051045],[18.6104114,-34.0051061],[18.6104449,-34.0050989],[18.6104871,-34.0050933],[18.6105334,-34.0050917],[18.6105857,-34.0050933],[18.6106186,-34.0050917],[18.6106521,-34.0050967],[18.6107171,-34.0051078],[18.610748,-34.0051067],[18.6107748,-34.005099499999986],[18.610801,-34.0050928],[18.6108177,-34.0050828],[18.6108613,-34.0050772],[18.6109015,-34.0050694],[18.6109039,-34.0050494],[18.6109069,-34.0050252],[18.6109501,-34.0050222],[18.6109843,-34.005021099999986],[18.610987,-34.0050547],[18.6109914,-34.0050833],[18.6109981,-34.005125],[18.6110068,-34.0051717],[18.6109941,-34.0051745],[18.6109974,-34.0052067],[18.6110068,-34.005234],[18.6110041,-34.0052573],[18.6110115,-34.0052857],[18.6110068,-34.0053096],[18.6110196,-34.005345199999987],[18.6110236,-34.0053757],[18.6110336,-34.0054163],[18.611045,-34.0054602],[18.611037,-34.0054713],[18.6110142,-34.0054763],[18.6109874,-34.0054813],[18.6109458,-34.00549250000001],[18.6109471,-34.005506899999986],[18.6109096,-34.0055158],[18.6108586,-34.0055286],[18.6108264,-34.0055408],[18.6107795,-34.0055542],[18.6107574,-34.0055608],[18.6107614,-34.005582499999988],[18.6107017,-34.0055936],[18.6107118,-34.005621399999988],[18.6107037,-34.0056287],[18.6106682,-34.0056392],[18.6106393,-34.0056464],[18.6106173,-34.0056537]]}},
{"type":"Feature","properties":{},"geometry":{"type":"LineString","coordinates":[[18.6101291,-34.004783],[18.6101679,-34.0047637],[18.6102156,-34.0047342],[18.6102531,-34.004722],[18.610286,-34.0047103],[18.6103195,-34.0046926],[18.6103477,-34.0046792],[18.6103805,-34.0046625],[18.6103772,-34.0046414],[18.6103664,-34.0045964],[18.6104047,-34.0045919],[18.6104335,-34.0045853],[18.6104362,-34.0045725],[18.6104308,-34.0045497],[18.6104234,-34.0045219],[18.6104181,-34.0044991],[18.6104161,-34.0044569],[18.6104449,-34.004454599999988],[18.6104965,-34.0044496],[18.6104945,-34.0043979]]}},
{"type":"Feature","properties":{},"geometry":{"type":"LineString","coordinates":[[18.614774,-34.0057537],[18.6147438,-34.0057482],[18.6147187,-34.0057529],[18.6146834,-34.0057562],[18.6146456,-34.00575760000001],[18.6146083,-34.0057621],[18.6145825,-34.0057637],[18.6145443,-34.0057646],[18.6144964,-34.005762299999986],[18.6144793,-34.0057573]]}},
{"type":"Feature","properties":{},"geometry":{"type":"LineString","coordinates":[[18.6143944,-34.005125600000014],[18.6144072,-34.0051884],[18.6144514,-34.0052206],[18.6144722,-34.0052818],[18.6145386,-34.0052696],[18.6145721,-34.005303499999989],[18.6146037,-34.0053507],[18.6146358,-34.0054102],[18.6146573,-34.0054641],[18.6146741,-34.0055203],[18.6146888,-34.0055714],[18.6147036,-34.0056103],[18.6147103,-34.0056587],[18.6147559,-34.005656399999985],[18.6148102,-34.0056537],[18.6148518,-34.0056526],[18.6148668,-34.0056734],[18.6148893,-34.0056845],[18.6149171,-34.0056998],[18.6149342,-34.0057298],[18.614949,-34.005754],[18.6149597,-34.0057685],[18.6149701,-34.005802399999986],[18.6149822,-34.0058388],[18.6149922,-34.0058766],[18.615004,-34.0058946],[18.6150194,-34.0059038],[18.6150278,-34.005931],[18.6150395,-34.0059683],[18.6150499,-34.0060128],[18.6150466,-34.006037199999987],[18.6150445,-34.0060658],[18.6150529,-34.0060978],[18.615069,-34.0061],[18.6150844,-34.0061417],[18.6150918,-34.0061501],[18.6150938,-34.0061679],[18.6150999,-34.0062195],[18.6151059,-34.0062618]]}},
{"type":"Feature","properties":{},"geometry":{"type":"LineString","coordinates":[[18.6149067,-34.0051195],[18.6149101,-34.0051409],[18.6149155,-34.0051778],[18.6149195,-34.0052215],[18.6149195,-34.0052682],[18.6149141,-34.0052979],[18.6149114,-34.005339],[18.6149094,-34.0053702],[18.6149121,-34.0054007],[18.6149067,-34.0054263],[18.6149047,-34.0054552],[18.6149034,-34.005480799999987],[18.6149054,-34.0055119],[18.6149047,-34.0055458],[18.6148792,-34.0055581],[18.6148544,-34.0055708],[18.6148518,-34.0056131],[18.6148518,-34.0056526],[18.6148363,-34.0057048],[18.6147881,-34.0057081],[18.6147793,-34.00573090000001],[18.614774,-34.0057537],[18.6147726,-34.0057854],[18.614774,-34.0058082],[18.6147659,-34.0058338],[18.6147438,-34.0058566],[18.614713,-34.0058771],[18.6146915,-34.0059077],[18.6146834,-34.0059388],[18.6146774,-34.0059894],[18.614664,-34.0060255],[18.6146439,-34.0060356],[18.6146372,-34.0060667],[18.6146352,-34.0060945],[18.6146352,-34.0061212],[18.6146318,-34.0061451],[18.6146325,-34.0061734],[18.6146325,-34.006204],[18.6146583,-34.0062992]]}},
{"type":"Feature","properties":{},"geometry":{"type":"LineString","coordinates":[[18.6161691,-34.0052448],[18.61616,-34.0052651],[18.6161681,-34.0052946],[18.6161734,-34.0053162],[18.6161841,-34.0053429],[18.6161868,-34.0053707],[18.6161922,-34.0053941],[18.6161962,-34.0054185],[18.6162043,-34.005448],[18.616213,-34.0054852]]}},
{"type":"Feature","properties":{},"geometry":{"type":"LineString","coordinates":[[18.6157074,-34.005623599999986],[18.6157449,-34.0056181],[18.6158033,-34.0056209],[18.6158589,-34.0056259],[18.6158931,-34.0056353],[18.6159541,-34.0056292],[18.6159796,-34.0056259],[18.6159763,-34.0055909],[18.6159689,-34.0055547],[18.6159689,-34.0055219],[18.6159709,-34.0054763],[18.6160091,-34.0054747],[18.6160541,-34.0054691],[18.616095,-34.0054669],[18.6161184,-34.0054674],[18.6161285,-34.00550470000001],[18.6161573,-34.005501899999985],[18.6161935,-34.0054936],[18.616213,-34.0054852],[18.6162566,-34.0055025]]}},
{"type":"Feature","properties":{},"geometry":{"type":"LineString","coordinates":[[18.6162173,-34.0046453],[18.6162281,-34.004667499999989],[18.6162465,-34.0047062],[18.6162552,-34.004735599999989],[18.616269,-34.0047565],[18.6162817,-34.0047795],[18.6162975,-34.0048101],[18.6163099,-34.004849],[18.616326,-34.0048891],[18.6163397,-34.0049185],[18.6163504,-34.0049394],[18.6163649,-34.0049683],[18.6164081,-34.0049538],[18.616446,-34.0049391],[18.6164826,-34.0049197]]}},
{"type":"Feature","properties":{},"geometry":{"type":"LineString","coordinates":[[18.6159269,-34.004292099999986],[18.6159488,-34.0043151],[18.6159655,-34.004344],[18.6159702,-34.004362900000011],[18.6159702,-34.0043829],[18.6159769,-34.004402399999989],[18.6159863,-34.004429099999989],[18.6159783,-34.0044346],[18.6159836,-34.0044557],[18.6160018,-34.0044813],[18.6160199,-34.0045041],[18.6160433,-34.0045386],[18.6160742,-34.004583],[18.616099,-34.0046136],[18.6161157,-34.0046417],[18.6161271,-34.004672]]}},
{"type":"Feature","properties":{},"geometry":{"type":"LineString","coordinates":[[18.6125786,-34.0044969],[18.6126078,-34.0044894],[18.6126339,-34.0044771],[18.6126664,-34.004473],[18.612709,-34.0044674],[18.6127482,-34.0044563],[18.6127979,-34.0044516],[18.6127955,-34.0044282],[18.6127838,-34.004379299999989],[18.6127727,-34.0043407],[18.6127653,-34.0043095],[18.6127627,-34.004279],[18.6127603,-34.0042453],[18.6127425,-34.0042398],[18.6127043,-34.0042314],[18.6127023,-34.0042003],[18.6127046,-34.0041508],[18.6127073,-34.0041169],[18.6127134,-34.0040794],[18.612764,-34.0040855],[18.6127744,-34.0040563],[18.6127881,-34.004001],[18.6128066,-34.0039404],[18.6128307,-34.0039402],[18.6128465,-34.0039338],[18.6128515,-34.0039007],[18.6128555,-34.0038609],[18.6128495,-34.0038504],[18.6128186,-34.0038443],[18.6127841,-34.003842],[18.6127955,-34.0038287],[18.6127995,-34.0038037],[18.6128139,-34.0037884],[18.6128133,-34.003758699999985],[18.6128119,-34.003725899999985],[18.6128106,-34.0036975],[18.612817,-34.0036744],[18.6128079,-34.0036586],[18.6127918,-34.0036389],[18.6127985,-34.0036241],[18.6127972,-34.0035863],[18.6127871,-34.003550499999989],[18.6127871,-34.0035146],[18.6127888,-34.0034693],[18.6128116,-34.0034654],[18.6128096,-34.0034401],[18.6128109,-34.0034023],[18.6128049,-34.0033292]]}},
{"type":"Feature","properties":{},"geometry":{"type":"LineString","coordinates":[[18.6127563,-34.0046431],[18.6127925,-34.0046397],[18.6128636,-34.004637],[18.6128696,-34.0046598],[18.6128844,-34.0046781],[18.6129105,-34.0046787],[18.6129688,-34.0046792],[18.6129709,-34.004710299999985],[18.6129762,-34.0047331],[18.6129782,-34.0047554],[18.612987,-34.004777],[18.6130426,-34.0047787],[18.6130352,-34.0048037]]}},
{"type":"Feature","properties":{},"geometry":{"type":"LineString","coordinates":[[18.6121742,-34.0040744],[18.6122001,-34.0040739],[18.6122282,-34.004073],[18.6122534,-34.0040761],[18.6122829,-34.0040791],[18.6122819,-34.0041064],[18.6122805,-34.0041353],[18.6122809,-34.0041678],[18.6122825,-34.0042],[18.6122866,-34.0042356],[18.6123094,-34.0042498],[18.6123459,-34.0042542],[18.612361,-34.004257],[18.6123627,-34.0042923],[18.61237,-34.004324599999983],[18.6123801,-34.0043473],[18.612415,-34.0043485],[18.6124633,-34.0043479],[18.6124827,-34.004352900000015],[18.6124793,-34.0043846],[18.6124948,-34.0044063],[18.6125088,-34.0044307],[18.6125209,-34.0044602],[18.6125538,-34.0044746],[18.6125786,-34.0044969],[18.6126228,-34.0045258],[18.6126443,-34.0045441],[18.6126772,-34.0045597],[18.6126839,-34.0045986],[18.6126906,-34.0046331],[18.6127214,-34.0046325],[18.6127563,-34.0046431],[18.6127523,-34.0046837],[18.6127489,-34.0047248],[18.6127563,-34.0047665],[18.6127838,-34.004771499999983],[18.6128039,-34.0047887],[18.6128361,-34.0048221],[18.6128716,-34.0048432],[18.6129192,-34.0048415]]}},
{"type":"Feature","properties":{},"geometry":{"type":"LineString","coordinates":[[18.6126249,-34.0031472],[18.6126681,-34.0031533],[18.612707,-34.0031558],[18.6127526,-34.0031636],[18.6127684,-34.0031744],[18.6128069,-34.0031725],[18.6128337,-34.0031639],[18.6128384,-34.0031422],[18.6128404,-34.003130199999987],[18.6128471,-34.003108],[18.6128837,-34.0031105],[18.6129273,-34.0031119],[18.6129269,-34.0030905],[18.6129645,-34.0030902],[18.6129997,-34.0030885],[18.6130151,-34.00307440000001],[18.6130517,-34.00307440000001],[18.613049,-34.0030452],[18.6130396,-34.0030129],[18.6130322,-34.0029874],[18.6130242,-34.002959],[18.6130185,-34.0029373],[18.6130118,-34.0029134],[18.612992,-34.002912],[18.6129833,-34.0028929],[18.6129766,-34.0028695],[18.6129544,-34.0028731],[18.6129259,-34.0028826],[18.6128964,-34.002889],[18.6128777,-34.0028845],[18.6128508,-34.002877],[18.6128337,-34.0028517],[18.6128214,-34.0028365]]}},
{"type":"Feature","properties":{},"geometry":{"type":"LineString","coordinates":[[18.6120254,-34.0025974],[18.6120408,-34.002626300000017],[18.6120589,-34.0026502],[18.612071,-34.0026775],[18.6120824,-34.0026991],[18.6120965,-34.0027258],[18.6121079,-34.0027436],[18.6121186,-34.0027631],[18.6121313,-34.00276860000001],[18.6121528,-34.0027742],[18.6121749,-34.0028003],[18.6121937,-34.0028209],[18.6122172,-34.0028342],[18.6122447,-34.0028395]]}},
{"type":"Feature","properties":{},"geometry":{"type":"LineString","coordinates":[[18.6121387,-34.0033557],[18.6121354,-34.0033184],[18.612138,-34.0032623],[18.6121467,-34.0032161],[18.6121669,-34.003181099999978],[18.6121689,-34.0031511],[18.6121575,-34.0031302],[18.6121518,-34.0031088],[18.6121514,-34.0030916],[18.6121702,-34.0030808],[18.6121789,-34.0030624],[18.6121739,-34.003043],[18.6121647,-34.0030199],[18.6121531,-34.003005],[18.6121342,-34.0029978],[18.6121183,-34.0029768],[18.6121038,-34.0029576],[18.612069,-34.0029726],[18.6120576,-34.0029612],[18.6120338,-34.0029732],[18.6120043,-34.002985699999989],[18.6119898,-34.002971],[18.6119647,-34.0029493],[18.6119463,-34.0029307],[18.6119292,-34.0029145],[18.611907,-34.0029048],[18.6118886,-34.0028906],[18.6118712,-34.0028648],[18.6118715,-34.002842],[18.6118517,-34.0028092],[18.6118376,-34.0027531],[18.6118215,-34.0027119],[18.6118054,-34.0026819],[18.6117726,-34.0026947],[18.6117417,-34.0027069],[18.6117028,-34.0027125],[18.6116673,-34.0027136],[18.611666,-34.002688],[18.6116693,-34.0026686],[18.6116607,-34.0026483]]}},
{"type":"Feature","properties":{},"geometry":{"type":"LineString","coordinates":[[18.6118678,-34.002405],[18.6118544,-34.0023981],[18.6118249,-34.002407],[18.6118165,-34.0023884],[18.6118088,-34.0023581],[18.6118018,-34.0023347],[18.6117836,-34.0023167],[18.6117649,-34.0022889],[18.6117545,-34.0022591],[18.6117491,-34.0022394],[18.6117414,-34.0022152],[18.611737,-34.002186],[18.611733,-34.0021538],[18.6117263,-34.0021149],[18.6117169,-34.0020768],[18.6117092,-34.002045699999989],[18.6117089,-34.002019799999985],[18.6117106,-34.0019959],[18.6117126,-34.0019787],[18.611723,-34.001969],[18.6117441,-34.0019595],[18.6117635,-34.0019512],[18.6117679,-34.0019378],[18.6117622,-34.00192],[18.6117481,-34.001902],[18.6117344,-34.00188450000001],[18.611726,-34.0018686],[18.6117131,-34.001843],[18.6117002,-34.0018133],[18.6116841,-34.0017838],[18.611666,-34.0017616],[18.6116438,-34.001731],[18.6116217,-34.0017049],[18.6115956,-34.001671],[18.6115791,-34.0016465],[18.6115523,-34.0016118],[18.6115332,-34.001589],[18.6115198,-34.00155620000001],[18.6115094,-34.0015267],[18.6115003,-34.0014864],[18.6114906,-34.0014556],[18.6114743,-34.0014375]]}},
{"type":"Feature","properties":{},"geometry":{"type":"LineString","coordinates":[[18.611319,-34.0020198],[18.6113421,-34.002012],[18.6113622,-34.0020051],[18.611388,-34.0019981],[18.6114132,-34.0019973],[18.6114239,-34.0020093],[18.6114611,-34.002004],[18.6114966,-34.001999499999989],[18.6115279,-34.0019961]]}},
{"type":"Feature","properties":{},"geometry":{"type":"LineString","coordinates":[[18.6113914,-34.0026477],[18.6113917,-34.0026255],[18.6113947,-34.0026041],[18.6114021,-34.0025813],[18.6114055,-34.0025574],[18.6114145,-34.0025413],[18.6114205,-34.0025254],[18.6114158,-34.0025032],[18.6114118,-34.002479],[18.6114179,-34.0024709],[18.6114363,-34.0024676],[18.6114618,-34.0024626],[18.6114682,-34.0024515],[18.6114628,-34.0024317],[18.6114544,-34.0024087],[18.6114494,-34.0024006],[18.6114397,-34.0023901],[18.6114343,-34.0023848],[18.6114269,-34.0023734],[18.6114095,-34.0023759],[18.6113904,-34.0023764],[18.6113625,-34.0023773],[18.6113632,-34.0023614],[18.6113555,-34.0023514],[18.6113495,-34.0023325],[18.6113475,-34.002311399999989],[18.6113491,-34.0022933],[18.6113528,-34.00228],[18.6113481,-34.0022661],[18.6113454,-34.00225],[18.6113414,-34.002224099999985],[18.6113585,-34.002220199999989],[18.6113843,-34.00221770000001],[18.6113783,-34.0021938],[18.6113753,-34.002168],[18.611385,-34.0021588],[18.6113863,-34.0021346],[18.611383,-34.0021171],[18.611378,-34.0020954],[18.6113709,-34.0020738],[18.6113629,-34.002056],[18.6113454,-34.0020343],[18.611319,-34.0020198],[18.6113069,-34.0020015],[18.6112968,-34.0019776],[18.6112858,-34.0019595],[18.6112472,-34.0019645],[18.6112081,-34.0019768]]}},
{"type":"Feature","properties":{},"geometry":{"type":"LineString","coordinates":[[18.611235,-34.0030428],[18.6112402,-34.0030285],[18.6112412,-34.0030085],[18.6112418,-34.0029865],[18.6112452,-34.0029662],[18.6112462,-34.0029451],[18.6112435,-34.00293090000001],[18.6112449,-34.00290480000001],[18.6112449,-34.0028812],[18.6112261,-34.0028826],[18.6111999,-34.00288230000001],[18.6111765,-34.0028815],[18.6111634,-34.0028812],[18.6111624,-34.002852],[18.6111577,-34.0028248],[18.6111808,-34.002822499999986],[18.6111771,-34.0027917],[18.6111768,-34.002754199999984],[18.6111731,-34.0027283]]}},
{"type":"Feature","properties":{},"geometry":{"type":"LineString","coordinates":[[18.6109069,-34.0025307],[18.6109381,-34.002529599999988],[18.6109793,-34.0025201],[18.6109971,-34.0025154],[18.6110427,-34.0025099],[18.6110631,-34.0025137],[18.6110876,-34.0025212],[18.6111047,-34.0025349],[18.6111071,-34.0025618],[18.6111104,-34.0025913],[18.6111128,-34.002614399999985],[18.6111486,-34.002618],[18.6111818,-34.0026119],[18.6112221,-34.0026166],[18.6112355,-34.0026277],[18.611266,-34.0026271],[18.6112972,-34.0026255],[18.6113133,-34.0026355],[18.6113468,-34.002638499999989],[18.6113776,-34.0026408],[18.6113914,-34.0026477],[18.6114031,-34.002658],[18.611434,-34.0026591],[18.6114734,-34.002657]]}},
{"type":"Feature","properties":{},"geometry":{"type":"LineString","coordinates":[[18.6098715,-34.0023368],[18.6099326,-34.0023353],[18.609996,-34.0023328],[18.6100469,-34.002335600000016],[18.6100912,-34.0023475],[18.6101549,-34.0023434],[18.610185,-34.0023356]]}},
{"type":"Feature","properties":{},"geometry":{"type":"LineString","coordinates":[[18.6100543,-34.0020854],[18.610063,-34.002106],[18.6100677,-34.0021171],[18.610066,-34.002143],[18.6100768,-34.0021627],[18.6101153,-34.002158],[18.6101364,-34.0021582],[18.6101552,-34.0021613]]}},
{"type":"Feature","properties":{},"geometry":{"type":"LineString","coordinates":[[18.6101982,-34.0024057],[18.6101954,-34.0023853],[18.6101918,-34.0023639],[18.610185,-34.0023356],[18.6101857,-34.0023145],[18.6101867,-34.0022847],[18.6101834,-34.002258],[18.6101686,-34.0022472],[18.6101599,-34.0022319],[18.6101576,-34.0022083],[18.6101529,-34.002183],[18.6101552,-34.0021613],[18.610175,-34.0021466],[18.6102021,-34.002148],[18.610228,-34.0021457],[18.6102531,-34.00214350000001],[18.6102773,-34.002141],[18.6102689,-34.002119100000016],[18.6102605,-34.0020979],[18.6102504,-34.0020668],[18.6102374,-34.0020334],[18.6102223,-34.0020282],[18.6102018,-34.0020271],[18.6101716,-34.0020329]]}},
{"type":"Feature","properties":{},"geometry":{"type":"LineString","coordinates":[[18.6098413,-34.002096599999987],[18.6098763,-34.0020927],[18.6099118,-34.0020882],[18.609949,-34.0020818],[18.6099825,-34.0020774],[18.6100114,-34.0020763],[18.6100385,-34.0020749],[18.6100543,-34.0020854],[18.6100781,-34.0020832],[18.6101016,-34.0020776],[18.6101348,-34.0020746],[18.6101623,-34.0020687],[18.610172,-34.0020576],[18.6101716,-34.0020329],[18.6101596,-34.0020109],[18.6101552,-34.001985599999983],[18.6101465,-34.001968699999985],[18.6101257,-34.0019687],[18.6101039,-34.0019623],[18.6101036,-34.0019353],[18.6100992,-34.0019067],[18.6101002,-34.0018731]]}},
{"type":"Feature","properties":{},"geometry":{"type":"LineString","coordinates":[[18.6098092,-34.0018408],[18.6098555,-34.001862],[18.6099118,-34.0018575],[18.6099701,-34.0018553],[18.6100211,-34.0018508],[18.6101009,-34.001841400000011],[18.6101002,-34.0018731],[18.6101465,-34.0018697],[18.6101854,-34.0018581],[18.6102263,-34.0018497],[18.6102907,-34.0018353],[18.6103356,-34.0018191],[18.6103597,-34.0018097],[18.6103879,-34.0018058]]}},
{"type":"Feature","properties":{},"geometry":{"type":"LineString","coordinates":[[18.6102477,-34.00249010000001],[18.6102826,-34.0024868],[18.6103128,-34.002486800000014],[18.610341,-34.0024809],[18.6103698,-34.0024698],[18.6103993,-34.002464299999986],[18.6104328,-34.0024559],[18.61047,-34.00244510000001],[18.610518,-34.0024292],[18.6105119,-34.0024109],[18.6105005,-34.0023778]]}},
{"type":"Feature","properties":{},"geometry":{"type":"LineString","coordinates":[[18.6100607,-34.0030132],[18.6100848,-34.0029946],[18.610111,-34.0029949],[18.6101378,-34.0029946],[18.6101626,-34.0029932],[18.6101944,-34.0029926],[18.610242,-34.002989],[18.6102786,-34.0029893],[18.6103041,-34.0029907],[18.6103302,-34.0029879],[18.6103309,-34.0029665],[18.6103255,-34.0029393],[18.6103218,-34.0029201],[18.6103148,-34.0028931]]}},
{"type":"Feature","properties":{},"geometry":{"type":"LineString","coordinates":[[18.6099603,-34.0030157],[18.6099966,-34.003014],[18.6100265,-34.0030132],[18.6100607,-34.0030132],[18.610064,-34.0030346],[18.6100657,-34.0030505],[18.6100875,-34.0030524],[18.61012,-34.0030505],[18.6101475,-34.0030546],[18.61018,-34.0030621],[18.6101924,-34.0030783],[18.6101961,-34.0031019],[18.6102048,-34.003135],[18.6102186,-34.0031469],[18.6102236,-34.0031736],[18.6102263,-34.0032133],[18.610227,-34.0032384],[18.6102397,-34.0032567],[18.6102598,-34.003265],[18.6102695,-34.0032756],[18.6102709,-34.0032926],[18.6102739,-34.0033181],[18.6102739,-34.0033545],[18.6102816,-34.0033787],[18.6102883,-34.003404]]}},
{"type":"Feature","properties":{},"geometry":{"type":"LineString","coordinates":[[18.6105542,-34.0030338],[18.6105827,-34.0030318],[18.6106098,-34.003029900000016],[18.610642,-34.0030271],[18.6106896,-34.0030257],[18.6106963,-34.0030057],[18.610699,-34.002985399999986],[18.6107379,-34.0029888],[18.6107795,-34.0029924],[18.6107842,-34.0029765],[18.6107879,-34.002959],[18.6108358,-34.0029671],[18.6108757,-34.0029693],[18.6109076,-34.002982099999983]]}},
{"type":"Feature","properties":{},"geometry":{"type":"LineString","coordinates":[[18.6106883,-34.002708],[18.6107238,-34.0027002],[18.6107621,-34.0026975],[18.6107916,-34.002698],[18.6108358,-34.0026941],[18.6108378,-34.0027097],[18.6108653,-34.002705800000015],[18.6108901,-34.0027019],[18.6109143,-34.002698]]}},
{"type":"Feature","properties":{},"geometry":{"type":"LineString","coordinates":[[18.6105414,-34.0028509],[18.6105984,-34.002846399999989],[18.6106259,-34.0028403],[18.6106648,-34.0028392],[18.6107131,-34.0028353],[18.6107031,-34.00280140000001],[18.6107004,-34.0027692],[18.610697,-34.0027353],[18.6106883,-34.002708],[18.6106863,-34.0026819],[18.6106843,-34.0026441],[18.6106782,-34.0026241],[18.6106568,-34.0026241],[18.6106447,-34.0026002],[18.6106326,-34.0025691],[18.61063,-34.0025351],[18.610691,-34.0025196]]}},
{"type":"Feature","properties":{},"geometry":{"type":"LineString","coordinates":[[18.61087,-34.0024115],[18.6108452,-34.0024106],[18.6108197,-34.0024128],[18.6107862,-34.00241840000001],[18.6107788,-34.0023973],[18.6107681,-34.0023706],[18.6107312,-34.0023767],[18.6106923,-34.0023851],[18.6106675,-34.0023939],[18.6106776,-34.002417899999983],[18.6106367,-34.002425099999989]]}},
{"type":"Feature","properties":{},"geometry":{"type":"LineString","coordinates":[[18.6105234,-34.0033978],[18.6105267,-34.0033573],[18.6105347,-34.0033151],[18.6105549,-34.0032906],[18.6105803,-34.0032706],[18.6105958,-34.0032439],[18.6106065,-34.0032144],[18.6106051,-34.0031783],[18.6106078,-34.0031411],[18.6106011,-34.0031188],[18.6105984,-34.00309330000001],[18.6105756,-34.0030899],[18.6105602,-34.0030844],[18.6105562,-34.0030688],[18.6105535,-34.0030477],[18.6105542,-34.0030338],[18.6105545,-34.0030266],[18.6105559,-34.0029949],[18.6105515,-34.0029635],[18.6105495,-34.0029323],[18.6105455,-34.0028998],[18.6105414,-34.0028509],[18.6105126,-34.0028517],[18.6104643,-34.0028495],[18.610465,-34.00282090000001],[18.6104633,-34.0027884],[18.6104566,-34.0027586],[18.6104519,-34.0027269],[18.6104321,-34.0027242],[18.6104107,-34.002724699999987],[18.6103889,-34.0027333],[18.6103674,-34.0027378],[18.6103366,-34.0027461],[18.6103265,-34.0027225],[18.6103192,-34.0027002],[18.6103068,-34.0026713],[18.6102876,-34.0026313],[18.6102793,-34.002603499999985],[18.6102679,-34.0025716],[18.6102581,-34.0025413],[18.6102484,-34.0025124],[18.6102477,-34.00249010000001],[18.6102431,-34.0024779],[18.6102327,-34.0024707],[18.610207,-34.0024733],[18.6101883,-34.0024643]]}},
{"type":"Feature","properties":{},"geometry":{"type":"LineString","coordinates":[[18.6108373,-34.0021595],[18.6108479,-34.0021833],[18.6108549,-34.0022058],[18.6108593,-34.0022347],[18.6108596,-34.0022605],[18.6108657,-34.0022875],[18.6108693,-34.002310799999982],[18.6108714,-34.0023347],[18.610873,-34.0023653],[18.610867,-34.0023851],[18.61087,-34.0024115],[18.6108717,-34.0024443],[18.6108831,-34.002458400000016],[18.6108888,-34.0024812],[18.6108978,-34.0025062],[18.6109069,-34.0025307],[18.6109066,-34.0025502],[18.6109076,-34.0025699],[18.6109116,-34.0025891],[18.6109206,-34.002608],[18.6109361,-34.0026091],[18.6109615,-34.002605699999989],[18.61099,-34.002606],[18.6110142,-34.0026049],[18.6110467,-34.0026019],[18.611048,-34.0026171],[18.6110712,-34.0026155],[18.6110933,-34.002613],[18.6111128,-34.002614399999985],[18.6111064,-34.0026466],[18.611105,-34.0026694],[18.6110651,-34.0026686],[18.6110219,-34.0026702],[18.610986,-34.0026711],[18.6109532,-34.002675],[18.6109146,-34.0026769],[18.6109143,-34.002698],[18.6109149,-34.0027236],[18.6109186,-34.0027506],[18.6109468,-34.0027442],[18.6109776,-34.002745],[18.6109766,-34.0027695],[18.6109797,-34.002798599999984],[18.6109867,-34.0028287],[18.6109917,-34.002856199999982],[18.6109954,-34.0028809],[18.6109988,-34.0029101],[18.6110028,-34.0029293],[18.6110075,-34.0029501],[18.6110115,-34.002980399999984],[18.6109515,-34.0029785],[18.6109076,-34.002982099999983],[18.6108972,-34.0030154],[18.6108915,-34.003036],[18.6108854,-34.0030577],[18.6108821,-34.003086],[18.6108801,-34.0031116],[18.6108774,-34.0031366],[18.6108693,-34.0031594],[18.610862,-34.00317780000001],[18.610864,-34.0032056],[18.6108673,-34.0032361],[18.6108834,-34.00325],[18.6108989,-34.0032589],[18.6108948,-34.0033089],[18.6108908,-34.0033479],[18.6108875,-34.0033867]]}},
{"type":"Feature","properties":{},"geometry":{"type":"LineString","coordinates":[[18.6106849,-34.0021802],[18.6106752,-34.002148],[18.6106685,-34.0021249],[18.6106554,-34.002104],[18.6106373,-34.0021079],[18.6106132,-34.0021163],[18.610579,-34.0021293],[18.6105522,-34.002138],[18.6105144,-34.0021423]]}},
{"type":"Feature","properties":{},"geometry":{"type":"LineString","coordinates":[[18.6108072,-34.0021692],[18.610804,-34.0021499],[18.6107825,-34.0021232],[18.6107704,-34.0020971],[18.6107554,-34.0020743],[18.6107369,-34.0020337],[18.6107369,-34.0020157],[18.6107315,-34.001991899999986]]}},
{"type":"Feature","properties":{},"geometry":{"type":"LineString","coordinates":[[18.6105892,-34.0020016],[18.6105874,-34.0019748],[18.6105723,-34.0019342],[18.6105515,-34.0018964],[18.6105327,-34.0018628],[18.61052,-34.0018406],[18.6104848,-34.00185],[18.6104419,-34.0018606],[18.610413,-34.001867]]}},
{"type":"Feature","properties":{},"geometry":{"type":"LineString","coordinates":[[18.6104611,-34.002025],[18.6104492,-34.0019954],[18.6104399,-34.0019642],[18.6104281,-34.0019145],[18.610413,-34.001867],[18.6104013,-34.0018325],[18.6103879,-34.0018058],[18.6103845,-34.0017744],[18.6103711,-34.0017255],[18.6104083,-34.001718],[18.6104412,-34.0017085],[18.6104583,-34.001693],[18.6104784,-34.0016599],[18.6104737,-34.001619299999987],[18.6104583,-34.0015879],[18.6104475,-34.0015565]]}},
{"type":"Feature","properties":{},"geometry":{"type":"LineString","coordinates":[[18.6159109,-34.0047084],[18.6159401,-34.004723099999985],[18.6159562,-34.0047559],[18.6159635,-34.0048021],[18.6159609,-34.0048193],[18.6159743,-34.0048554],[18.6159897,-34.0049077],[18.6160142,-34.0049638]]}},
{"type":"Feature","properties":{},"geometry":{"type":"LineString","coordinates":[[18.6144307,-34.0032894],[18.614432,-34.0033281],[18.6144387,-34.003377899999983],[18.6144424,-34.0034401],[18.6144404,-34.0034624],[18.6144018,-34.0034627],[18.6143612,-34.0034607],[18.6143602,-34.0034827],[18.6143633,-34.0035049],[18.614368,-34.0035299],[18.6143669,-34.0035855],[18.614384,-34.0035888],[18.6144129,-34.0035886],[18.6144501,-34.0035888],[18.6144635,-34.0035925],[18.6144773,-34.0036044],[18.6145316,-34.0036052],[18.6145651,-34.0036089],[18.614601,-34.003609400000016],[18.6146419,-34.003611099999986],[18.6146667,-34.0036125]]}},
{"type":"Feature","properties":{},"geometry":{"type":"LineString","coordinates":[[18.6140865,-34.0038945],[18.6141108,-34.0038726],[18.6141483,-34.0038532],[18.6141886,-34.0038432],[18.6142355,-34.0038448],[18.6142664,-34.0038415],[18.6143006,-34.0038465],[18.6143408,-34.0038476],[18.6143911,-34.00385210000001],[18.6144226,-34.0038509],[18.6144488,-34.0038498],[18.614493,-34.0038487]]}},
{"type":"Feature","properties":{},"geometry":{"type":"LineString","coordinates":[[18.612124,-34.005784599999984],[18.6121756,-34.0057812],[18.6122239,-34.0057787],[18.6122661,-34.0057785],[18.6123023,-34.0057776],[18.6123358,-34.005776],[18.6123801,-34.005771],[18.6123791,-34.0057559],[18.6124016,-34.0057512],[18.6124311,-34.005750699999986],[18.6124676,-34.0057477],[18.6124973,-34.005745],[18.6125273,-34.0057468],[18.6125546,-34.0057439],[18.6125779,-34.0057426],[18.6126052,-34.0057411],[18.6126171,-34.005733],[18.6126228,-34.0057156]]}},
{"type":"Feature","properties":{},"geometry":{"type":"LineString","coordinates":[[18.6125162,-34.0059402],[18.6125206,-34.0059119],[18.6125316,-34.005876],[18.6125347,-34.0058499],[18.612533,-34.005814],[18.6125293,-34.0057782],[18.6125273,-34.0057468]]}},
{"type":"Feature","properties":{},"geometry":{"type":"LineString","coordinates":[[18.6126175,-34.0064649],[18.6126175,-34.0064475],[18.6126181,-34.0063969],[18.6126215,-34.0063457],[18.6126208,-34.0063107],[18.6126235,-34.0062701],[18.6126262,-34.0062296],[18.6126289,-34.0061817],[18.6126242,-34.006132],[18.6126342,-34.0061187],[18.6126259,-34.00608],[18.6126198,-34.0060453],[18.6126168,-34.0060183],[18.6126141,-34.0059902],[18.6126081,-34.0059694],[18.6126091,-34.0059566],[18.6125806,-34.0059502],[18.6125558,-34.005947399999989],[18.6125162,-34.0059402],[18.6125092,-34.0059522],[18.6124857,-34.005950800000015],[18.612479,-34.0059855],[18.6124767,-34.0060155],[18.6124757,-34.0060611],[18.6124441,-34.0060603],[18.6123992,-34.0060661],[18.6123637,-34.0060658],[18.6123345,-34.0060709],[18.6123084,-34.006075],[18.6122688,-34.0060778],[18.6122329,-34.006085],[18.6122088,-34.0060909],[18.6121944,-34.0061031],[18.6121836,-34.0061114],[18.6121444,-34.006115],[18.6121069,-34.0061172]]}},
{"type":"Feature","properties":{},"geometry":{"type":"LineString","coordinates":[[18.6135455,-34.0014054],[18.6135408,-34.001372800000013],[18.6135405,-34.0013425],[18.6135311,-34.0013097],[18.6135244,-34.0012769],[18.6135083,-34.0012277],[18.6134939,-34.0012021],[18.6134925,-34.0011704],[18.6134946,-34.0011259],[18.6134925,-34.0010673],[18.6134865,-34.0010203],[18.6135335,-34.000997],[18.6135522,-34.0009686],[18.6135589,-34.0009408],[18.6135516,-34.000905199999984],[18.6135422,-34.0008702],[18.6135294,-34.000848],[18.6135542,-34.0008413],[18.6135898,-34.0008269],[18.6136374,-34.0008052],[18.6136719,-34.000783]]}},
{"type":"Feature","properties":{},"geometry":{"type":"LineString","coordinates":[[18.6133793,-34.0017052],[18.6134231,-34.0017055],[18.613463,-34.0017074],[18.6135023,-34.0017063],[18.6135459,-34.001701],[18.6135697,-34.0016893],[18.6136146,-34.0016877],[18.6136525,-34.0016793],[18.6136659,-34.0016543],[18.6136652,-34.001624600000014],[18.6136713,-34.0016026],[18.6136659,-34.001575699999989],[18.6136593,-34.001507599999989],[18.6136538,-34.0014688],[18.6136188,-34.001471],[18.6135819,-34.0014732],[18.6135787,-34.0014214],[18.6135727,-34.0014017]]}},
{"type":"Feature","properties":{},"geometry":{"type":"LineString","coordinates":[[18.613989,-34.001786],[18.613975,-34.0017816],[18.6139492,-34.0017716],[18.6139311,-34.0017544]]}},
{"type":"Feature","properties":{},"geometry":{"type":"LineString","coordinates":[[18.6140235,-34.0015849],[18.6140129,-34.0016079],[18.6139978,-34.0016335],[18.613966,-34.0016449],[18.6139549,-34.0016657],[18.6139432,-34.0016907],[18.6139344,-34.0017208],[18.6139311,-34.0017544],[18.6139036,-34.0017619],[18.6138798,-34.0017627],[18.6138587,-34.0017563],[18.6138453,-34.0017402],[18.6138386,-34.0017116],[18.6138245,-34.0016738],[18.6138164,-34.001634],[18.6138007,-34.001601],[18.6137943,-34.0015879],[18.613794,-34.001560099999985],[18.6137916,-34.0015298],[18.6137923,-34.0014798],[18.6137906,-34.0014167],[18.6138044,-34.001376399999984]]}},
{"type":"Feature","properties":{},"geometry":{"type":"LineString","coordinates":[[18.6139391,-34.0020118],[18.6139683,-34.001997],[18.6139894,-34.00198480000001]]}},
{"type":"Feature","properties":{},"geometry":{"type":"LineString","coordinates":[[18.6137636,-34.0021214],[18.6137886,-34.0020915],[18.6138101,-34.0020751],[18.6138419,-34.0020554],[18.6138902,-34.0020348],[18.6139391,-34.0020118],[18.6139328,-34.001990099999986],[18.6139385,-34.0019787]]}},
{"type":"Feature","properties":{},"geometry":{"type":"LineString","coordinates":[[18.6141202,-34.0019178],[18.6141517,-34.0019334],[18.6141695,-34.001949499999988],[18.6141909,-34.0019956],[18.6142214,-34.0019954],[18.6142516,-34.001989],[18.6142929,-34.0019834],[18.6143022,-34.0019848],[18.61431,-34.0019573],[18.6143509,-34.001952],[18.6143891,-34.0019413]]}},
{"type":"Feature","properties":{},"geometry":{"type":"LineString","coordinates":[[18.6140863,-34.0020401],[18.6140971,-34.0020604],[18.6141091,-34.0020849],[18.6141252,-34.002099299999983],[18.614153,-34.0021077],[18.6141661,-34.0021288],[18.6141802,-34.0021585],[18.6141903,-34.0021705],[18.614205,-34.0021744],[18.6142312,-34.0021781]]}},
{"type":"Feature","properties":{},"geometry":{"type":"LineString","coordinates":[[18.614199,-34.001716],[18.6141933,-34.0017341],[18.6141708,-34.0017655],[18.6141514,-34.0017908],[18.6141353,-34.0018219],[18.6141276,-34.0018472],[18.6141219,-34.001892],[18.6141202,-34.0019178],[18.6141085,-34.0019262],[18.6141017,-34.0019423],[18.6141041,-34.0019673],[18.6141054,-34.0019968],[18.6140994,-34.0020207],[18.6140863,-34.0020401],[18.6140595,-34.002046],[18.6140337,-34.0020476]]}},
{"type":"Feature","properties":{},"geometry":{"type":"LineString","coordinates":[[18.6143408,-34.0017488],[18.6143438,-34.0017716],[18.6143435,-34.001795799999989],[18.6143468,-34.0018242],[18.6143502,-34.0018444]]}},
{"type":"Feature","properties":{},"geometry":{"type":"LineString","coordinates":[[18.6140668,-34.001659899999986],[18.6140893,-34.0016688],[18.6141212,-34.0016824],[18.6141624,-34.0016994],[18.614199,-34.001716],[18.6142426,-34.001733299999984],[18.614261,-34.0017352],[18.6142965,-34.0017455],[18.6143408,-34.0017488],[18.6143639,-34.001743500000011],[18.614381,-34.0017369],[18.6143921,-34.001728],[18.6143897,-34.0017146]]}},
{"type":"Feature","properties":{},"geometry":{"type":"LineString","coordinates":[[18.6142483,-34.0014837],[18.6142419,-34.001507299999986],[18.6142184,-34.0015465],[18.6142087,-34.0015593],[18.614201,-34.0016007]]}},
{"type":"Feature","properties":{},"geometry":{"type":"LineString","coordinates":[[18.6148875,-34.0016678],[18.6148149,-34.0016407],[18.6148075,-34.0016724],[18.6147532,-34.0016646],[18.6146948,-34.0016585],[18.6146627,-34.0016746],[18.6146674,-34.0017296]]}},
{"type":"Feature","properties":{},"geometry":{"type":"LineString","coordinates":[[18.6145735,-34.001524],[18.6145648,-34.0015545],[18.614554,-34.0015751],[18.6145245,-34.0015923],[18.6145218,-34.0016185],[18.6145353,-34.001654],[18.61454,-34.001698]]}},
{"type":"Feature","properties":{},"geometry":{"type":"LineString","coordinates":[[18.6151797,-34.0017847],[18.6151559,-34.0017891],[18.6151569,-34.0018236],[18.61513,-34.0018211],[18.6151294,-34.0018661]]}},
{"type":"Feature","properties":{},"geometry":{"type":"LineString","coordinates":[[18.6152143,-34.0016441],[18.6152175,-34.0016668],[18.6152206,-34.0016957],[18.6152179,-34.0017324],[18.6151874,-34.0017288],[18.615182,-34.0017574],[18.6151797,-34.0017847],[18.6152018,-34.0017886],[18.6152313,-34.0018108],[18.6152601,-34.001813299999988],[18.6152994,-34.0018166],[18.6153476,-34.0018178],[18.615348,-34.0018417],[18.6153486,-34.001897],[18.6153795,-34.001897],[18.6154284,-34.0018973],[18.615472,-34.0018934],[18.615518,-34.0018895],[18.6155317,-34.0019164],[18.6155646,-34.0019687],[18.6155815,-34.0019946]]}},
{"type":"Feature","properties":{},"geometry":{"type":"LineString","coordinates":[[18.6156806,-34.0017555],[18.6156527,-34.0017424],[18.6156299,-34.0017399],[18.6156008,-34.0017405],[18.615576,-34.0017424],[18.6155434,-34.0017438],[18.6155159,-34.0017477]]}},
{"type":"Feature","properties":{},"geometry":{"type":"LineString","coordinates":[[18.6155656,-34.0022254],[18.6155092,-34.0022402],[18.6154787,-34.0022461],[18.6154677,-34.0022024],[18.6154321,-34.0022097],[18.6154288,-34.0021983],[18.6154103,-34.00220190000001],[18.6153765,-34.0022108],[18.6153366,-34.0022155],[18.6153091,-34.00221770000001],[18.6152662,-34.002218]]}},
{"type":"Feature","properties":{},"geometry":{"type":"LineString","coordinates":[[18.6156537,-34.0023769],[18.6156276,-34.0023909],[18.6155917,-34.0024051],[18.6155458,-34.00242260000001],[18.6155042,-34.0024379],[18.6154425,-34.002462],[18.6154264,-34.0024737],[18.6154405,-34.0025135],[18.6154474,-34.0025413]]}},
{"type":"Feature","properties":{},"geometry":{"type":"LineString","coordinates":[[18.6155133,-34.0028098],[18.6155619,-34.002795],[18.6156132,-34.0027806],[18.6156614,-34.0027695]]}},
{"type":"Feature","properties":{},"geometry":{"type":"LineString","coordinates":[[18.6155708,-34.0029568],[18.6155585,-34.0029262],[18.6155391,-34.0028898],[18.61553,-34.0028603],[18.6155133,-34.0028098],[18.6154992,-34.0027778],[18.6154906,-34.0027382],[18.6154851,-34.0027033],[18.6154827,-34.0026777]]}},
{"type":"Feature","properties":{},"geometry":{"type":"LineString","coordinates":[[18.6158561,-34.0026285],[18.6158955,-34.0026077],[18.615924,-34.0025974],[18.6159669,-34.0025743],[18.6160001,-34.0025599],[18.6160336,-34.0025443],[18.6160487,-34.002531],[18.6160742,-34.0025199],[18.6161113,-34.0025032],[18.6161436,-34.0024918],[18.6161784,-34.0024776],[18.6162009,-34.0024726],[18.6162432,-34.0024573]]}},
{"type":"Feature","properties":{},"geometry":{"type":"LineString","coordinates":[[18.6161774,-34.0019231],[18.6161577,-34.0019228],[18.6161298,-34.0019223],[18.6160866,-34.0019187],[18.6160624,-34.0019111],[18.6160524,-34.0019039],[18.616049,-34.0018872],[18.6160463,-34.0018636],[18.6160467,-34.0018428],[18.616037,-34.0018236],[18.6159991,-34.0018272],[18.6159753,-34.0018275],[18.6159327,-34.0018297],[18.6158935,-34.0018361],[18.615868,-34.0018428],[18.6158432,-34.0018464]]}},
{"type":"Feature","properties":{},"geometry":{"type":"LineString","coordinates":[[18.615902,-34.00153370000001],[18.6159163,-34.0015629],[18.615927,-34.0015826],[18.615931,-34.0016007],[18.6159511,-34.0016004],[18.615978,-34.00159510000001],[18.6160138,-34.0015946],[18.616037,-34.0015879],[18.6160537,-34.0015857],[18.6161191,-34.001583199999985],[18.6161506,-34.0015793],[18.6161925,-34.0015695],[18.6161962,-34.00153980000001],[18.6161986,-34.0015162],[18.6161986,-34.0014956],[18.6161882,-34.00147170000001],[18.6161821,-34.0014492],[18.6161761,-34.0014253],[18.6161634,-34.0014203]]}},
{"type":"Feature","properties":{},"geometry":{"type":"LineString","coordinates":[[18.6157826,-34.001568699999986],[18.6158301,-34.0015587],[18.615879,-34.0015434],[18.615902,-34.00153370000001],[18.6159166,-34.0015276],[18.6159585,-34.0014989],[18.6159696,-34.00148],[18.6160229,-34.0014675],[18.616051,-34.0014523],[18.6160782,-34.0014431],[18.6161161,-34.0014336],[18.6161503,-34.0014272],[18.6161634,-34.0014203],[18.6161432,-34.0014072],[18.6161288,-34.0013928],[18.6161124,-34.0013714],[18.6161097,-34.0013475],[18.6161111,-34.0013183],[18.6161043,-34.0012585],[18.6160916,-34.0012282]]}},
{"type":"Feature","properties":{},"geometry":{"type":"LineString","coordinates":[[18.6147183,-34.0015568],[18.6147337,-34.0015201],[18.6147418,-34.0014728],[18.6147515,-34.0014389],[18.6147649,-34.0013691],[18.6147277,-34.0013666],[18.6146717,-34.0013591],[18.6146707,-34.0013305],[18.6146667,-34.001289899999989],[18.6146603,-34.0012496],[18.6146358,-34.0012177],[18.6146368,-34.0011899],[18.6146395,-34.0011462],[18.614643,-34.0011321],[18.6146503,-34.0011031],[18.614666,-34.0010665],[18.6146811,-34.0010339],[18.6146761,-34.0010039],[18.6146781,-34.0009811],[18.6146754,-34.0009561],[18.6146409,-34.0009575],[18.6146469,-34.0009344],[18.6146459,-34.0008872],[18.614606,-34.0008897],[18.6145453,-34.000895],[18.6145396,-34.0008641],[18.6145319,-34.000826],[18.6145735,-34.0008194],[18.6145691,-34.0007838],[18.6145675,-34.0007595],[18.6145658,-34.0007332],[18.6146208,-34.0007307],[18.6146177,-34.0006915],[18.6146117,-34.0006384],[18.6146083,-34.0005959],[18.6145909,-34.000559499999987]]}},
{"type":"Feature","properties":{},"geometry":{"type":"LineString","coordinates":[[18.6121152,-34.0055986],[18.6120307,-34.0053418],[18.6117176,-34.0053785]]}},
{"type":"Feature","properties":{},"geometry":{"type":"LineString","coordinates":[[18.6162901,-34.0030766],[18.6163169,-34.0030716],[18.616325,-34.0030471],[18.616443,-34.0030327],[18.6164859,-34.003046],[18.6166254,-34.003016],[18.6169338,-34.0029393],[18.617202,-34.0027258],[18.6172094,-34.0026964]]}},
{"type":"Feature","properties":{},"geometry":{"type":"LineString","coordinates":[[18.6126135,-34.002559],[18.6126155,-34.002429],[18.6126396,-34.0022844],[18.6127053,-34.0022711]]}},
{"type":"Feature","properties":{},"geometry":{"type":"LineString","coordinates":[[18.610987,-34.0050547],[18.6110544,-34.0050394],[18.6110719,-34.0050027],[18.6110987,-34.004999400000017],[18.6111456,-34.0049583],[18.611336,-34.00492710000001],[18.6113656,-34.004876],[18.6113414,-34.0047337],[18.6113253,-34.004538],[18.6113929,-34.0043259],[18.611159,-34.0043868],[18.6109123,-34.0045158],[18.6109391,-34.0046069],[18.6107433,-34.0046692],[18.6107238,-34.004632]]}},
{"type":"Feature","properties":{},"geometry":{"type":"LineString","coordinates":[[18.6120841,-34.0019216],[18.6122158,-34.001829700000016],[18.6123928,-34.0018486],[18.6125042,-34.0018253],[18.6126584,-34.0017786],[18.6127653,-34.0017321]]}},
{"type":"Feature","properties":{},"geometry":{"type":"LineString","coordinates":[[18.6120307,-34.0053418],[18.6119771,-34.0050828]]}},
{"type":"Feature","properties":{},"geometry":{"type":"LineString","coordinates":[[18.6125209,-34.0044602],[18.6124921,-34.0045158],[18.6124009,-34.004518],[18.6124063,-34.0046359],[18.6124384,-34.0046559],[18.6124063,-34.0047826],[18.6124143,-34.0048204]]}},
{"type":"Feature","properties":{},"geometry":{"type":"LineString","coordinates":[[18.6126262,-34.0050894],[18.6126423,-34.0050094],[18.6126235,-34.004816]]}},
{"type":"Feature","properties":{},"geometry":{"type":"LineString","coordinates":[[18.6124223,-34.0049872],[18.6124143,-34.0048204],[18.6126235,-34.004816],[18.6127563,-34.0047665]]}},
{"type":"Feature","properties":{},"geometry":{"type":"LineString","coordinates":[[18.6117243,-34.0051],[18.6119771,-34.0050828],[18.6122721,-34.0049805],[18.6124223,-34.0049872],[18.6124197,-34.0050828],[18.6126262,-34.0050894],[18.612645,-34.0052095],[18.6129051,-34.0051695],[18.6129628,-34.0051662]]}},
{"type":"Feature","properties":{},"geometry":{"type":"LineString","coordinates":[[18.6165537,-34.0063087],[18.6165107,-34.006286],[18.6164812,-34.0062765],[18.6164369,-34.0062748],[18.6161372,-34.0062993],[18.6158569,-34.0063199],[18.6154343,-34.0063561],[18.6151676,-34.0063777],[18.6146666,-34.0064177],[18.6140357,-34.0064683],[18.6134329,-34.006516499999989]]}},
{"type":"Feature","properties":{},"geometry":{"type":"LineString","coordinates":[[18.616494,-34.0061414],[18.616445,-34.0061526],[18.616103,-34.0061837],[18.6157003,-34.006217599999985],[18.6154193,-34.0062375],[18.6151059,-34.0062618]]}},
{"type":"Feature","properties":{},"geometry":{"type":"LineString","coordinates":[[18.6133088,-34.0033073],[18.6133172,-34.0033401],[18.6133196,-34.003432700000012],[18.6133256,-34.00358580000001],[18.6132811,-34.0036295],[18.6132779,-34.0037034],[18.6132786,-34.003746],[18.6132964,-34.0037965],[18.6133181,-34.003874799999984],[18.6133303,-34.0038991],[18.6133331,-34.0040067],[18.613336,-34.0040424],[18.6133813,-34.0040992],[18.613408,-34.0041544],[18.6134932,-34.0041219],[18.6135174,-34.004158],[18.6135481,-34.0042529],[18.6135652,-34.0043149],[18.613592,-34.004403],[18.6135859,-34.0044184],[18.6135977,-34.0044999],[18.6135987,-34.0045765]]}},
{"type":"Feature","properties":{},"geometry":{"type":"LineString","coordinates":[[18.6146583,-34.0062992],[18.614479,-34.006313799999987]]}},
{"type":"Feature","properties":{},"geometry":{"type":"LineString","coordinates":[[18.6151059,-34.0062618],[18.61479,-34.0062876],[18.6146583,-34.0062992]]}},
{"type":"Feature","properties":{},"geometry":{"type":"LineString","coordinates":[[18.6144794,-34.0062804],[18.614428,-34.0062826],[18.6144139,-34.0062898],[18.6144072,-34.0063121],[18.6143918,-34.0063221],[18.6141438,-34.0063421],[18.6139363,-34.0063581],[18.6136785,-34.006381],[18.6133553,-34.0064036],[18.6131409,-34.0064199]]}},
{"type":"Feature","properties":{},"geometry":{"type":"LineString","coordinates":[[18.6126175,-34.0064649],[18.6123821,-34.0064827],[18.612189,-34.0064972],[18.6121414,-34.0064983]]}},
{"type":"Feature","properties":{},"geometry":{"type":"LineString","coordinates":[[18.6128711,-34.0064448],[18.6126175,-34.0064649]]}},
{"type":"Feature","properties":{},"geometry":{"type":"LineString","coordinates":[[18.6131409,-34.0064199],[18.6128711,-34.0064448]]}},
{"type":"Feature","properties":{},"geometry":{"type":"LineString","coordinates":[[18.6101689,-34.0067813],[18.6107382,-34.0067372],[18.611469,-34.0066776],[18.6119597,-34.006641799999983],[18.6119789,-34.0066457]]}},
{"type":"Feature","properties":{},"geometry":{"type":"LineString","coordinates":[[18.6121534,-34.0066256],[18.6120612,-34.00663],[18.6119967,-34.0066355],[18.6119789,-34.0066457]]}},
{"type":"Feature","properties":{},"geometry":{"type":"LineString","coordinates":[[18.6121414,-34.0064983],[18.6120999,-34.006498899999983],[18.6120032,-34.0065052],[18.611962,-34.0065084]]}},
{"type":"Feature","properties":{},"geometry":{"type":"LineString","coordinates":[[18.611962,-34.0065084],[18.6119119,-34.006518],[18.6116292,-34.006543499999985],[18.611268,-34.0065684],[18.6109784,-34.0065964],[18.6106518,-34.0066233],[18.6104492,-34.0066393]]}},
{"type":"Feature","properties":{},"geometry":{"type":"LineString","coordinates":[[18.6161271,-34.004672],[18.6162173,-34.0046453]]}},
{"type":"Feature","properties":{},"geometry":{"type":"LineString","coordinates":[[18.6134329,-34.006516499999989],[18.612883,-34.0065628],[18.6122594,-34.0066106],[18.6121534,-34.0066256]]}},
{"type":"Feature","properties":{},"geometry":{"type":"LineString","coordinates":[[18.6092458,-34.0068568],[18.6097154,-34.0068183]]}},
{"type":"Feature","properties":{},"geometry":{"type":"LineString","coordinates":[[18.6097154,-34.0068183],[18.6101689,-34.0067813]]}},
{"type":"Feature","properties":{},"geometry":{"type":"LineString","coordinates":[[18.6104492,-34.0066393],[18.6103747,-34.0066472],[18.6100727,-34.0066721],[18.6098932,-34.0066874],[18.6096252,-34.0067091],[18.609324,-34.006734],[18.6092015,-34.0067398],[18.609029,-34.006755699999985],[18.6088754,-34.006766],[18.6086724,-34.0067838],[18.6081809,-34.0068253],[18.6080396,-34.0068343],[18.6079567,-34.0068412]]}}
]
}
