{
"type": "FeatureCollection",
"name": "desire_lines_40972",
"crs": { "type": "name", "properties": { "name": "urn:ogc:def:crs:OGC:1.3:CRS84" } },
"features": [
{"type":"Feature","properties":{},"geometry":{"type":"LineString","coordinates":[[18.5803503,-33.9784841],[18.5804426,-33.9783811],[18.5804993,-33.9782975],[18.580432,-33.9782065],[18.5805134,-33.9781037],[18.5805488,-33.9780377],[18.5805596,-33.9779664],[18.580563,-33.9779437],[18.5805971,-33.9778933],[18.5806196,-33.9778601],[18.580694,-33.9777705],[18.5807347,-33.9776561],[18.580758,-33.9776144],[18.5807797,-33.9775737]]}},
{"type":"Feature","properties":{},"geometry":{"type":"LineString","coordinates":[[18.5796231,-33.9790446],[18.5796675,-33.9790479],[18.5797282,-33.9790361],[18.5797981,-33.979023],[18.5798338,-33.9790237],[18.5798846,-33.9790465],[18.579947,-33.9790589],[18.5799819,-33.9790658],[18.580011,-33.9790858],[18.580041,-33.9790955],[18.5800651,-33.9790858],[18.5800792,-33.9790575],[18.5801092,-33.979062399999989],[18.5801499,-33.9790672],[18.5801724,-33.9790534],[18.5801874,-33.9790141],[18.5802065,-33.9789458],[18.5802057,-33.9788975],[18.5802157,-33.9788609],[18.5802439,-33.9788251],[18.5802564,-33.978777499999985],[18.5802514,-33.9787333],[18.5802248,-33.978694],[18.5801982,-33.9786609],[18.5802065,-33.9786174],[18.5802273,-33.9785512],[18.5802458,-33.9784732]]}},
{"type":"Feature","properties":{},"geometry":{"type":"LineString","coordinates":[[18.5812656,-33.9774719],[18.5812963,-33.9775047],[18.581332,-33.9775344],[18.5813578,-33.9775709],[18.5814144,-33.977555099999989],[18.5814485,-33.9775758],[18.5814826,-33.977604],[18.5815126,-33.9775889],[18.5816482,-33.9775123],[18.5816174,-33.9774682],[18.581634,-33.9774557],[18.5816332,-33.9774012],[18.5816324,-33.977321199999984],[18.5816848,-33.9772888],[18.5817187,-33.977275]]}},
{"type":"Feature","properties":{},"geometry":{"type":"LineString","coordinates":[[18.5811291,-33.977533],[18.5811838,-33.9775095],[18.5812256,-33.9774916],[18.5812656,-33.9774719],[18.5812971,-33.9774564],[18.5813537,-33.9774288],[18.5814011,-33.9773971],[18.581441,-33.9773598],[18.5814377,-33.9773371],[18.5814127,-33.9773122],[18.5813678,-33.9772646]]}},
{"type":"Feature","properties":{},"geometry":{"type":"LineString","coordinates":[[18.5813828,-33.9780666],[18.5814385,-33.97804],[18.5814951,-33.9779779],[18.5815475,-33.9779076],[18.5815941,-33.9778634],[18.5816457,-33.9778179],[18.5816515,-33.977782],[18.5816598,-33.9777365],[18.5816889,-33.9776965]]}},
{"type":"Feature","properties":{},"geometry":{"type":"LineString","coordinates":[[18.5807347,-33.9776561],[18.5806848,-33.977642],[18.5806183,-33.9776247],[18.5805684,-33.9775965],[18.5805201,-33.9775647],[18.5804827,-33.9775233],[18.5804353,-33.9774737],[18.5803968,-33.9774422]]}},
{"type":"Feature","properties":{},"geometry":{"type":"LineString","coordinates":[[18.5802743,-33.9780525],[18.5801879,-33.978142],[18.5800959,-33.9782461],[18.5800435,-33.978296899999989],[18.5800887,-33.9783475],[18.5801041,-33.9783762],[18.5800962,-33.9784219]]}},
{"type":"Feature","properties":{},"geometry":{"type":"LineString","coordinates":[[18.5799126,-33.9779093],[18.5800135,-33.9779628],[18.5800643,-33.9779924],[18.5800925,-33.9779669],[18.5801466,-33.9779704],[18.5802098,-33.977991],[18.5802356,-33.9780125],[18.5802743,-33.9780525],[18.5803194,-33.9780992],[18.5803679,-33.9780705],[18.580406,-33.9780409],[18.580456,-33.9780158],[18.5805176,-33.9779756],[18.5805596,-33.9779664]]}},
{"type":"Feature","properties":{},"geometry":{"type":"LineString","coordinates":[[18.5809371,-33.9783169],[18.5810078,-33.9782304],[18.5810196,-33.9782037],[18.5810275,-33.9781858],[18.5811416,-33.9781064]]}},
{"type":"Feature","properties":{},"geometry":{"type":"LineString","coordinates":[[18.5812708,-33.9778215],[18.5811679,-33.9778588],[18.5811455,-33.9778331],[18.581021,-33.9778482],[18.581021,-33.977884199999984],[18.5810556,-33.9779401]]}},
{"type":"Feature","properties":{},"geometry":{"type":"LineString","coordinates":[[18.5810796,-33.978444],[18.5811632,-33.978380799999989],[18.5812067,-33.9783478],[18.5812397,-33.9783008],[18.5813545,-33.978237300000011],[18.5814281,-33.9782307]]}},
{"type":"Feature","properties":{},"geometry":{"type":"LineString","coordinates":[[18.5804993,-33.9782975],[18.5805626,-33.9783104],[18.5806103,-33.9782693],[18.5806724,-33.978209],[18.5807805,-33.9781263],[18.5808321,-33.9780814],[18.5808472,-33.978064199999984],[18.5808887,-33.978016599999989],[18.5809248,-33.9780276],[18.5809929,-33.9779983],[18.5810595,-33.9780394],[18.5810984,-33.9780297]]}},
{"type":"Feature","properties":{},"geometry":{"type":"LineString","coordinates":[[18.58116,-33.978545499999989],[18.5811341,-33.9784967],[18.5810796,-33.978444],[18.5810051,-33.9783718],[18.5809371,-33.9783169],[18.5808105,-33.9782146],[18.5808005,-33.9781883],[18.5807805,-33.9781263]]}},
{"type":"Feature","properties":{},"geometry":{"type":"LineString","coordinates":[[18.5794948,-33.9776081],[18.5795794,-33.9776268],[18.5796189,-33.977654],[18.5796726,-33.9776752],[18.5797551,-33.9776924],[18.5797852,-33.9776385],[18.5798241,-33.9776034]]}},
{"type":"Feature","properties":{},"geometry":{"type":"LineString","coordinates":[[18.5797448,-33.9771585],[18.5798154,-33.9771825],[18.57992,-33.9772386],[18.5799904,-33.9772831],[18.5799762,-33.9773031],[18.5799462,-33.9773454],[18.5798717,-33.9774466],[18.5798114,-33.9775172],[18.5797665,-33.9775156]]}},
{"type":"Feature","properties":{},"geometry":{"type":"LineString","coordinates":[[18.5802358,-33.9775689],[18.5802677,-33.9776012],[18.5802999,-33.977614],[18.5803431,-33.9776471],[18.580379,-33.9776768],[18.5804149,-33.9776968],[18.5804313,-33.9777041],[18.5804454,-33.9777163],[18.5804561,-33.9777294],[18.5804662,-33.977736]]}},
{"type":"Feature","properties":{},"geometry":{"type":"LineString","coordinates":[[18.5802922,-33.97752],[18.580209,-33.9774527],[18.5801996,-33.9774021],[18.5802285,-33.9773521],[18.5802767,-33.9772909],[18.5802962,-33.977242],[18.5803411,-33.9771892],[18.5803203,-33.9771374],[18.5803686,-33.9771041],[18.5804927,-33.9770424],[18.5805194,-33.9770168]]}},
{"type":"Feature","properties":{},"geometry":{"type":"LineString","coordinates":[[18.5812067,-33.9783478],[18.5811002,-33.97825730000001],[18.5810196,-33.9782037],[18.5809506,-33.9781589],[18.5809171,-33.9781328],[18.5808896,-33.9780933],[18.5808472,-33.978064199999984]]}},
{"type":"Feature","properties":{},"geometry":{"type":"LineString","coordinates":[[18.5808887,-33.978016599999989],[18.5808715,-33.977991],[18.5808373,-33.977968199999985],[18.5808239,-33.9779532],[18.5808487,-33.9779337],[18.5808965,-33.977891],[18.5809143,-33.9778748],[18.5809227,-33.977866],[18.5809349,-33.9778573],[18.5809667,-33.9778397]]}},
{"type":"Feature","properties":{},"geometry":{"type":"LineString","coordinates":[[18.5798885,-33.9779916],[18.579828,-33.9779938],[18.5797551,-33.9779955],[18.57962,-33.9779986],[18.5794462,-33.9779945],[18.5793825,-33.9779851]]}},
{"type":"Feature","properties":{},"geometry":{"type":"LineString","coordinates":[[18.5805971,-33.9778933],[18.580659,-33.9779232],[18.580724,-33.9779699],[18.5807703,-33.9780082]]}},
{"type":"Feature","properties":{},"geometry":{"type":"LineString","coordinates":[[18.5799762,-33.9773031],[18.5800769,-33.977366],[18.5801708,-33.9772726],[18.5801607,-33.9772492],[18.5801943,-33.9772159],[18.5802962,-33.977242]]}}
]
}
