{
"type": "FeatureCollection",
"name": "desire_lines_cv_40972",
"crs": { "type": "name", "properties": { "name": "urn:ogc:def:crs:OGC:1.3:CRS84" } },
"features": [
{"type":"Feature","properties":{},"geometry":{"type":"LineString","coordinates":[[18.582458049058911,-33.978157258681563],[18.582458049058911,-33.978128343768788],[18.582436591386795,-33.978099428846157],[18.582431226968765,-33.978072738139623],[18.582401722669601,-33.978037150517892],[18.582401722669601,-33.978032702064127],[18.582380264997482,-33.978014908246742],[18.582372218370434,-33.977992665969765]]}},
{"type":"Feature","properties":{},"geometry":{"type":"LineString","coordinates":[[18.580550998449326,-33.977042915313703],[18.580542951822284,-33.977036242554931],[18.580526858568192,-33.97700955151462],[18.580489307641983,-33.976973963447826],[18.580481261014938,-33.976958393663921]]}},
{"type":"Feature","properties":{},"geometry":{"type":"LineString","coordinates":[[18.581779450178146,-33.978464200995589],[18.581757992506027,-33.97847754628846],[18.581733852624893,-33.978481994718948],[18.581720441579819,-33.978506461082482],[18.58168825507164,-33.978537600080401]]}},
{"type":"Feature","properties":{},"geometry":{"type":"LineString","coordinates":[[18.579231351614002,-33.977532249529432],[18.579231351614002,-33.977523352568831],[18.579247444868091,-33.977507782885532],[18.579247444868091,-33.9774766435104],[18.579242080450058,-33.977469970785663],[18.579239398241043,-33.977432158668989],[18.579228669404987,-33.977414364725902],[18.579228669404987,-33.977389898048088]]}},
{"type":"Feature","properties":{},"geometry":{"type":"LineString","coordinates":[[18.579231351614002,-33.977532249529432],[18.579191118478775,-33.977534473769445],[18.579129427671432,-33.977527801049256],[18.579110652208328,-33.977530025289376],[18.579097241163257,-33.977541146489095]]}},
{"type":"Feature","properties":{},"geometry":{"type":"LineString","coordinates":[[18.581476360559464,-33.978486443149201],[18.581481724977493,-33.978477546288467],[18.581479042768478,-33.978415268237185],[18.581473678350449,-33.978404147151792],[18.581473678350449,-33.978390801847404],[18.581462949514389,-33.978377456540933],[18.581457585096359,-33.978352990140273],[18.581460267305374,-33.978337420608923],[18.581452220678329,-33.97832185107471]]}},
{"type":"Feature","properties":{},"geometry":{"type":"LineString","coordinates":[[18.5814656317234,-33.979004683680827],[18.581479042768478,-33.979011356285099],[18.581538051366806,-33.979011356285106],[18.581564873456955,-33.979024701492072],[18.581564873456955,-33.979033598295565],[18.581572920084,-33.979046943499036],[18.58159705996513,-33.979044719298592]]}},
{"type":"Feature","properties":{},"geometry":{"type":"LineString","coordinates":[[18.5814656317234,-33.97710074586778],[18.5814656317234,-33.977120764127321],[18.581479042768478,-33.977147455132737],[18.581487089395523,-33.977151903632816],[18.581521958112717,-33.977158576382521],[18.581532686948776,-33.977167473381293]]}},
{"type":"Feature","properties":{},"geometry":{"type":"LineString","coordinates":[[18.579966276884079,-33.976517990023858],[18.5799340903759,-33.976520214290403],[18.579926043748856,-33.976515765757263],[18.579899221658707,-33.976491298820839],[18.579899221658707,-33.976486850286193],[18.579864352941513,-33.976457934805282],[18.579848259687427,-33.976449037732259],[18.579826802015308,-33.976424570776643],[18.579799979925156,-33.97641567370011],[18.579781204462055,-33.976397879544272],[18.579762428998951,-33.976397879544272],[18.579754382371902,-33.976393431004738]]}},
{"type":"Feature","properties":{},"geometry":{"type":"LineString","coordinates":[[18.579510301351551,-33.978377456540919],[18.579510301351551,-33.978344093265569],[18.579526394605637,-33.978328523732586],[18.579537123441696,-33.978297384658056]]}},
{"type":"Feature","properties":{},"geometry":{"type":"LineString","coordinates":[[18.581192046403885,-33.97857096327985],[18.581181317567825,-33.978584308555945],[18.58118399977684,-33.978610999101861],[18.5811947286129,-33.978622120160175],[18.581213504076004,-33.978631017005796]]}},
{"type":"Feature","properties":{},"geometry":{"type":"LineString","coordinates":[[18.580789715051651,-33.978655483326435],[18.580776304006577,-33.97861767173702],[18.580752164125443,-33.978595429617748],[18.580738753080368,-33.978570963279843],[18.580730706453323,-33.978564290641003],[18.580717295408249,-33.978530927438953],[18.580709248781204,-33.978522030582859],[18.580709248781204,-33.978513133725855]]}},
{"type":"Feature","properties":{},"geometry":{"type":"LineString","coordinates":[[18.580105751752853,-33.978415268237178],[18.580116480588913,-33.978424165104443],[18.580135256052017,-33.978428613537723],[18.580164760351185,-33.97844418305236],[18.580183535814285,-33.97845975256417],[18.58019694685936,-33.978461976779904],[18.580204993486408,-33.97846864942678]]}},
{"type":"Feature","properties":{},"geometry":{"type":"LineString","coordinates":[[18.58219251036644,-33.977816951777093],[18.58218178153038,-33.977783588281767],[18.582173734903336,-33.977772467113738],[18.582157641649246,-33.97775689747607],[18.582130819559094,-33.97774800053898]]}},
{"type":"Feature","properties":{},"geometry":{"type":"LineString","coordinates":[[18.579837530851364,-33.977636788746779],[18.579850941896439,-33.977643461458399],[18.579864352941513,-33.977656806880091],[18.579877763986588,-33.977661255353546],[18.579896539449692,-33.977674600772438],[18.579912632703785,-33.977690170425184],[18.579920679330826,-33.977705740075073]]}},
{"type":"Feature","properties":{},"geometry":{"type":"LineString","coordinates":[[18.579547852277756,-33.97919374059903],[18.579512983560562,-33.979187068009068],[18.579462021589279,-33.97915148085378],[18.579440563917164,-33.979142584062657],[18.579419106245044,-33.979106996888753],[18.579386919736862,-33.979089203296219],[18.579378873109821,-33.979078082299004],[18.579346686601639,-33.979051391899731],[18.579344004392627,-33.979042495098106],[18.579330593347549,-33.979029149893918],[18.57931986451149,-33.979026925693034],[18.579271584749225,-33.979000235277688],[18.579250127077103,-33.978980217460695],[18.579220622777939,-33.978962423841615],[18.579191118478775,-33.978935733406033],[18.579172343015674,-33.978926836592301],[18.579153567552567,-33.978909042962066],[18.579126745462421,-33.978909042962073],[18.579107969999317,-33.978895697736938]]}},
{"type":"Feature","properties":{},"geometry":{"type":"LineString","coordinates":[[18.579598814249039,-33.978117222645871],[18.579596132040027,-33.978130567993198],[18.579585403203964,-33.978141689114373],[18.57956662774086,-33.978141689114373],[18.579545170068744,-33.978157258681563],[18.579534441232681,-33.978152810234093]]}},
{"type":"Feature","properties":{},"geometry":{"type":"LineString","coordinates":[[18.58105257153511,-33.976542456952608],[18.581041842699051,-33.976469056145255],[18.581033796072006,-33.976457934805275],[18.581033796072006,-33.976451262000587]]}},
{"type":"Feature","properties":{},"geometry":{"type":"LineString","coordinates":[[18.580880910158157,-33.977314273726655],[18.580891638994217,-33.977334291935939],[18.580926507711411,-33.977363207118792],[18.580945283174518,-33.977369879851906],[18.581025749444962,-33.977429934426304],[18.581065982580185,-33.977463298060428],[18.58107402920723,-33.977476643510407],[18.581084758043289,-33.9774766435104],[18.581098169088364,-33.977487764717132],[18.581127673387527,-33.977530025289383],[18.581138402223587,-33.977534473769438],[18.581141084432602,-33.977547819208247],[18.581149131059647,-33.977558940405657],[18.581151813268661,-33.977576734318475],[18.581159859895706,-33.977583407034835],[18.581170588731766,-33.977612322132963],[18.58118399977684,-33.977632340272059],[18.581186681985855,-33.977645685695499],[18.58120009303093,-33.977652358406445]]}},
{"type":"Feature","properties":{},"geometry":{"type":"LineString","coordinates":[[18.58207181096077,-33.97766347959017],[18.58206108212471,-33.977650134169515],[18.582047671079636,-33.977643461458392],[18.582034260034561,-33.977621219084241],[18.582023531198502,-33.977614546370873],[18.582002073526382,-33.977578958557324],[18.581972569227219,-33.977545594968603],[18.581959158182141,-33.97751445560732],[18.58194574713707,-33.97749888592238],[18.581926971673965,-33.977485540475904]]}},
{"type":"Feature","properties":{},"geometry":{"type":"LineString","coordinates":[[18.581208139657974,-33.976833835290016],[18.581175953149796,-33.976811592704053],[18.581159859895706,-33.976809368445124],[18.581149131059647,-33.976816041221703],[18.581138402223587,-33.976816041221703],[18.581119626760483,-33.976813816962895],[18.581114262342453,-33.976807144186168]]}},
{"type":"Feature","properties":{},"geometry":{"type":"LineString","coordinates":[[18.581261783838272,-33.977819176009653],[18.581259101629254,-33.977799157914554],[18.581248372793201,-33.977781364048276],[18.581245690584183,-33.97775689747607],[18.581237643957138,-33.977739103600946],[18.581210821866989,-33.977712412781294],[18.581202775239948,-33.977690170425184]]}},
{"type":"Feature","properties":{},"geometry":{"type":"LineString","coordinates":[[18.581269830465317,-33.97642901931453],[18.581275194883347,-33.97643346785221],[18.581277877092361,-33.976453486268873],[18.581302016973495,-33.976464607609451],[18.5813207924366,-33.976493523088081],[18.58134493231773,-33.976513541490604],[18.581363707780838,-33.976549129750133],[18.581387847661972,-33.976562475343613]]}},
{"type":"Feature","properties":{},"geometry":{"type":"LineString","coordinates":[[18.582195192575455,-33.977478867751863],[18.582189828157425,-33.977458849576635],[18.58218178153038,-33.977452176850505],[18.58217641711235,-33.977438831396697],[18.582149595022202,-33.977434382911611],[18.582138866186142,-33.977425485940763],[18.582136183977127,-33.977416588968993]]}},
{"type":"Feature","properties":{},"geometry":{"type":"LineString","coordinates":[[18.582390993833542,-33.979104772689894],[18.582380264997482,-33.979098100092969],[18.582377582788464,-33.979084754897521],[18.582364171743393,-33.97906918550018],[18.58233734965324,-33.979051391899723],[18.582315891981125,-33.979049167699408]]}},
{"type":"Feature","properties":{},"geometry":{"type":"LineString","coordinates":[[18.581527322530746,-33.978515357940189],[18.581548780202866,-33.978510909511449],[18.581564873456955,-33.978519806368709],[18.581564873456955,-33.978553169575108],[18.581551462411877,-33.978564290640996]]}},
{"type":"Feature","properties":{},"geometry":{"type":"LineString","coordinates":[[18.579105287790298,-33.978891249328086],[18.579089194536209,-33.978855662048993],[18.579065054655075,-33.978837868403843],[18.579032868146896,-33.978833419991979],[18.579000681638721,-33.978837868403858]]}},
{"type":"Feature","properties":{},"geometry":{"type":"LineString","coordinates":[[18.581707030534744,-33.976936151110543],[18.58172312378883,-33.976967290683646],[18.581749945878983,-33.976985084720297],[18.581755310297012,-33.976996205991327],[18.581784814596176,-33.977016224275481],[18.581795543432236,-33.977031794048798]]}},
{"type":"Feature","properties":{},"geometry":{"type":"LineString","coordinates":[[18.580620735883713,-33.977427710183562],[18.580628782510761,-33.977421037454995],[18.580631464719772,-33.977396570779092],[18.580642193555832,-33.977392122291803],[18.580669015645984,-33.977369879851899],[18.580674380064011,-33.97735431014052]]}},
{"type":"Feature","properties":{},"geometry":{"type":"LineString","coordinates":[[18.581747263669968,-33.978606550678116],[18.58172848820686,-33.978599878042083],[18.581701666116714,-33.978579860130807],[18.58168825507164,-33.978562066427941],[18.58168825507164,-33.978550945361768]]}},
{"type":"Feature","properties":{},"geometry":{"type":"LineString","coordinates":[[18.579730242490768,-33.976936151110536],[18.579641729593281,-33.976936151110543]]}},
{"type":"Feature","properties":{},"geometry":{"type":"LineString","coordinates":[[18.580510765314102,-33.976473504680854],[18.580510765314102,-33.976489074553541],[18.580524176359177,-33.976522438556891],[18.580542951822284,-33.976553578281525]]}},
{"type":"Feature","properties":{},"geometry":{"type":"LineString","coordinates":[[18.580269366502762,-33.976804919927126],[18.580280095338821,-33.97681604122171],[18.580290824174885,-33.976818265480453],[18.580339103937149,-33.976858302127866],[18.580376654863361,-33.976878320444492],[18.580384701490402,-33.976884993215677],[18.580387383699417,-33.97689611449978]]}},
{"type":"Feature","properties":{},"geometry":{"type":"LineString","coordinates":[[18.581513911485672,-33.976724846563151],[18.581527322530746,-33.976738192129062],[18.581540733575821,-33.976742640650563],[18.581543415784836,-33.976755986213668],[18.581554144620895,-33.97677378029455],[18.581570237874985,-33.976778228814183]]}},
{"type":"Feature","properties":{},"geometry":{"type":"LineString","coordinates":[[18.57890143990517,-33.976971739193168],[18.57889607548714,-33.976982860465917],[18.578904122114182,-33.977000654499321],[18.57890143990517,-33.977022897035823],[18.578914850950245,-33.977040691060843]]}},
{"type":"Feature","properties":{},"geometry":{"type":"LineString","coordinates":[[18.580905050039295,-33.976600287847099],[18.580878227949142,-33.976615857696594],[18.580846041440964,-33.976613633432549],[18.580837994813919,-33.976606960640083],[18.580829948186874,-33.976591390788968],[18.580827265977859,-33.976578045200021],[18.58082190155983,-33.976573596669908],[18.58082190155983,-33.976562475343613]]}},
{"type":"Feature","properties":{},"geometry":{"type":"LineString","coordinates":[[18.581546097993851,-33.977167473381286],[18.581591695547104,-33.977205285615703],[18.581605106592178,-33.977205285615703],[18.581618517637253,-33.977194164372037]]}},
{"type":"Feature","properties":{},"geometry":{"type":"LineString","coordinates":[[18.581908196210861,-33.978206191588498],[18.581900149583813,-33.978212864255433],[18.581889420747757,-33.978239554917977],[18.581870645284653,-33.978264021351265],[18.581878691911697,-33.978272918234367]]}},
{"type":"Feature","properties":{},"geometry":{"type":"LineString","coordinates":[[18.580778986215591,-33.976480177483786],[18.580770939588547,-33.976486850286193],[18.580728024244308,-33.976486850286186],[18.580719977617264,-33.976495747355258],[18.580725342035294,-33.976524662823309],[18.580736070871353,-33.976533559888423],[18.580749481916428,-33.976535784154549],[18.580754846334461,-33.976540232686652]]}},
{"type":"Feature","properties":{},"geometry":{"type":"LineString","coordinates":[[18.580103069543839,-33.978415268237185],[18.580073565244678,-33.978413044020222],[18.580054789781574,-33.97840192293453],[18.580030649900436,-33.978395250282432],[18.580014556646351,-33.978381904976651]]}},
{"type":"Feature","properties":{},"geometry":{"type":"LineString","coordinates":[[18.581272512674332,-33.978960199638983],[18.581280559301376,-33.978964648044204],[18.581307381391525,-33.97896687224673],[18.581334203481674,-33.978975769056284],[18.581361025571823,-33.978975769056277],[18.581382483243942,-33.978980217460695],[18.581387847661972,-33.978986890066878],[18.581411987543106,-33.978993562672549],[18.581438809633255,-33.978995786874329]]}},
{"type":"Feature","properties":{},"geometry":{"type":"LineString","coordinates":[[18.580784350633621,-33.979013580486416],[18.580768257379532,-33.979013580486402],[18.580752164125443,-33.979026925693027],[18.580730706453323,-33.979033598295558],[18.580717295408249,-33.979042495098092],[18.580671697854996,-33.979089203296233],[18.580658286809921,-33.979095875893869],[18.580655604600906,-33.97910699688876],[18.580644875764847,-33.979111445286314]]}},
{"type":"Feature","properties":{},"geometry":{"type":"LineString","coordinates":[[18.578877300024033,-33.978699967527731],[18.57889607548714,-33.978735554872024],[18.57890143990517,-33.978757796954632],[18.578912168741226,-33.978766693786042],[18.578936308622364,-33.978771142201417]]}},
{"type":"Feature","properties":{},"geometry":{"type":"LineString","coordinates":[[18.581876009702682,-33.977125212628813],[18.581884056329727,-33.977131885380594],[18.581894785165783,-33.977156352132667],[18.581910878419876,-33.977165249131694],[18.581921607255936,-33.977174146129755],[18.581921607255936,-33.977178594628455],[18.581940382719036,-33.97719194012312],[18.581953793764114,-33.977207509864257],[18.581959158182141,-33.977227528098666],[18.581967204809189,-33.977234200842432],[18.581967204809189,-33.977238649337991],[18.581985980272293,-33.977258667565053],[18.582002073526382,-33.977265340306374],[18.582007437944412,-33.977278685787425],[18.582026213407513,-33.97729203126638],[18.582026213407513,-33.977298704005079],[18.582066446542736,-33.977343188916322]]}},
{"type":"Feature","properties":{},"geometry":{"type":"LineString","coordinates":[[18.581173270940781,-33.97667368854114],[18.581135720014572,-33.976646997387007],[18.581111580133442,-33.976624754752144],[18.581092804670334,-33.976620306224483]]}},
{"type":"Feature","properties":{},"geometry":{"type":"LineString","coordinates":[[18.580226451158524,-33.9785798601308],[18.580234497785568,-33.978562066427934],[18.580234497785572,-33.978539824294103],[18.580242544412613,-33.978526479011038],[18.580247908830643,-33.978488667364246]]}},
{"type":"Feature","properties":{},"geometry":{"type":"LineString","coordinates":[[18.58219251036644,-33.977819176009653],[18.582230061292648,-33.977850315259332],[18.582240790128708,-33.97786588487989],[18.582278341054916,-33.977892575651367],[18.582278341054916,-33.977897024112472],[18.582297116518017,-33.977912593724469],[18.58231320977211,-33.97794373293992],[18.582334667444229,-33.977954854085546],[18.582369536161423,-33.977990441741746]]}},
{"type":"Feature","properties":{},"geometry":{"type":"LineString","coordinates":[[18.580414205789566,-33.978461976779911],[18.580483943223953,-33.97846864942678],[18.580489307641983,-33.978473097857737],[18.58056977391243,-33.978473097857737],[18.580596596002579,-33.978484218934099],[18.580604642629623,-33.978484218934106],[18.580618053674698,-33.978493115794151],[18.580655604600906,-33.978490891579234],[18.580669015645984,-33.978502012653259],[18.58069583773613,-33.978504236867906],[18.580709248781204,-33.978510909511449]]}},
{"type":"Feature","properties":{},"geometry":{"type":"LineString","coordinates":[[18.579512983560562,-33.977198612869678],[18.579542487859726,-33.977203061367085],[18.579555898904804,-33.977191940123134],[18.579563945531849,-33.977178594628455],[18.579561263322834,-33.977151903632823],[18.579545170068744,-33.977140782382172],[18.579547852277756,-33.977122988378106],[18.579539805650711,-33.977114091374681],[18.579523712396625,-33.977107418621479]]}},
{"type":"Feature","properties":{},"geometry":{"type":"LineString","coordinates":[[18.579260855913162,-33.978695519108662],[18.579260855913162,-33.97868439805994],[18.579255491495132,-33.978679949640039],[18.579252809286121,-33.978668828589278],[18.579244762659073,-33.978664380168567],[18.579236716032028,-33.978666604378951],[18.579228669404987,-33.978677725430011],[18.579247444868091,-33.978695519108669]]}},
{"type":"Feature","properties":{},"geometry":{"type":"LineString","coordinates":[[18.578702956438068,-33.977552267687379],[18.578721731901169,-33.977534473769445],[18.578721731901169,-33.97752112832854],[18.578735142946247,-33.97748998895829],[18.578751236200333,-33.977485540475897]]}},
{"type":"Feature","properties":{},"geometry":{"type":"LineString","coordinates":[[18.581648021936417,-33.976880544701615],[18.581637293100354,-33.976849405096736],[18.581618517637253,-33.976827162514837],[18.581613153219223,-33.97681381696291]]}},
{"type":"Feature","properties":{},"geometry":{"type":"LineString","coordinates":[[18.580390065908436,-33.976898338756421],[18.580422252416614,-33.976905011526021],[18.5804383456707,-33.976913908551332],[18.580481261014938,-33.976956169408844]]}},
{"type":"Feature","properties":{},"geometry":{"type":"LineString","coordinates":[[18.58259484171867,-33.978275142454983],[18.582608252763748,-33.978288487777533],[18.582645803689957,-33.978301833097973],[18.582683354616165,-33.978328523732579],[18.58268603682518,-33.978352990140273],[18.582680672407147,-33.97836855966878]]}},
{"type":"Feature","properties":{},"geometry":{"type":"LineString","coordinates":[[18.580711930990219,-33.978510909511456],[18.580736070871353,-33.978499788438576],[18.580752164125443,-33.978486443149208],[18.580797761678696,-33.978490891579234],[18.5808165371418,-33.978497564223815]]}},
{"type":"Feature","properties":{},"geometry":{"type":"LineString","coordinates":[[18.581631928682327,-33.977194164372023],[18.581648021936417,-33.977176370379148],[18.581645339727402,-33.977156352132674],[18.581631928682327,-33.97714523088262],[18.581629246473312,-33.977134109631081],[18.581607788801193,-33.9771185398765]]}},
{"type":"Feature","properties":{},"geometry":{"type":"LineString","coordinates":[[18.580003827810291,-33.977928163333623],[18.579987734556198,-33.97794373293992],[18.579974323511127,-33.97794373293992],[18.579963594675064,-33.977937060251854],[18.579923361539841,-33.977925939103919]]}},
{"type":"Feature","properties":{},"geometry":{"type":"LineString","coordinates":[[18.580111116170883,-33.976664791490698],[18.580073565244678,-33.976675912803614],[18.580052107572556,-33.976689258377185],[18.580030649900436,-33.976687034115074]]}},
{"type":"Feature","properties":{},"geometry":{"type":"LineString","coordinates":[[18.579250127077103,-33.977096297365023],[18.579231351614002,-33.97710297011907],[18.579223304986957,-33.977109642872612],[18.579223304986957,-33.977125212628813],[18.579217940568928,-33.977145230882613],[18.579209893941879,-33.977151903632823],[18.579207211732868,-33.977176370379141],[18.579191118478775,-33.977189715874154]]}},
{"type":"Feature","properties":{},"geometry":{"type":"LineString","coordinates":[[18.58218178153038,-33.978929060795821],[18.582149595022202,-33.978902370349758],[18.582141548395157,-33.9788845767144],[18.582114726305008,-33.978869007280394]]}},
{"type":"Feature","properties":{},"geometry":{"type":"LineString","coordinates":[[18.580250591039661,-33.976782677333588],[18.580250591039661,-33.976778228814183],[18.580237179994583,-33.976769331774662],[18.580223768949509,-33.97674708917183],[18.580204993486408,-33.976727070824289],[18.580178171396255,-33.976707052472044],[18.580164760351185,-33.97670705247203]]}},
{"type":"Feature","properties":{},"geometry":{"type":"LineString","coordinates":[[18.580964058637619,-33.976560251078169],[18.580990880727771,-33.976564699609],[18.581012338399887,-33.976575820934997],[18.58105793595314,-33.9765824937299]]}},
{"type":"Feature","properties":{},"geometry":{"type":"LineString","coordinates":[[18.582315891981125,-33.978401922934538],[18.582353442907333,-33.978439734619919],[18.582348078489304,-33.978446407268521],[18.582348078489304,-33.978464200995589]]}},
{"type":"Feature","properties":{},"geometry":{"type":"LineString","coordinates":[[18.579923361539841,-33.977707964310554],[18.579926043748856,-33.977714637016597],[18.579923361539841,-33.9777591217102],[18.579928725957874,-33.977768018646131],[18.579928725957874,-33.977801382147561],[18.579942137002945,-33.977823624474588]]}},
{"type":"Feature","properties":{},"geometry":{"type":"LineString","coordinates":[[18.582458049058911,-33.978261797130351],[18.58244463801384,-33.978272918234374],[18.58243927359581,-33.978288487777533],[18.582431226968765,-33.978297384658049],[18.582425862550735,-33.978297384658056],[18.582412451505657,-33.978308505757411],[18.582396358251572,-33.978310729977125]]}},
{"type":"Feature","properties":{},"geometry":{"type":"LineString","coordinates":[[18.581841140985489,-33.977383225316537],[18.581841140985489,-33.977374328340339],[18.581835776567459,-33.97736765560758],[18.58180359005928,-33.977347637406183],[18.581795543432236,-33.977332067690696],[18.581755310297012,-33.977296479758905]]}},
{"type":"Feature","properties":{},"geometry":{"type":"LineString","coordinates":[[18.580486625432968,-33.977356534385159],[18.580491989850998,-33.977360982874309],[18.580532222986221,-33.977365431363211],[18.580550998449326,-33.977358758629755],[18.580583184957508,-33.977354310140498]]}},
{"type":"Feature","properties":{},"geometry":{"type":"LineString","coordinates":[[18.581130355596542,-33.978522030582873],[18.581119626760483,-33.978528703225031],[18.581090122461319,-33.978537600080415],[18.581055253744125,-33.978537600080408],[18.581025749444962,-33.978546496934875],[18.580988198518753,-33.978544272721351],[18.580966740846634,-33.978548721148336]]}},
{"type":"Feature","properties":{},"geometry":{"type":"LineString","coordinates":[[18.582256883382794,-33.979075858099371],[18.582248836755753,-33.979073633899695],[18.582232743501663,-33.979086979096898],[18.582216650247574,-33.979089203296226],[18.582179099321365,-33.979062512900441]]}},
{"type":"Feature","properties":{},"geometry":{"type":"LineString","coordinates":[[18.581264466047287,-33.976811592704045],[18.581302016973495,-33.976780453073921],[18.581307381391525,-33.976764883254567],[18.581302016973495,-33.976753761953283]]}},
{"type":"Feature","properties":{},"geometry":{"type":"LineString","coordinates":[[18.581648021936417,-33.976882768958667],[18.581664115190506,-33.976898338756421],[18.581666797399521,-33.976916132807517],[18.581680208444595,-33.976927254087542],[18.581704348325729,-33.976933926854862]]}},
{"type":"Feature","properties":{},"geometry":{"type":"LineString","coordinates":[[18.581055253744125,-33.978973544853972],[18.581175953149796,-33.978973544853986]]}},
{"type":"Feature","properties":{},"geometry":{"type":"LineString","coordinates":[[18.579550534486774,-33.979195964795558],[18.579558581113815,-33.979229327736611],[18.57956662774086,-33.979233776127771],[18.579596132040027,-33.979233776127757],[18.579606860876083,-33.979222655149442],[18.579612225294113,-33.979198188992044],[18.579609543085102,-33.979189292205774],[18.579590767621998,-33.979173722827589]]}},
{"type":"Feature","properties":{},"geometry":{"type":"LineString","coordinates":[[18.578957766294479,-33.978951302827817],[18.578947037458423,-33.978964648044212],[18.578906804323196,-33.978975769056277],[18.578882664442062,-33.978989114268821]]}},
{"type":"Feature","properties":{},"geometry":{"type":"LineString","coordinates":[[18.581444174051285,-33.977056260829677],[18.581444174051285,-33.977036242554931],[18.581468313932419,-33.977016224275481],[18.581468313932419,-33.977005103007087],[18.581473678350449,-33.977000654499321],[18.581457585096359,-33.976967290683646],[18.5814468562603,-33.976958393663907],[18.581444174051285,-33.976949496643265],[18.581420034170151,-33.976929478343386],[18.581393212080002,-33.976918357063639],[18.58134493231773,-33.976911684295089]]}},
{"type":"Feature","properties":{},"geometry":{"type":"LineString","coordinates":[[18.582275658845901,-33.97757228584063],[18.582262247800827,-33.977556716166298],[18.582262247800827,-33.977547819208255],[18.582254201173782,-33.977536698009388],[18.582240790128708,-33.977525576809072],[18.582227379083633,-33.977521128328533],[18.582219332456589,-33.97749888592238],[18.582197874784466,-33.977481091993269]]}},
{"type":"Feature","properties":{},"geometry":{"type":"LineString","coordinates":[[18.578614443540577,-33.978568739066958],[18.578646630048752,-33.978568739066951],[18.578681498765945,-33.978584308555938],[18.578694909811023,-33.978584308555945],[18.578740507364277,-33.978610999101853],[18.578767329454422,-33.978622120160182]]}},
{"type":"Feature","properties":{},"geometry":{"type":"LineString","coordinates":[[18.581283241510395,-33.978575411705435],[18.581296652555466,-33.978575411705428],[18.581328839063648,-33.978562066427934],[18.581350296735764,-33.978544272721351],[18.581374436616898,-33.978535375866649],[18.581395894289017,-33.978519806368702],[18.581430763006207,-33.978508685296994],[18.581444174051285,-33.978493115794151]]}},
{"type":"Feature","properties":{},"geometry":{"type":"LineString","coordinates":[[18.580966740846634,-33.978548721148336],[18.580939918756485,-33.978537600080415],[18.580913096666336,-33.978533151652819],[18.580862134695053,-33.978513133725848],[18.580848723649979,-33.978499788438569],[18.580829948186874,-33.978495340009005],[18.580819219350818,-33.978497564223829]]}},
{"type":"Feature","properties":{},"geometry":{"type":"LineString","coordinates":[[18.578665405511856,-33.979082530698058],[18.578625172376633,-33.979084754897507],[18.578611761331562,-33.979093651694704],[18.578574210405353,-33.979095875893861]]}},
{"type":"Feature","properties":{},"geometry":{"type":"LineString","coordinates":[[18.578753918409351,-33.977483316234611],[18.578761965036392,-33.977452176850505],[18.578764647245411,-33.977401019266132],[18.578772693872452,-33.977389898048081]]}},
{"type":"Feature","properties":{},"geometry":{"type":"LineString","coordinates":[[18.581020385026932,-33.97900468368082],[18.581023067235947,-33.979009132083732],[18.581020385026932,-33.979020253089992],[18.581036478281021,-33.979049167699408],[18.5810686647892,-33.979071409699969]]}},
{"type":"Feature","properties":{},"geometry":{"type":"LineString","coordinates":[[18.580481261014938,-33.977358758629769],[18.580473214387894,-33.977381001072587],[18.580457121133808,-33.977396570779092],[18.580446392297745,-33.977401019266146],[18.58044371008873,-33.977412140482755],[18.58043298125267,-33.977418813212019],[18.580408841371536,-33.977418813212019],[18.580406159162521,-33.977423261697915]]}},
{"type":"Feature","properties":{},"geometry":{"type":"LineString","coordinates":[[18.579507619142532,-33.978381904976651],[18.579491525888443,-33.97839969871724],[18.579494208097458,-33.978410819803202],[18.579491525888443,-33.978464200995589],[18.579504936933521,-33.978475322073116],[18.579510301351551,-33.978506461082489],[18.579515665769581,-33.978515357940189],[18.579515665769581,-33.9785531695751],[18.579504936933521,-33.978584308555952]]}},
{"type":"Feature","properties":{},"geometry":{"type":"LineString","coordinates":[[18.578938990831375,-33.978773366409008],[18.578949719667435,-33.978784487446084],[18.578965812921528,-33.978815626342197],[18.578984588384628,-33.978831195785972],[18.579000681638721,-33.978837868403858]]}},
{"type":"Feature","properties":{},"geometry":{"type":"LineString","coordinates":[[18.578702956438068,-33.977556716166298],[18.578727096319199,-33.977572285840623],[18.578735142946247,-33.977585631273499],[18.578756600618366,-33.977596752465956],[18.57877537608147,-33.977601200942537],[18.578799515962604,-33.977603425180732],[18.578831702470779,-33.977590079750655],[18.578839749097828,-33.977576734318475]]}},
{"type":"Feature","properties":{},"geometry":{"type":"LineString","coordinates":[[18.578697592020038,-33.976402328083587],[18.578660041093826,-33.976402328083601],[18.578617125749592,-33.976395655274537],[18.578571528196338,-33.976400103813958]]}},
{"type":"Feature","properties":{},"geometry":{"type":"LineString","coordinates":[[18.581926971673965,-33.97839302606495],[18.581908196210861,-33.978395250282432],[18.581884056329727,-33.978408595586131],[18.581867963075638,-33.978410819803209],[18.581835776567459,-33.978433061970762]]}},
{"type":"Feature","properties":{},"geometry":{"type":"LineString","coordinates":[[18.58080580830574,-33.976506868690279],[18.580827265977859,-33.976495747355251],[18.580851405858994,-33.976473504680847],[18.580859452486042,-33.976444589195381],[18.580851405858994,-33.976431243583406]]}},
{"type":"Feature","properties":{},"geometry":{"type":"LineString","coordinates":[[18.581390529870987,-33.976564699609],[18.581393212080002,-33.976571372404763],[18.581411987543106,-33.976584717994754],[18.581411987543106,-33.976589166524278],[18.581444174051285,-33.976629203279593],[18.581452220678329,-33.976653670176326],[18.581479042768478,-33.97666924001603]]}}
]
}
