{
"type": "FeatureCollection",
"name": "desire_lines_5810",
"crs": { "type": "name", "properties": { "name": "urn:ogc:def:crs:OGC:1.3:CRS84" } },
"features": [
{"type":"Feature","properties":{},"geometry":{"type":"LineString","coordinates":[[18.7478709,-33.8440478],[18.7478779,-33.844026099999986],[18.74789,-33.8440083],[18.7479101,-33.8439949],[18.7479312,-33.8439843],[18.7479795,-33.8439668]]}},
{"type":"Feature","properties":{},"geometry":{"type":"LineString","coordinates":[[18.7528169,-33.8345391],[18.752814,-33.83464810000001],[18.7528117,-33.8346612],[18.7527918,-33.8347003],[18.7527901,-33.834703399999988],[18.7527873,-33.8347117],[18.752787,-33.834741],[18.7528092,-33.8348997]]}},
{"type":"Feature","properties":{},"geometry":{"type":"LineString","coordinates":[[18.7465201,-33.844843],[18.7465066,-33.8448682],[18.746504,-33.8448907],[18.7465046,-33.8449102],[18.7465276,-33.8449844]]}},
{"type":"Feature","properties":{},"geometry":{"type":"LineString","coordinates":[[18.7452125,-33.8456559],[18.7452051,-33.845605],[18.7452064,-33.845536499999987],[18.7452091,-33.8454752],[18.7452091,-33.8452909]]}},
{"type":"Feature","properties":{},"geometry":{"type":"LineString","coordinates":[[18.7452645,-33.8478758],[18.7452554,-33.847663899999986],[18.745244,-33.8474773],[18.7452373,-33.8471169],[18.7452401,-33.8467589],[18.7452306,-33.84638970000001],[18.7452225,-33.8460149],[18.7452125,-33.8456559]]}},
{"type":"Feature","properties":{},"geometry":{"type":"LineString","coordinates":[[18.7472679,-33.847099],[18.7472734,-33.8474585],[18.7472785,-33.8478526],[18.7472637,-33.8482548]]}},
{"type":"Feature","properties":{},"geometry":{"type":"LineString","coordinates":[[18.7469441,-33.845654],[18.746935,-33.8455013],[18.7468161,-33.8454274]]}},
{"type":"Feature","properties":{},"geometry":{"type":"LineString","coordinates":[[18.7469508,-33.8451908],[18.7469251,-33.8452768],[18.7468161,-33.8454274]]}},
{"type":"Feature","properties":{},"geometry":{"type":"LineString","coordinates":[[18.7472754,-33.8453359],[18.7473269,-33.84535],[18.7473793,-33.8453065],[18.7473867,-33.845283],[18.7476014,-33.8452581],[18.7476255,-33.8453534]]}},
{"type":"Feature","properties":{},"geometry":{"type":"LineString","coordinates":[[18.7488326,-33.8463531],[18.7488043,-33.8460837]]}},
{"type":"Feature","properties":{},"geometry":{"type":"LineString","coordinates":[[18.7516884,-33.8444088],[18.7517034,-33.8447798]]}},
{"type":"Feature","properties":{},"geometry":{"type":"LineString","coordinates":[[18.7525423,-33.845866699999988],[18.7525235,-33.8454936]]}},
{"type":"Feature","properties":{},"geometry":{"type":"LineString","coordinates":[[18.751706,-33.84514],[18.7517092,-33.8455088],[18.751732,-33.8458722],[18.7517276,-33.8462432]]}},
{"type":"Feature","properties":{},"geometry":{"type":"LineString","coordinates":[[18.751706,-33.84514],[18.7517034,-33.8447798]]}},
{"type":"Feature","properties":{},"geometry":{"type":"LineString","coordinates":[[18.7488037,-33.8451298],[18.7485963,-33.845122],[18.7485555,-33.8450501]]}},
{"type":"Feature","properties":{},"geometry":{"type":"LineString","coordinates":[[18.7486568,-33.8446953],[18.7487386,-33.844894],[18.7487885,-33.84500520000001],[18.7488432,-33.845058]]}},
{"type":"Feature","properties":{},"geometry":{"type":"LineString","coordinates":[[18.7412063,-33.8457297],[18.7411378,-33.8456788],[18.7410986,-33.8456551],[18.7410361,-33.845633399999983],[18.7409793,-33.8456256],[18.7409272,-33.845627699999987],[18.7408629,-33.8456403],[18.7406008,-33.8457401],[18.7403469,-33.845849499999986],[18.7401477,-33.8459276],[18.7396786,-33.8461362],[18.7391877,-33.8463705],[18.7382028,-33.8468886],[18.7379068,-33.8470708],[18.737774,-33.8471549],[18.7376295,-33.847252],[18.7375829,-33.8472884],[18.7375568,-33.8473214],[18.7375431,-33.8473709],[18.7375621,-33.8474289],[18.7376178,-33.8475115],[18.7375842,-33.8475353],[18.7375188,-33.8475983],[18.737483,-33.8476332],[18.7373985,-33.8475798],[18.7373596,-33.8475631],[18.737301,-33.8475533],[18.7372262,-33.8475542],[18.7371477,-33.8475698],[18.7370096,-33.8476382],[18.7367645,-33.8478013],[18.7365815,-33.8479215],[18.7364767,-33.8480182],[18.7363535,-33.8480991],[18.7362105,-33.8481557],[18.7356125,-33.8485456],[18.73505,-33.8489123],[18.7346083,-33.8491948],[18.7337156,-33.8497765],[18.733483,-33.8499166],[18.7332348,-33.8500716],[18.7323992,-33.8506298],[18.7323681,-33.850672200000012]]}},
{"type":"Feature","properties":{},"geometry":{"type":"LineString","coordinates":[[18.7488583,-33.8427435],[18.748647,-33.8428599],[18.7485863,-33.8428606]]}},
{"type":"Feature","properties":{},"geometry":{"type":"LineString","coordinates":[[18.7459306,-33.8408665],[18.7458761,-33.8409098],[18.7458318,-33.840948099999984],[18.745723,-33.8409764]]}},
{"type":"Feature","properties":{},"geometry":{"type":"LineString","coordinates":[[18.7460138,-33.841047],[18.7461714,-33.8409875],[18.7461814,-33.8409695],[18.7462338,-33.8409591]]}},
{"type":"Feature","properties":{},"geometry":{"type":"LineString","coordinates":[[18.746505,-33.8409414],[18.7465923,-33.8409163],[18.7465998,-33.8409356],[18.7466788,-33.8409045],[18.746658,-33.84085]]}},
{"type":"Feature","properties":{},"geometry":{"type":"LineString","coordinates":[[18.7464038,-33.8407113],[18.7465141,-33.8406724],[18.7466081,-33.8406406]]}},
{"type":"Feature","properties":{},"geometry":{"type":"LineString","coordinates":[[18.7474106,-33.8406163],[18.7475922,-33.840568099999984],[18.7475822,-33.8405356],[18.747618,-33.8405259]]}},
{"type":"Feature","properties":{},"geometry":{"type":"LineString","coordinates":[[18.7482783,-33.8401632],[18.7482161,-33.8402044],[18.7481937,-33.8401908],[18.7481446,-33.8402053],[18.7481354,-33.8401991],[18.7480855,-33.8402129],[18.7481055,-33.8402613]]}},
{"type":"Feature","properties":{},"geometry":{"type":"LineString","coordinates":[[18.7486719,-33.842369799999986],[18.7487311,-33.8423569],[18.7487577,-33.8422954],[18.7488018,-33.8422788],[18.7488267,-33.8422761],[18.7488999,-33.842253299999989]]}},
{"type":"Feature","properties":{},"geometry":{"type":"LineString","coordinates":[[18.7495606,-33.8425442],[18.7495197,-33.8424246],[18.749543,-33.8424149],[18.7495388,-33.842368]]}},
{"type":"Feature","properties":{},"geometry":{"type":"LineString","coordinates":[[18.7491699,-33.8423065],[18.749221,-33.8422913],[18.749216,-33.8422685],[18.7492493,-33.8422629],[18.7492368,-33.8422291],[18.749355,-33.8421952]]}},
{"type":"Feature","properties":{},"geometry":{"type":"LineString","coordinates":[[18.7488883,-33.8416316],[18.748949,-33.8416148],[18.7489657,-33.8415962],[18.7490297,-33.8415768],[18.749053,-33.8416363],[18.7491004,-33.8416383],[18.7491586,-33.8416155]]}},
{"type":"Feature","properties":{},"geometry":{"type":"LineString","coordinates":[[18.7493816,-33.841558],[18.7492959,-33.8415755],[18.7491586,-33.8416155]]}},
{"type":"Feature","properties":{},"geometry":{"type":"LineString","coordinates":[[18.7483038,-33.8402294],[18.7483359,-33.840215],[18.7484931,-33.8401721],[18.7485164,-33.8402233]]}},
{"type":"Feature","properties":{},"geometry":{"type":"LineString","coordinates":[[18.749733,-33.8410184],[18.7495089,-33.8410787]]}},
{"type":"Feature","properties":{},"geometry":{"type":"LineString","coordinates":[[18.749929,-33.8414929],[18.7498433,-33.841489800000012],[18.7496769,-33.841535399999984]]}},
{"type":"Feature","properties":{},"geometry":{"type":"LineString","coordinates":[[18.7496882,-33.842298099999987],[18.7497826,-33.84226850000001],[18.7497925,-33.8422823],[18.7499182,-33.8422464]]}},
{"type":"Feature","properties":{},"geometry":{"type":"LineString","coordinates":[[18.7464504,-33.839562],[18.7462762,-33.8396132],[18.7462945,-33.8396698],[18.7462812,-33.8396733],[18.7463036,-33.8397175]]}},
{"type":"Feature","properties":{},"geometry":{"type":"LineString","coordinates":[[18.7483586,-33.8399036],[18.7482744,-33.8398391],[18.748296,-33.8397983],[18.7483268,-33.8397887],[18.7483076,-33.8397368]]}},
{"type":"Feature","properties":{},"geometry":{"type":"LineString","coordinates":[[18.7511214,-33.8403939],[18.7511593,-33.8403794],[18.7511984,-33.840364199999989]]}},
{"type":"Feature","properties":{},"geometry":{"type":"LineString","coordinates":[[18.7512235,-33.840379],[18.7512292,-33.8404243],[18.75125,-33.8404485]]}},
{"type":"Feature","properties":{},"geometry":{"type":"LineString","coordinates":[[18.751156,-33.8403296],[18.7511984,-33.840364199999989],[18.7512235,-33.840379],[18.7512467,-33.8403926],[18.7513507,-33.8404174]]}},
{"type":"Feature","properties":{},"geometry":{"type":"LineString","coordinates":[[18.7510762,-33.840437],[18.7511214,-33.8403939],[18.751156,-33.8403296],[18.7511768,-33.840291],[18.7512259,-33.840226],[18.7512816,-33.8401286],[18.751329,-33.8400802],[18.7513573,-33.840050499999982],[18.7514195,-33.8399849]]}},
{"type":"Feature","properties":{},"geometry":{"type":"LineString","coordinates":[[18.7511117,-33.84053],[18.7511435,-33.8405155],[18.7511868,-33.840499],[18.7511959,-33.840481],[18.75125,-33.8404485],[18.7512774,-33.8404499],[18.7513507,-33.8404174],[18.7514056,-33.8403981],[18.7514409,-33.8403872],[18.7514837,-33.840442400000015],[18.7516027,-33.8404146]]}},
{"type":"Feature","properties":{},"geometry":{"type":"LineString","coordinates":[[18.7503087,-33.8411094],[18.7504023,-33.8410863],[18.7504098,-33.8411015],[18.7504988,-33.8410766]]}},
{"type":"Feature","properties":{},"geometry":{"type":"LineString","coordinates":[[18.7517824,-33.8419052],[18.7517633,-33.8418518],[18.7517816,-33.8418435],[18.7517508,-33.8417551]]}},
{"type":"Feature","properties":{},"geometry":{"type":"LineString","coordinates":[[18.7506685,-33.8381716],[18.7505828,-33.8381967],[18.7505886,-33.8382119],[18.7504755,-33.8382478]]}},
{"type":"Feature","properties":{},"geometry":{"type":"LineString","coordinates":[[18.7504451,-33.8376811],[18.7503591,-33.8377047],[18.7502151,-33.8377406],[18.7501985,-33.837684]]}},
{"type":"Feature","properties":{},"geometry":{"type":"LineString","coordinates":[[18.7498914,-33.836662099999984],[18.749894,-33.8366143],[18.7499198,-33.8365991],[18.7498333,-33.8364907]]}},
{"type":"Feature","properties":{},"geometry":{"type":"LineString","coordinates":[[18.7502665,-33.8364431],[18.7502193,-33.8363898],[18.7502284,-33.8363836],[18.750181,-33.8363227],[18.7502476,-33.836282],[18.7503066,-33.83635180000001],[18.7502875,-33.8363684],[18.7503208,-33.8364103]]}},
{"type":"Feature","properties":{},"geometry":{"type":"LineString","coordinates":[[18.7516714,-33.840589],[18.7517383,-33.8405736],[18.7517491,-33.8405791],[18.7518731,-33.8405459],[18.7518581,-33.8405142],[18.7518922,-33.8405038]]}},
{"type":"Feature","properties":{},"geometry":{"type":"LineString","coordinates":[[18.7520709,-33.8408295],[18.7521185,-33.8409481],[18.7521143,-33.841022],[18.7520827,-33.8410365],[18.7520037,-33.8410635],[18.7519197,-33.841116],[18.7518974,-33.8411362]]}},
{"type":"Feature","properties":{},"geometry":{"type":"LineString","coordinates":[[18.7525292,-33.8415348],[18.7523722,-33.841543]]}},
{"type":"Feature","properties":{},"geometry":{"type":"LineString","coordinates":[[18.7525427,-33.8410711],[18.7526093,-33.8410517],[18.7526292,-33.8410469],[18.7527357,-33.841042],[18.7527825,-33.8410408]]}},
{"type":"Feature","properties":{},"geometry":{"type":"LineString","coordinates":[[18.7524169,-33.8411188],[18.7525427,-33.8410711],[18.7525444,-33.8410103],[18.7525544,-33.8409128],[18.7526151,-33.8409108],[18.7526825,-33.8409121]]}},
{"type":"Feature","properties":{},"geometry":{"type":"LineString","coordinates":[[18.7524518,-33.8402934],[18.7525577,-33.8402834],[18.752779,-33.8404188]]}},
{"type":"Feature","properties":{},"geometry":{"type":"LineString","coordinates":[[18.7520018,-33.8401492],[18.7520403,-33.8401424],[18.7521201,-33.8401155],[18.7522042,-33.8400885]]}},
{"type":"Feature","properties":{},"geometry":{"type":"LineString","coordinates":[[18.7506365,-33.8368698],[18.7507159,-33.8368424],[18.7507725,-33.8368244],[18.7508058,-33.8368189]]}},
{"type":"Feature","properties":{},"geometry":{"type":"LineString","coordinates":[[18.7511637,-33.8368703],[18.7510802,-33.836937899999988],[18.7510421,-33.8369541],[18.7510054,-33.836962600000014]]}},
{"type":"Feature","properties":{},"geometry":{"type":"LineString","coordinates":[[18.7447796,-33.8420249],[18.7448212,-33.841923],[18.7448587,-33.84191950000001],[18.744862,-33.8418878],[18.7449751,-33.8418878]]}},
{"type":"Feature","properties":{},"geometry":{"type":"LineString","coordinates":[[18.7443327,-33.8420494],[18.7442572,-33.8420508],[18.7442556,-33.8420315],[18.7441208,-33.842037],[18.7440309,-33.8420107]]}},
{"type":"Feature","properties":{},"geometry":{"type":"LineString","coordinates":[[18.744344,-33.8420245],[18.7443327,-33.8420494],[18.7443288,-33.8424225],[18.7445731,-33.8424174]]}},
{"type":"Feature","properties":{},"geometry":{"type":"LineString","coordinates":[[18.7443701,-33.8416217],[18.7443421,-33.8416908],[18.7443246,-33.8418028],[18.744344,-33.8420245]]}},
{"type":"Feature","properties":{},"geometry":{"type":"LineString","coordinates":[[18.7443137,-33.8403981],[18.7443105,-33.8404681]]}},
{"type":"Feature","properties":{},"geometry":{"type":"LineString","coordinates":[[18.7447335,-33.839998],[18.7447662,-33.8400306],[18.744777,-33.8400542],[18.7447843,-33.8401796],[18.7447913,-33.8402972],[18.7447807,-33.840389299999984]]}},
{"type":"Feature","properties":{},"geometry":{"type":"LineString","coordinates":[[18.7443094,-33.8399968],[18.7443063,-33.8401355],[18.7443046,-33.8401873],[18.7443179,-33.8401887],[18.7443171,-33.8402419],[18.744313,-33.8402635],[18.7443151,-33.840291],[18.7443137,-33.8403981]]}},
{"type":"Feature","properties":{},"geometry":{"type":"LineString","coordinates":[[18.7442954,-33.8394911],[18.7443094,-33.8399968]]}},
{"type":"Feature","properties":{},"geometry":{"type":"LineString","coordinates":[[18.744862,-33.8391944],[18.7448395,-33.8391668],[18.7448354,-33.8390887],[18.7448221,-33.83902650000001]]}},
{"type":"Feature","properties":{},"geometry":{"type":"LineString","coordinates":[[18.7449237,-33.8393873],[18.7448711,-33.839287],[18.744862,-33.8391944],[18.7449127,-33.8390521]]}},
{"type":"Feature","properties":{},"geometry":{"type":"LineString","coordinates":[[18.7453157,-33.839233],[18.7453095,-33.8392179],[18.745213,-33.8390231],[18.7451881,-33.8390251],[18.7451523,-33.8389422]]}},
{"type":"Feature","properties":{},"geometry":{"type":"LineString","coordinates":[[18.7456983,-33.8390824],[18.7455508,-33.8388172]]}},
{"type":"Feature","properties":{},"geometry":{"type":"LineString","coordinates":[[18.7459335,-33.838608499999985],[18.7460158,-33.8387674],[18.74599,-33.838775],[18.7461066,-33.8389555]]}},
{"type":"Feature","properties":{},"geometry":{"type":"LineString","coordinates":[[18.7461448,-33.8384869],[18.746213,-33.8385974],[18.7463045,-33.8385677],[18.7463211,-33.8386085],[18.7463627,-33.8385947],[18.7463902,-33.8386348],[18.7464442,-33.83867],[18.746487,-33.8386677]]}},
{"type":"Feature","properties":{},"geometry":{"type":"LineString","coordinates":[[18.746569,-33.8383086],[18.7466023,-33.8383853],[18.7466863,-33.8383563],[18.7467271,-33.8384019],[18.7467856,-33.8384818]]}},
{"type":"Feature","properties":{},"geometry":{"type":"LineString","coordinates":[[18.7470614,-33.8383572],[18.7470304,-33.83836380000001],[18.74697,-33.8383756],[18.7469284,-33.8382879],[18.7468311,-33.8381601]]}},
{"type":"Feature","properties":{},"geometry":{"type":"LineString","coordinates":[[18.7473752,-33.83842],[18.7473227,-33.8383245]]}},
{"type":"Feature","properties":{},"geometry":{"type":"LineString","coordinates":[[18.7474248,-33.8381737],[18.747326,-33.8382202],[18.7472137,-33.83824090000001]]}},
{"type":"Feature","properties":{},"geometry":{"type":"LineString","coordinates":[[18.7478654,-33.8378885],[18.7477295,-33.837894],[18.7476455,-33.8379265],[18.747633,-33.8379265],[18.7475914,-33.8379438],[18.7475989,-33.8379687],[18.7475606,-33.8379866],[18.7475881,-33.8380198],[18.7475481,-33.8380999],[18.7474248,-33.8381737]]}},
{"type":"Feature","properties":{},"geometry":{"type":"LineString","coordinates":[[18.7483461,-33.837588],[18.7482436,-33.8375872],[18.7481063,-33.8376239],[18.7480547,-33.837505699999987],[18.7479757,-33.8375368],[18.7479524,-33.8375534],[18.7480306,-33.8377116],[18.747925,-33.8378194],[18.7478654,-33.8378885]]}},
{"type":"Feature","properties":{},"geometry":{"type":"LineString","coordinates":[[18.7486088,-33.837328799999987],[18.748509,-33.8373585]]}},
{"type":"Feature","properties":{},"geometry":{"type":"LineString","coordinates":[[18.7487155,-33.837483800000015],[18.7486517,-33.837374399999987],[18.7486088,-33.837328799999987],[18.7486229,-33.8373184],[18.7485314,-33.8372376]]}},
{"type":"Feature","properties":{},"geometry":{"type":"LineString","coordinates":[[18.7522027,-33.835231],[18.7522532,-33.8351778],[18.7523023,-33.8351031],[18.7522699,-33.835043]]}},
{"type":"Feature","properties":{},"geometry":{"type":"LineString","coordinates":[[18.7517701,-33.835421599999989],[18.7519205,-33.8353485],[18.7520261,-33.8353008],[18.752076,-33.835278],[18.7522027,-33.835231]]}},
{"type":"Feature","properties":{},"geometry":{"type":"LineString","coordinates":[[18.75268,-33.8376391],[18.7526051,-33.8376543],[18.7525985,-33.8376322],[18.7524837,-33.837666],[18.7524778,-33.8377199],[18.7524744,-33.837813]]}},
{"type":"Feature","properties":{},"geometry":{"type":"LineString","coordinates":[[18.7523198,-33.837126],[18.7524828,-33.8371125],[18.752655,-33.8371098],[18.7526617,-33.8370669],[18.7528253,-33.8370636]]}},
{"type":"Feature","properties":{},"geometry":{"type":"LineString","coordinates":[[18.7522147,-33.836878],[18.7524828,-33.8368168],[18.7525245,-33.8367091],[18.7527374,-33.8367049]]}},
{"type":"Feature","properties":{},"geometry":{"type":"LineString","coordinates":[[18.7522841,-33.8364418],[18.7523556,-33.8366157]]}},
{"type":"Feature","properties":{},"geometry":{"type":"LineString","coordinates":[[18.7523955,-33.8358114],[18.7524812,-33.8359855],[18.7526276,-33.8359897],[18.7526667,-33.836009]]}},
{"type":"Feature","properties":{},"geometry":{"type":"LineString","coordinates":[[18.752312,-33.835841],[18.7523955,-33.8358114],[18.7524437,-33.83579970000001],[18.7524787,-33.8357306],[18.7525036,-33.835705],[18.7526592,-33.835667]]}},
{"type":"Feature","properties":{},"geometry":{"type":"LineString","coordinates":[[18.7467715,-33.8474266],[18.7467154,-33.8474994],[18.7466472,-33.8475837],[18.7466247,-33.8475996],[18.7466256,-33.847641]]}},
{"type":"Feature","properties":{},"geometry":{"type":"LineString","coordinates":[[18.7467246,-33.846945299999987],[18.746742,-33.8467415],[18.7467715,-33.8467182]]}},
{"type":"Feature","properties":{},"geometry":{"type":"LineString","coordinates":[[18.7467945,-33.8471251],[18.7467329,-33.8470469],[18.7467246,-33.846945299999987],[18.7466489,-33.8469004]]}},
{"type":"Feature","properties":{},"geometry":{"type":"LineString","coordinates":[[18.7517717,-33.8469782],[18.7517813,-33.8466124]]}},
{"type":"Feature","properties":{},"geometry":{"type":"LineString","coordinates":[[18.7519502,-33.8476959],[18.7519554,-33.8476183],[18.7519964,-33.8476154],[18.752,-33.8475325]]}},
{"type":"Feature","properties":{},"geometry":{"type":"LineString","coordinates":[[18.7523358,-33.84676060000001],[18.7524403,-33.8467596],[18.7524421,-33.8467892],[18.7525294,-33.8467863],[18.7525419,-33.8467552]]}},
{"type":"Feature","properties":{},"geometry":{"type":"LineString","coordinates":[[18.7440432,-33.8449886],[18.7439721,-33.8449648],[18.7438901,-33.844944],[18.7437768,-33.8449389],[18.7436441,-33.8449667],[18.7435059,-33.845023500000011],[18.7432498,-33.8451617],[18.7430567,-33.8452263],[18.7429574,-33.8452597],[18.7428502,-33.8453008],[18.7426965,-33.8453255]]}},
{"type":"Feature","properties":{},"geometry":{"type":"LineString","coordinates":[[18.7442992,-33.8451366],[18.7441429,-33.8450386],[18.7440432,-33.8449886],[18.7440667,-33.844865],[18.7440086,-33.8446842]]}},
{"type":"Feature","properties":{},"geometry":{"type":"LineString","coordinates":[[18.7505515,-33.8436579],[18.7509429,-33.8436416]]}},
{"type":"Feature","properties":{},"geometry":{"type":"LineString","coordinates":[[18.7525253,-33.8424688],[18.7526201,-33.8426609]]}},
{"type":"Feature","properties":{},"geometry":{"type":"LineString","coordinates":[[18.7522927,-33.8422361],[18.7523506,-33.842256],[18.752512,-33.8422761],[18.7525386,-33.8422844],[18.7525577,-33.8423431],[18.7525253,-33.8424688],[18.7524138,-33.8425828]]}},
{"type":"Feature","properties":{},"geometry":{"type":"LineString","coordinates":[[18.7417347,-33.8451842],[18.7414842,-33.8452675],[18.7413743,-33.8452908],[18.7413008,-33.8452821],[18.7411969,-33.845253],[18.7411379,-33.845251],[18.7410853,-33.8452615],[18.7410516,-33.8452761],[18.7410155,-33.8452917],[18.7409472,-33.8453594],[18.7409092,-33.8454248],[18.7408645,-33.8454669],[18.7408232,-33.8454877],[18.7407972,-33.845500800000011],[18.7407802,-33.8455017],[18.7399514,-33.8458343],[18.7395877,-33.8459987],[18.7393061,-33.846126],[18.7390051,-33.8462775],[18.7384002,-33.846619],[18.7382539,-33.8466616],[18.7381176,-33.8467356],[18.7380031,-33.846837],[18.7374428,-33.8470424],[18.7373254,-33.8470424],[18.7372081,-33.8470223]]}},
{"type":"Feature","properties":{},"geometry":{"type":"LineString","coordinates":[[18.7507234,-33.8426056],[18.7509322,-33.8425431],[18.751073,-33.8425046],[18.7511693,-33.8424764],[18.7519376,-33.842212900000014],[18.7521996,-33.84212260000001],[18.7524189,-33.842016],[18.7525868,-33.8419413],[18.752958,-33.841864],[18.7531997,-33.8418131],[18.7537737,-33.8416503],[18.7541676,-33.841537700000011],[18.7549266,-33.8413146]]}},
{"type":"Feature","properties":{},"geometry":{"type":"LineString","coordinates":[[18.7472549,-33.8467261],[18.747251,-33.8468165],[18.7472679,-33.847099]]}},
{"type":"Feature","properties":{},"geometry":{"type":"LineString","coordinates":[[18.747247,-33.8456447],[18.7472434,-33.8460144]]}},
{"type":"Feature","properties":{},"geometry":{"type":"LineString","coordinates":[[18.7528135,-33.8352905],[18.7527103,-33.8352958],[18.7526078,-33.8353081],[18.752507,-33.8353272]]}},
{"type":"Feature","properties":{},"geometry":{"type":"LineString","coordinates":[[18.7372081,-33.8470223],[18.737179,-33.8470735],[18.7371585,-33.8471125],[18.7371314,-33.8471405],[18.7370444,-33.8471925],[18.7370076,-33.847214499999986],[18.7370003,-33.8473155]]}},
{"type":"Feature","properties":{},"geometry":{"type":"LineString","coordinates":[[18.7370003,-33.8473155],[18.7369218,-33.8473157],[18.7368628,-33.847315799999983]]}},
{"type":"Feature","properties":{},"geometry":{"type":"LineString","coordinates":[[18.7368628,-33.847315799999983],[18.7368245,-33.8474328],[18.7367777,-33.8475101],[18.7366976,-33.8475929],[18.7365349,-33.8476889],[18.7362763,-33.8478986],[18.7361046,-33.8480388],[18.7357728,-33.8482592],[18.7357488,-33.84827]]}},
{"type":"Feature","properties":{},"geometry":{"type":"LineString","coordinates":[[18.7356184,-33.8460126],[18.735694,-33.8460271],[18.7358616,-33.8460884],[18.7360191,-33.8461491],[18.7361692,-33.8461977],[18.7362729,-33.846218]]}},
{"type":"Feature","properties":{},"geometry":{"type":"LineString","coordinates":[[18.7426419,-33.8450787],[18.742626,-33.8450398],[18.7425976,-33.8449703],[18.742586,-33.844942]]}},
{"type":"Feature","properties":{},"geometry":{"type":"LineString","coordinates":[[18.7457359,-33.8440368],[18.7456427,-33.8440623],[18.7455343,-33.8440921]]}},
{"type":"Feature","properties":{},"geometry":{"type":"LineString","coordinates":[[18.7475747,-33.84351],[18.7474598,-33.843543],[18.7473369,-33.8435782]]}},
{"type":"Feature","properties":{},"geometry":{"type":"LineString","coordinates":[[18.7457965,-33.8441734],[18.7457015,-33.8442001],[18.7455967,-33.8442296]]}},
{"type":"Feature","properties":{},"geometry":{"type":"LineString","coordinates":[[18.7455967,-33.8442296],[18.7454545,-33.8442688],[18.7440086,-33.8446842],[18.7438388,-33.8447311],[18.74372,-33.8447665],[18.743032,-33.8449657],[18.7426419,-33.8450787],[18.7418886,-33.845293099999985],[18.7417082,-33.8453499],[18.7415479,-33.8454025],[18.7414591,-33.8454405],[18.7414151,-33.8454797],[18.7413895,-33.845527600000011],[18.7413702,-33.845591],[18.7413615,-33.845680099999988]]}},
{"type":"Feature","properties":{},"geometry":{"type":"LineString","coordinates":[[18.7530994,-33.8419818],[18.7530026,-33.84200890000001],[18.7528514,-33.8420512]]}},
{"type":"Feature","properties":{},"geometry":{"type":"LineString","coordinates":[[18.7528514,-33.8420512],[18.7526845,-33.8421004],[18.7522927,-33.8422361],[18.7520606,-33.8423165],[18.7516203,-33.842473499999983],[18.7512013,-33.8426133]]}},
{"type":"Feature","properties":{},"geometry":{"type":"LineString","coordinates":[[18.7512013,-33.8426133],[18.7508558,-33.8427206],[18.7508021,-33.84274]]}},
{"type":"Feature","properties":{},"geometry":{"type":"LineString","coordinates":[[18.7508021,-33.84274],[18.7507315,-33.8427752],[18.7506657,-33.8428278],[18.7506205,-33.8428883],[18.7505913,-33.8429546]]}},
{"type":"Feature","properties":{},"geometry":{"type":"LineString","coordinates":[[18.7504502,-33.8430093],[18.7504059,-33.842958399999986],[18.7503521,-33.8429247],[18.7502748,-33.8429128],[18.7501952,-33.8429221]]}},
{"type":"Feature","properties":{},"geometry":{"type":"LineString","coordinates":[[18.7408629,-33.8456403],[18.7408487,-33.8456101],[18.7408141,-33.8455366],[18.7407972,-33.845500800000011]]}},
{"type":"Feature","properties":{},"geometry":{"type":"LineString","coordinates":[[18.7415479,-33.8454025],[18.7415307,-33.845366],[18.741501,-33.845303],[18.7414842,-33.8452675]]}},
{"type":"Feature","properties":{},"geometry":{"type":"LineString","coordinates":[[18.7413615,-33.845680099999988],[18.7413297,-33.8456901],[18.7412381,-33.8457203],[18.7412063,-33.8457297]]}},
{"type":"Feature","properties":{},"geometry":{"type":"LineString","coordinates":[[18.7501952,-33.8429221],[18.7501394,-33.8429281],[18.7500763,-33.842943700000014],[18.7500123,-33.842976],[18.749111,-33.8432362],[18.7490084,-33.8432497],[18.7484147,-33.843414199999984],[18.7464165,-33.8439918],[18.7462817,-33.8440491],[18.7461533,-33.844093499999985],[18.7460225,-33.8441313],[18.7458689,-33.8441488],[18.7457965,-33.8441734]]}},
{"type":"Feature","properties":{},"geometry":{"type":"LineString","coordinates":[[18.7501211,-33.8427785],[18.7501373,-33.84281],[18.7501722,-33.8428774],[18.7501952,-33.8429221]]}},
{"type":"Feature","properties":{},"geometry":{"type":"LineString","coordinates":[[18.7505913,-33.8429546],[18.7505659,-33.8429644],[18.7504855,-33.8429956],[18.7504502,-33.8430093]]}},
{"type":"Feature","properties":{},"geometry":{"type":"LineString","coordinates":[[18.7507234,-33.8426056],[18.7504379,-33.8425263]]}},
{"type":"Feature","properties":{},"geometry":{"type":"LineString","coordinates":[[18.7504379,-33.8425263],[18.7504138,-33.8425356],[18.7503418,-33.8425632],[18.7502973,-33.8425802]]}},
{"type":"Feature","properties":{},"geometry":{"type":"LineString","coordinates":[[18.7508021,-33.84274],[18.7507797,-33.8427018],[18.7507419,-33.8426372],[18.7507234,-33.8426056]]}},
{"type":"Feature","properties":{},"geometry":{"type":"LineString","coordinates":[[18.7433618,-33.8479607],[18.7433589,-33.8479271],[18.7433535,-33.847864],[18.743351,-33.8478343]]}},
{"type":"Feature","properties":{},"geometry":{"type":"LineString","coordinates":[[18.742887,-33.8477218],[18.7429267,-33.847714],[18.7430289,-33.8476939],[18.7430768,-33.8476845]]}},
{"type":"Feature","properties":{},"geometry":{"type":"LineString","coordinates":[[18.7428161,-33.8454608],[18.7427174,-33.845429],[18.7426965,-33.8453255],[18.7426825,-33.845256299999988],[18.7426419,-33.8450787]]}},
{"type":"Feature","properties":{},"geometry":{"type":"LineString","coordinates":[[18.7425604,-33.8469093],[18.7426007,-33.846774500000016],[18.7426852,-33.84641580000001],[18.7427241,-33.8461106],[18.7428161,-33.8454608],[18.7428314,-33.8454167],[18.7428502,-33.8453008]]}},
{"type":"Feature","properties":{},"geometry":{"type":"LineString","coordinates":[[18.7426296,-33.8474422],[18.7427482,-33.8473977]]}},
{"type":"Feature","properties":{},"geometry":{"type":"LineString","coordinates":[[18.7429897,-33.8481377],[18.742944,-33.8480543],[18.7429031,-33.847986299999988],[18.742879,-33.8479356],[18.7428796,-33.8478794],[18.742889,-33.8478215],[18.742887,-33.8477218],[18.7428689,-33.8476366],[18.7428099,-33.847510199999988],[18.7427482,-33.8473977],[18.7426771,-33.8472629],[18.7425792,-33.8471008],[18.7424766,-33.8469883],[18.7423392,-33.8468647],[18.7420723,-33.8466564],[18.7417927,-33.846442],[18.7416592,-33.84633680000001],[18.7415539,-33.8462376],[18.7414601,-33.8461285],[18.7413619,-33.8459887],[18.7412911,-33.8458578],[18.7412063,-33.8457297]]}},
{"type":"Feature","properties":{},"geometry":{"type":"LineString","coordinates":[[18.7473369,-33.8435782],[18.7457359,-33.8440368]]}},
{"type":"Feature","properties":{},"geometry":{"type":"LineString","coordinates":[[18.7485207,-33.8432391],[18.7483634,-33.8432831],[18.7475747,-33.84351]]}},
{"type":"Feature","properties":{},"geometry":{"type":"LineString","coordinates":[[18.7487236,-33.8431799],[18.748622,-33.8432095],[18.7485207,-33.8432391]]}},
{"type":"Feature","properties":{},"geometry":{"type":"LineString","coordinates":[[18.7502973,-33.8425802],[18.7501211,-33.8427785],[18.7487236,-33.8431799]]}},
{"type":"Feature","properties":{},"geometry":{"type":"LineString","coordinates":[[18.7419088,-33.8451321],[18.7418183,-33.84516],[18.7417347,-33.8451842]]}},
{"type":"Feature","properties":{},"geometry":{"type":"LineString","coordinates":[[18.7455343,-33.8440921],[18.7454489,-33.8441258],[18.7453046,-33.8441332],[18.7451031,-33.844188],[18.7448393,-33.844302],[18.7439173,-33.844564],[18.7437384,-33.8446148],[18.7437214,-33.8446196],[18.742586,-33.844942],[18.7419088,-33.8451321]]}},
{"type":"Feature","properties":{},"geometry":{"type":"LineString","coordinates":[[18.7413615,-33.845680099999988],[18.7413803,-33.8457264],[18.7414346,-33.845870599999984],[18.7415151,-33.8460115],[18.7415902,-33.8461101],[18.7416874,-33.8462142],[18.7419194,-33.8463991],[18.7423794,-33.846757799999985],[18.7425604,-33.8469093],[18.7426799,-33.8470444],[18.7427703,-33.8471799],[18.7428602,-33.8473498],[18.7429467,-33.8475146],[18.7429997,-33.8476009],[18.7430768,-33.8476845],[18.7431271,-33.8477307],[18.7431941,-33.8477764],[18.7432719,-33.84781310000001],[18.743351,-33.8478343]]}},
{"type":"Feature","properties":{},"geometry":{"type":"LineString","coordinates":[[18.7528373,-33.838387],[18.7536785,-33.8381174],[18.7536644,-33.8379234]]}},
{"type":"Feature","properties":{},"geometry":{"type":"LineString","coordinates":[[18.7423971,-33.84415030000001],[18.7426403,-33.8441232],[18.7426842,-33.8443948],[18.7426621,-33.8443972],[18.7426689,-33.8444391],[18.7426909,-33.8444367],[18.7426939,-33.8444551],[18.7424484,-33.8444824],[18.7424712,-33.8446234],[18.7426047,-33.844608599999987],[18.7426123,-33.8446557],[18.742509,-33.844673],[18.742375,-33.8446737],[18.7423753,-33.8446466],[18.742392,-33.8446467],[18.7423933,-33.8444951],[18.742326,-33.8444947],[18.7423263,-33.8444655],[18.7419235,-33.8444632],[18.7419239,-33.8444117],[18.7420326,-33.8443995],[18.7419935,-33.8441573],[18.74235,-33.8441176],[18.7423566,-33.84415880000001],[18.7422584,-33.8441697],[18.7422947,-33.8443941],[18.7423929,-33.8443831],[18.7423888,-33.844358200000016],[18.742427,-33.844354],[18.7424336,-33.8443944],[18.7425513,-33.8443813],[18.7425383,-33.8443007],[18.7424021,-33.8443159],[18.7423763,-33.844156599999984],[18.7423757,-33.8441527],[18.7423971,-33.84415030000001]]}},
{"type":"Feature","properties":{},"geometry":{"type":"LineString","coordinates":[[18.7418464,-33.8455381],[18.7419033,-33.8458199],[18.742016,-33.8460561],[18.7420535,-33.846135199999985]]}},
{"type":"Feature","properties":{},"geometry":{"type":"LineString","coordinates":[[18.7426965,-33.8453255],[18.7422211,-33.845449],[18.7418464,-33.8455381],[18.7417102,-33.8455704],[18.741556,-33.8456261],[18.7414125,-33.8456718],[18.7413615,-33.845680099999988]]}},
{"type":"Feature","properties":{},"geometry":{"type":"LineString","coordinates":[[18.7371585,-33.8471125],[18.7372389,-33.8471487],[18.7373201,-33.8471532],[18.7373918,-33.8471437],[18.7375045,-33.8471064],[18.7375346,-33.8471426],[18.7375957,-33.8472145],[18.7376295,-33.847252]]}},
{"type":"Feature","properties":{},"geometry":{"type":"LineString","coordinates":[[18.7483634,-33.8432831],[18.7483771,-33.8433199]]}},
{"type":"Feature","properties":{},"geometry":{"type":"LineString","coordinates":[[18.7484147,-33.843414199999984],[18.7484019,-33.8433784]]}},
{"type":"Feature","properties":{},"geometry":{"type":"LineString","coordinates":[[18.7484019,-33.8433784],[18.7483771,-33.8433199]]}},
{"type":"Feature","properties":{},"geometry":{"type":"LineString","coordinates":[[18.7440101,-33.8395222],[18.7439072,-33.839538599999983],[18.7437589,-33.839563],[18.7437325,-33.8395807],[18.7436744,-33.8396261]]}},
{"type":"Feature","properties":{},"geometry":{"type":"LineString","coordinates":[[18.7404409,-33.8402882],[18.7405006,-33.8404175],[18.740559,-33.840497],[18.7405765,-33.8405542],[18.7406116,-33.8407695],[18.7406162,-33.8408296],[18.7406396,-33.8409014],[18.7406536,-33.8409479]]}},
{"type":"Feature","properties":{},"geometry":{"type":"LineString","coordinates":[[18.7412992,-33.841053600000016],[18.7412934,-33.8409873],[18.7412917,-33.840927],[18.7413005,-33.840893199999989],[18.7412979,-33.840855],[18.7412837,-33.8407668],[18.741274,-33.8407558],[18.7412443,-33.8407462]]}},
{"type":"Feature","properties":{},"geometry":{"type":"LineString","coordinates":[[18.7358658,-33.8412831],[18.735872,-33.8413279],[18.7359035,-33.8415895],[18.7359282,-33.8418167],[18.7359544,-33.8420796],[18.7359752,-33.8423688],[18.7359921,-33.842688],[18.7360021,-33.842949],[18.7360098,-33.8432836],[18.7360175,-33.8436867],[18.7360245,-33.8439912],[18.7360268,-33.8443392],[18.7360353,-33.8446674],[18.7360368,-33.8449553],[18.7360437,-33.8451952],[18.7360607,-33.8454978],[18.736083,-33.84565],[18.7361177,-33.8457946],[18.7361508,-33.845904],[18.7361898,-33.84601880000001],[18.7362467,-33.8461581],[18.7362729,-33.846218],[18.7363666,-33.8463962],[18.7364327,-33.8465169],[18.736576,-33.8467507],[18.7366685,-33.8468739],[18.7367742,-33.8470056],[18.7368199,-33.8470875],[18.7368484,-33.8471635],[18.7368616,-33.8472445],[18.7368628,-33.847315799999983]]}},
{"type":"Feature","properties":{},"geometry":{"type":"LineString","coordinates":[[18.7359852,-33.8412601],[18.736016,-33.8415057],[18.7360283,-33.8416143],[18.7360571,-33.8418743],[18.7360759,-33.8421016],[18.7360947,-33.8423561],[18.7361074,-33.8425989],[18.7361161,-33.8427872],[18.7361242,-33.8430239],[18.736128,-33.843312],[18.7361309,-33.8434471],[18.7361362,-33.8437674],[18.7361436,-33.8441238],[18.7361449,-33.8443711],[18.736149,-33.8447014],[18.7361557,-33.8449715],[18.7361584,-33.8451814],[18.7361624,-33.845324],[18.7361785,-33.8454822],[18.736206,-33.8456621],[18.7362375,-33.84578350000001],[18.7362931,-33.8459606],[18.7363555,-33.8461148],[18.7363984,-33.8462078],[18.7364976,-33.84639330000001],[18.7365325,-33.846448399999986],[18.7366284,-33.8465882],[18.7366861,-33.8466456],[18.7368497,-33.846787],[18.7370468,-33.8469502],[18.7371199,-33.84699530000001],[18.7372081,-33.8470223]]}},
{"type":"Feature","properties":{},"geometry":{"type":"LineString","coordinates":[[18.7359336,-33.840889],[18.7359436,-33.8410048],[18.7359682,-33.8411622],[18.7359852,-33.8412601]]}},
{"type":"Feature","properties":{},"geometry":{"type":"LineString","coordinates":[[18.7359336,-33.840889],[18.7358934,-33.8405653],[18.7358466,-33.8402327],[18.7358324,-33.8400014],[18.7358202,-33.8397245],[18.7358436,-33.8396215],[18.7358355,-33.839483],[18.7357989,-33.8393446],[18.7357897,-33.8391445],[18.735805,-33.8391048],[18.73582,-33.8390878],[18.7358385,-33.8390668],[18.7358644,-33.8390548],[18.7358893,-33.8390432],[18.7359432,-33.8390305],[18.7360042,-33.839028],[18.7362003,-33.8390305],[18.7362938,-33.8390229]]}},
{"type":"Feature","properties":{},"geometry":{"type":"LineString","coordinates":[[18.7376178,-33.8475115],[18.7376952,-33.8476206],[18.7377753,-33.8477037],[18.7378677,-33.847818899999986],[18.7380479,-33.8479929],[18.7382621,-33.848195],[18.7384377,-33.8483562],[18.7386179,-33.848527699999984],[18.7388983,-33.84879],[18.7391864,-33.8490676],[18.7394406,-33.8493184],[18.7395037,-33.8493542],[18.7395501,-33.8494059],[18.7396711,-33.8495409],[18.7400193,-33.849856899999985],[18.7402303,-33.8500629],[18.740523,-33.8503239],[18.7406432,-33.8504365],[18.7407143,-33.8505068],[18.7408203,-33.8506117],[18.7408773,-33.8506655],[18.7409066,-33.850677],[18.7411038,-33.8508843],[18.7413272,-33.8510928],[18.7414843,-33.8512514],[18.7415459,-33.8512932],[18.7416245,-33.8513715],[18.741674,-33.8514244],[18.7416904,-33.8514375],[18.7416993,-33.8514446],[18.7417515,-33.8514748],[18.7418046,-33.8514917],[18.7418683,-33.8514976],[18.7419173,-33.8514912]]}},
{"type":"Feature","properties":{},"geometry":{"type":"LineString","coordinates":[[18.7417357,-33.85167460000001],[18.7416678,-33.8515926],[18.7416378,-33.8515597],[18.7415855,-33.8515023],[18.7415501,-33.8514589],[18.741505,-33.8514133],[18.7414316,-33.8513509],[18.7413227,-33.8512465],[18.7410679,-33.8510136],[18.7409591,-33.85091],[18.7407919,-33.8507564],[18.7407096,-33.850666],[18.7406459,-33.8506381],[18.7406255,-33.8506374],[18.7405902,-33.8505966],[18.7405574,-33.8505588],[18.74053,-33.8505022],[18.7404875,-33.8504728],[18.7403928,-33.8503905],[18.7403318,-33.85032660000001],[18.7403176,-33.850295],[18.740199,-33.8501855],[18.7400628,-33.8500547],[18.7399354,-33.8499305],[18.7398168,-33.8498173],[18.7397036,-33.8497181],[18.7395921,-33.84961160000001],[18.7395204,-33.8495484],[18.7394859,-33.8495227],[18.7394399,-33.8494813],[18.7393992,-33.849444799999979],[18.7393505,-33.849377199999985],[18.7392443,-33.8492802],[18.7391231,-33.8491655],[18.7389568,-33.8490075],[18.7388161,-33.8488731],[18.7386878,-33.8487518],[18.7385383,-33.84861],[18.7384392,-33.8485211],[18.7383592,-33.8484438],[18.7382543,-33.8483425],[18.7380127,-33.8481118],[18.73788,-33.847992],[18.7377526,-33.8478722],[18.7376314,-33.8477524],[18.7375261,-33.8476665],[18.737483,-33.8476332]]}}
]
}
